{
    "upes iela 2 - 15": { "address": "Upes iela 2 - 15", "city": "Rikava", "zip": "LV-4648" },
    "upes iela 5 - 15": { "address": "Upes iela 5 - 15", "city": "Rikava", "zip": "LV-4648" },
    "upes iela 4 - 15": { "address": "Upes iela 4 - 15", "city": "Rikava", "zip": "LV-4648" },
    "jāņa zvīdra iela 5 - 15": { "address": "Jāņa Zvīdra iela 5 - 15", "city": "Sondori", "zip": "LV-4647" },
    "jāņa zvīdra iela 11 - 15": { "address": "Jāņa Zvīdra iela 11 - 15", "city": "Sondori", "zip": "LV-4647" },
    "jāņa zvīdra iela 3a - 15": { "address": "Jāņa Zvīdra iela 3A - 15", "city": "Sondori", "zip": "LV-4647" },
    "ezeru iela 6 - 15": { "address": "Ezeru iela 6 - 15", "city": "Sondori", "zip": "LV-4647" },
    "ezeru iela 8 - 15": { "address": "Ezeru iela 8 - 15", "city": "Sondori", "zip": "LV-4647" },
    "ezeru iela 5a - 15": { "address": "Ezeru iela 5A - 15", "city": "Sondori", "zip": "LV-4647" },
    "smilšu iela 6 - 15": { "address": "Smilšu iela 6 - 15", "city": "Strūžāni", "zip": "LV-4643" },
    "smilšu iela 4 - 15": { "address": "Smilšu iela 4 - 15", "city": "Strūžāni", "zip": "LV-4643" },
    "miera iela 8 - 15": { "address": "Miera iela 8 - 15", "city": "Strūžāni", "zip": "LV-4643" },
    "miera iela 6 - 15": { "address": "Miera iela 6 - 15", "city": "Strūžāni", "zip": "LV-4643" },
    "miera iela 7 - 15": { "address": "Miera iela 7 - 15", "city": "Strūžāni", "zip": "LV-4643" },
    "miera iela 15 - 1": { "address": "Miera iela 15 - 1", "city": "Strūžāni", "zip": "LV-4643" },
    "miera iela 15 - 2": { "address": "Miera iela 15 - 2", "city": "Strūžāni", "zip": "LV-4643" },
    "miera iela 15 - 3": { "address": "Miera iela 15 - 3", "city": "Strūžāni", "zip": "LV-4643" },
    "miera iela 15 - 4": { "address": "Miera iela 15 - 4", "city": "Strūžāni", "zip": "LV-4643" },
    "miera iela 15 - 5": { "address": "Miera iela 15 - 5", "city": "Strūžāni", "zip": "LV-4643" },
    "miera iela 15 - 6": { "address": "Miera iela 15 - 6", "city": "Strūžāni", "zip": "LV-4643" },
    "miera iela 15 - 7": { "address": "Miera iela 15 - 7", "city": "Strūžāni", "zip": "LV-4643" },
    "miera iela 15 - 8": { "address": "Miera iela 15 - 8", "city": "Strūžāni", "zip": "LV-4643" },
    "miera iela 15 - 9": { "address": "Miera iela 15 - 9", "city": "Strūžāni", "zip": "LV-4643" },
    "miera iela 15 - 10": { "address": "Miera iela 15 - 10", "city": "Strūžāni", "zip": "LV-4643" },
    "miera iela 15 - 11": { "address": "Miera iela 15 - 11", "city": "Strūžāni", "zip": "LV-4643" },
    "miera iela 19 - 15": { "address": "Miera iela 19 - 15", "city": "Strūžāni", "zip": "LV-4643" },
    "jaunatnes iela 1 - 15": { "address": "Jaunatnes iela 1 - 15", "city": "Lūznava", "zip": "LV-4627" },
    "skolas iela 4 - 15": { "address": "Skolas iela 4 - 15", "city": "Stoļerova", "zip": "LV-4642" },
    "miera iela 1 - 15": { "address": "Miera iela 1 - 15", "city": "Strūžāni", "zip": "LV-4643" },
    "miera iela 2 - 15": { "address": "Miera iela 2 - 15", "city": "Strūžāni", "zip": "LV-4643" },
    "miera iela 5 - 15": { "address": "Miera iela 5 - 15", "city": "Strūžāni", "zip": "LV-4643" },
    "pasta iela 5 - 15": { "address": "Pasta iela 5 - 15", "city": "Stoļerova", "zip": "LV-4642" },
    "rēzeknes iela 3 - 15": { "address": "Rēzeknes iela 3 - 15", "city": "Stoļerova", "zip": "LV-4642" },
    "centrālā iela 25 - 15": { "address": "Centrālā iela 25 - 15", "city": "Sprūževa", "zip": "LV-4641" },
    "centrālā iela 25a - 15": { "address": "Centrālā iela 25A - 15", "city": "Sprūževa", "zip": "LV-4641" },
    "9 - 15": { "address": "9 - 15", "city": "Strupļi", "zip": "LV-4640" },
    "10 - 15": { "address": "10 - 15", "city": "Strupļi", "zip": "LV-4640" },
    "kalna iela 1 - 15": { "address": "Kalna iela 1 - 15", "city": "Sakstagals", "zip": "LV-4638" },
    "uzvaras iela 3 - 15": { "address": "Uzvaras iela 3 - 15", "city": "Ratnieki", "zip": "LV-4617" },
    "krasta iela 1 - 15": { "address": "Krasta iela 1 - 15", "city": "Ratnieki", "zip": "LV-4617" },
    "krasta iela 2 - 15": { "address": "Krasta iela 2 - 15", "city": "Ratnieki", "zip": "LV-4617" },
    "krasta iela 3 - 15": { "address": "Krasta iela 3 - 15", "city": "Ratnieki", "zip": "LV-4617" },
    "lakstīgalu iela 2 - 15": { "address": "Lakstīgalu iela 2 - 15", "city": "Vecružina", "zip": "LV-4636" },
    "jaunatnes iela 2 - 15": { "address": "Jaunatnes iela 2 - 15", "city": "Puša", "zip": "LV-4635" },
    "jaunatnes iela 3 - 15": { "address": "Jaunatnes iela 3 - 15", "city": "Lūznava", "zip": "LV-4627" },
    "5 - 15": { "address": "5 - 15", "city": "Nagļi", "zip": "LV-4631" },
    "3 - 15": { "address": "3 - 15", "city": "Nagļi", "zip": "LV-4631" },
    "4 - 15": { "address": "4 - 15", "city": "Nagļi", "zip": "LV-4631" },
    "kadiķi - 15": { "address": "Kadiķi - 15", "city": "Ozolmuiža", "zip": "LV-4633" },
    "kārumnieks - 15": { "address": "Kārumnieks - 15", "city": "Ozolmuiža", "zip": "LV-4633" },
    "lapegles - 15": { "address": "Lapegles - 15", "city": "Ozolmuiža", "zip": "LV-4633" },
    "oši - 15": { "address": "Oši - 15", "city": "Ozolmuiža", "zip": "LV-4633" },
    "1 - 15": { "address": "1 - 15", "city": "Nagļi", "zip": "LV-4631" },
    "2 - 15": { "address": "2 - 15", "city": "Nagļi", "zip": "LV-4631" },
    "6 - 15": { "address": "6 - 15", "city": "Nagļi", "zip": "LV-4631" },
    "saules iela 11 - 15": { "address": "Saules iela 11 - 15", "city": "Gornica", "zip": "LV-4630" },
    "saules iela 13 - 15": { "address": "Saules iela 13 - 15", "city": "Gornica", "zip": "LV-4630" },
    "saules iela 15 - 1": { "address": "Saules iela 15 - 1", "city": "Gornica", "zip": "LV-4630" },
    "saules iela 15 - 2": { "address": "Saules iela 15 - 2", "city": "Gornica", "zip": "LV-4630" },
    "saules iela 15 - 3": { "address": "Saules iela 15 - 3", "city": "Gornica", "zip": "LV-4630" },
    "saules iela 15 - 4": { "address": "Saules iela 15 - 4", "city": "Gornica", "zip": "LV-4630" },
    "saules iela 15 - 5": { "address": "Saules iela 15 - 5", "city": "Gornica", "zip": "LV-4630" },
    "saules iela 15 - 6": { "address": "Saules iela 15 - 6", "city": "Gornica", "zip": "LV-4630" },
    "saules iela 15 - 12": { "address": "Saules iela 15 - 12", "city": "Gornica", "zip": "LV-4630" },
    "saules iela 15 - 7": { "address": "Saules iela 15 - 7", "city": "Gornica", "zip": "LV-4630" },
    "saules iela 15 - 8": { "address": "Saules iela 15 - 8", "city": "Gornica", "zip": "LV-4630" },
    "saules iela 15 - 9": { "address": "Saules iela 15 - 9", "city": "Gornica", "zip": "LV-4630" },
    "saules iela 15 - 10": { "address": "Saules iela 15 - 10", "city": "Gornica", "zip": "LV-4630" },
    "saules iela 15 - 11": { "address": "Saules iela 15 - 11", "city": "Gornica", "zip": "LV-4630" },
    "skolas iela 38 - 15": { "address": "Skolas iela 38 - 15", "city": "Malta", "zip": "LV-4630" },
    "skolas iela 36 - 15": { "address": "Skolas iela 36 - 15", "city": "Malta", "zip": "LV-4630" },
    "skolas iela 21 - 15": { "address": "Skolas iela 21 - 15", "city": "Malta", "zip": "LV-4630" },
    "skolas iela 15 - 1": { "address": "Skolas iela 15 - 1", "city": "Malta", "zip": "LV-4630" },
    "skolas iela 15 - 2": { "address": "Skolas iela 15 - 2", "city": "Malta", "zip": "LV-4630" },
    "skolas iela 15 - 3": { "address": "Skolas iela 15 - 3", "city": "Malta", "zip": "LV-4630" },
    "skolas iela 15 - 4": { "address": "Skolas iela 15 - 4", "city": "Malta", "zip": "LV-4630" },
    "kalnu iela 1 - 15": { "address": "Kalnu iela 1 - 15", "city": "Malta", "zip": "LV-4630" },
    "kalnu iela 3 - 15": { "address": "Kalnu iela 3 - 15", "city": "Malta", "zip": "LV-4630" },
    "jaunatnes iela 8 k-1 - 15": { "address": "Jaunatnes iela 8 k-1 - 15", "city": "Malta", "zip": "LV-4630" },
    "brīvības iela 5 - 15": { "address": "Brīvības iela 5 - 15", "city": "Malta", "zip": "LV-4630" },
    "brīvības iela 7 - 15": { "address": "Brīvības iela 7 - 15", "city": "Malta", "zip": "LV-4630" },
    "parka iela 3 - 15": { "address": "Parka iela 3 - 15", "city": "Lūznava", "zip": "LV-4627" },
    "jaunatnes iela 4 - 15": { "address": "Jaunatnes iela 4 - 15", "city": "Lūznava", "zip": "LV-4627" },
    "skolas iela 2 - 15": { "address": "Skolas iela 2 - 15", "city": "Lipuški", "zip": "LV-4626" },
    "līgo iela 9 - 15": { "address": "Līgo iela 9 - 15", "city": "Lipuški", "zip": "LV-4626" }
}
