{"pakalni":{"address":"Pakalni","city":"Abragciems","zip":"LV-3113"},"palejas":{"address":"Palejas","city":"Abragciems","zip":"LV-3113"},"zaļupes iela 3":{"address":"Zaļupes iela 3","city":"Abragciems","zip":"LV-3113"},"zemturi":{"address":"Zemturi","city":"Abragciems","zip":"LV-3113"},"zīles":{"address":"Zīles","city":"Abragciems","zip":"LV-3113"},"mežrozes":{"address":"Mežrozes","city":"Abragciems","zip":"LV-3113"},"mikas":{"address":"Mikas","city":"Abragciems","zip":"LV-3113"},"meldri":{"address":"Meldri","city":"Abragciems","zip":"LV-3113"},"mētraines":{"address":"Mētraines","city":"Abragciems","zip":"LV-3113"},"jūras piesēni":{"address":"Jūras Piesēni","city":"Abragciems","zip":"LV-3113"},"kāpnieki":{"address":"Kāpnieki","city":"Abragciems","zip":"LV-3113"},"kastaņi":{"address":"Kastaņi","city":"Abragciems","zip":"LV-3113"},"kempings abragciems":{"address":"Kempings Abragciems","city":"Abragciems","zip":"LV-3113"},"klētnieki":{"address":"Klētnieki","city":"Abragciems","zip":"LV-3113"},"lejiņas":{"address":"Lejiņas","city":"Abragciems","zip":"LV-3113"},"līvi":{"address":"Līvi","city":"Abragciems","zip":"LV-3113"},"ausekļi":{"address":"Ausekļi","city":"Abragciems","zip":"LV-3113"},"brālīši":{"address":"Brālīši","city":"Abragciems","zip":"LV-3113"},"grunduļi":{"address":"Grunduļi","city":"Abragciems","zip":"LV-3113"},"jāsiņi":{"address":"Jāsiņi","city":"Abragciems","zip":"LV-3113"},"jāsiņi 1":{"address":"Jāsiņi 1","city":"Abragciems","zip":"LV-3113"},"jaunsiliņi":{"address":"Jaunsiliņi","city":"Abragciems","zip":"LV-3113"},"ābragciema baloži":{"address":"Ābragciema Baloži","city":"Abragciems","zip":"LV-3113"},"zaļupes iela 5":{"address":"Zaļupes iela 5","city":"Abragciems","zip":"LV-3113"},"abragciema dangas":{"address":"Abragciema Dangas","city":"Abragciems","zip":"LV-3113"},"ābragciema pūpoli":{"address":"Ābragciema Pūpoli","city":"Abragciems","zip":"LV-3113"}}