{"aizpurvīte - 1":{"address":"Aizpurvīte - 1","city":"Aizpurve","zip":"LV-4586"},"aizpurvīte - 2":{"address":"Aizpurvīte - 2","city":"Aizpurve","zip":"LV-4586"},"aizpurvīte - 3":{"address":"Aizpurvīte - 3","city":"Aizpurve","zip":"LV-4586"},"aizpurvīte - 4":{"address":"Aizpurvīte - 4","city":"Aizpurve","zip":"LV-4586"},"aizpurvīte - 5":{"address":"Aizpurvīte - 5","city":"Aizpurve","zip":"LV-4586"},"aizpurvīte - 6":{"address":"Aizpurvīte - 6","city":"Aizpurve","zip":"LV-4586"},"aizpurvīte - 7":{"address":"Aizpurvīte - 7","city":"Aizpurve","zip":"LV-4586"},"aizpurvīte - 8":{"address":"Aizpurvīte - 8","city":"Aizpurve","zip":"LV-4586"},"aizpurvi":{"address":"Aizpurvi","city":"Tilīši","zip":"LV-4617"},"aizpurviņi":{"address":"Aizpurviņi","city":"Melnsils","zip":"LV-3264"},"aizpurvieši":{"address":"Aizpurvieši","city":"Jaunsaimnieki","zip":"LV-4601"},"aizpurvi 1":{"address":"Aizpurvi 1","city":"Sinole","zip":"LV-4412"},"aizpurvīte":{"address":"Aizpurvīte","city":"Aizpurve","zip":"LV-4586"}}