{"aizupes 5 - 1":{"address":"Aizupes 5 - 1","city":"Ozolnieki","zip":"LV-3018"},"aizupes 5 - 2":{"address":"Aizupes 5 - 2","city":"Ozolnieki","zip":"LV-3018"},"aizupes 5 - 3":{"address":"Aizupes 5 - 3","city":"Ozolnieki","zip":"LV-3018"},"aizupes 5 - 4":{"address":"Aizupes 5 - 4","city":"Ozolnieki","zip":"LV-3018"},"aizupes 5 - 5":{"address":"Aizupes 5 - 5","city":"Ozolnieki","zip":"LV-3018"},"aizupes 5 - 6":{"address":"Aizupes 5 - 6","city":"Ozolnieki","zip":"LV-3018"},"aizupes 5 - 7":{"address":"Aizupes 5 - 7","city":"Ozolnieki","zip":"LV-3018"},"aizupes 5 - 8":{"address":"Aizupes 5 - 8","city":"Ozolnieki","zip":"LV-3018"},"aizupes 5 - 9":{"address":"Aizupes 5 - 9","city":"Ozolnieki","zip":"LV-3018"},"aizupes 5 - 10":{"address":"Aizupes 5 - 10","city":"Ozolnieki","zip":"LV-3018"},"aizupes 5 - 11":{"address":"Aizupes 5 - 11","city":"Ozolnieki","zip":"LV-3018"},"aizupes 5 - 12":{"address":"Aizupes 5 - 12","city":"Ozolnieki","zip":"LV-3018"},"aizupes 1 - 1":{"address":"Aizupes 1 - 1","city":"Ozolnieki","zip":"LV-3018"},"aizupes 1 - 2":{"address":"Aizupes 1 - 2","city":"Ozolnieki","zip":"LV-3018"},"aizupes 1 - 3":{"address":"Aizupes 1 - 3","city":"Ozolnieki","zip":"LV-3018"},"aizupes 1 - 4":{"address":"Aizupes 1 - 4","city":"Ozolnieki","zip":"LV-3018"},"aizupes 2 - 1":{"address":"Aizupes 2 - 1","city":"Ozolnieki","zip":"LV-3018"},"aizupes 2 - 2":{"address":"Aizupes 2 - 2","city":"Ozolnieki","zip":"LV-3018"},"aizupes 2 - 3":{"address":"Aizupes 2 - 3","city":"Ozolnieki","zip":"LV-3018"},"aizupes 2 - 4":{"address":"Aizupes 2 - 4","city":"Ozolnieki","zip":"LV-3018"},"aizupes 3 - 1":{"address":"Aizupes 3 - 1","city":"Ozolnieki","zip":"LV-3018"},"aizupes 3 - 2":{"address":"Aizupes 3 - 2","city":"Ozolnieki","zip":"LV-3018"},"aizupes 3 - 3":{"address":"Aizupes 3 - 3","city":"Ozolnieki","zip":"LV-3018"},"aizupes 3 - 4":{"address":"Aizupes 3 - 4","city":"Ozolnieki","zip":"LV-3018"},"aizupes 4 - 1":{"address":"Aizupes 4 - 1","city":"Ozolnieki","zip":"LV-3018"},"aizupes 4 - 2":{"address":"Aizupes 4 - 2","city":"Ozolnieki","zip":"LV-3018"},"aizupes 4 - 3":{"address":"Aizupes 4 - 3","city":"Ozolnieki","zip":"LV-3018"},"aizupes 4 - 4":{"address":"Aizupes 4 - 4","city":"Ozolnieki","zip":"LV-3018"},"aizupes 4 - 5":{"address":"Aizupes 4 - 5","city":"Ozolnieki","zip":"LV-3018"},"aizupes 4 - 6":{"address":"Aizupes 4 - 6","city":"Ozolnieki","zip":"LV-3018"},"aizupes 4 - 7":{"address":"Aizupes 4 - 7","city":"Ozolnieki","zip":"LV-3018"},"aizupes 4 - 8":{"address":"Aizupes 4 - 8","city":"Ozolnieki","zip":"LV-3018"}}