{"aizvēji - 1":{"address":"Aizvēji - 1","city":"Sproģi","zip":"LV-5112"},"aizvēji - 2":{"address":"Aizvēji - 2","city":"Sproģi","zip":"LV-5112"},"aizvēji - 3":{"address":"Aizvēji - 3","city":"Sproģi","zip":"LV-5112"},"aizvēji - 4":{"address":"Aizvēji - 4","city":"Sproģi","zip":"LV-5112"},"aizvēji - 5":{"address":"Aizvēji - 5","city":"Jaunpils","zip":"LV-3145"},"aizvēji - 6":{"address":"Aizvēji - 6","city":"Jaunpils","zip":"LV-3145"},"aizvēji - 7":{"address":"Aizvēji - 7","city":"Jaunpils","zip":"LV-3145"},"aizvēji - 8":{"address":"Aizvēji - 8","city":"Jaunpils","zip":"LV-3145"},"aizvēji - 9":{"address":"Aizvēji - 9","city":"Jaunpils","zip":"LV-3145"},"aizvēji - 10":{"address":"Aizvēji - 10","city":"Jaunpils","zip":"LV-3145"},"aizvēji - 11":{"address":"Aizvēji - 11","city":"Jaunpils","zip":"LV-3145"},"aizvēji - 12":{"address":"Aizvēji - 12","city":"Jaunpils","zip":"LV-3145"},"aizvēji - 13":{"address":"Aizvēji - 13","city":"Jaunpils","zip":"LV-3145"},"aizvēji - 14":{"address":"Aizvēji - 14","city":"Jaunpils","zip":"LV-3145"},"aizvēji - 15":{"address":"Aizvēji - 15","city":"Jaunpils","zip":"LV-3145"},"aizvēji - 16":{"address":"Aizvēji - 16","city":"Jaunpils","zip":"LV-3145"},"aizvēji - 17":{"address":"Aizvēji - 17","city":"Jaunpils","zip":"LV-3145"},"aizvēji - 18":{"address":"Aizvēji - 18","city":"Jaunpils","zip":"LV-3145"},"aizvēji - 19":{"address":"Aizvēji - 19","city":"Jaunpils","zip":"LV-3145"},"aizvēji - 20":{"address":"Aizvēji - 20","city":"Jaunpils","zip":"LV-3145"},"aizvēji - 21":{"address":"Aizvēji - 21","city":"Jaunpils","zip":"LV-3145"},"aizvēji":{"address":"Aizvēji","city":"Atpūta","zip":"LV-3008"},"aizvējiņi":{"address":"Aizvējiņi","city":"Trapene","zip":"LV-4348"},"dārza iela aizvēji":{"address":"Dārza iela Aizvēji","city":"Svitene","zip":"LV-3917"}}