{"akmeņi - 1":{"address":"Akmeņi - 1","city":"Lielie Dreizi","zip":"LV-4641"},"akmeņi - 2":{"address":"Akmeņi - 2","city":"Lielie Dreizi","zip":"LV-4641"},"akmeņi":{"address":"Akmeņi","city":"Sauleskalns","zip":"LV-4853"},"akmeņi 2":{"address":"Akmeņi 2","city":"Uguņciems","zip":"LV-3284"},"sila akmeņi":{"address":"Sila Akmeņi","city":"Lielie Mūrnieki","zip":"LV-5301"},"zaļie akmeņi":{"address":"Zaļie Akmeņi","city":"Pulkarne","zip":"LV-2123"},"ceriņmājas":{"address":"Ceriņmājas","city":"Akmenīši","zip":"LV-4622"},"aparenīšu mājas":{"address":"Aparenīšu mājas","city":"Akmenīši","zip":"LV-4622"},"pūdnīku skūla":{"address":"Pūdnīku skūla","city":"Akmenīši","zip":"LV-4622"},"oļi":{"address":"Oļi","city":"Akmenīši","zip":"LV-4622"},"zemīte":{"address":"Zemīte","city":"Akmenīši","zip":"LV-4622"},"akmenica":{"address":"Akmenica","city":"Sloboda","zip":"LV-5655"},"aizupes":{"address":"Aizupes","city":"Akmenīca","zip":"LV-5655"},"dzirnaviņas":{"address":"Dzirnaviņas","city":"Akmenīca","zip":"LV-5655"},"genovefas":{"address":"Genovefas","city":"Akmenīca","zip":"LV-5655"},"jakoveļi":{"address":"Jakoveļi","city":"Akmenīca","zip":"LV-5655"},"jāņa kalni":{"address":"Jāņa kalni","city":"Akmenīca","zip":"LV-5655"},"pūpoliņi":{"address":"Pūpoliņi","city":"Akmenīca","zip":"LV-5655"},"margrietiņas":{"address":"Margrietiņas","city":"Akmenīca","zip":"LV-5655"},"akmeņi 1":{"address":"Akmeņi 1","city":"Gančevski","zip":"LV-5456"},"akmenīši":{"address":"Akmenīši","city":"Škorlupova","zip":"LV-5739"},"kalna akmeņi":{"address":"Kalna akmeņi","city":"Podskočeva","zip":"LV-5653"},"grantiņi":{"address":"Grantiņi","city":"Akmenīca","zip":"LV-5655"},"porečje":{"address":"Porečje","city":"Akmenīca","zip":"LV-5655"}}