{"akācijas - 1":{"address":"Akācijas - 1","city":"Vārme","zip":"LV-3333"},"akācijas - 2":{"address":"Akācijas - 2","city":"Vārme","zip":"LV-3333"},"akācijas - 3":{"address":"Akācijas - 3","city":"Vārme","zip":"LV-3333"},"akācijas - 4":{"address":"Akācijas - 4","city":"Vārme","zip":"LV-3333"},"akācijas - 5":{"address":"Akācijas - 5","city":"Vārme","zip":"LV-3333"},"akācijas - 6":{"address":"Akācijas - 6","city":"Vārme","zip":"LV-3333"},"akācijas - 7":{"address":"Akācijas - 7","city":"Vārme","zip":"LV-3333"},"akācijas - 8":{"address":"Akācijas - 8","city":"Vārme","zip":"LV-3333"},"akācijas - 9":{"address":"Akācijas - 9","city":"Vārme","zip":"LV-3333"},"akācijas - 10":{"address":"Akācijas - 10","city":"Vārme","zip":"LV-3333"},"akācijas - 11":{"address":"Akācijas - 11","city":"Vārme","zip":"LV-3333"},"akācijas - 12":{"address":"Akācijas - 12","city":"Penkule","zip":"LV-3725"},"akācijas - 13":{"address":"Akācijas - 13","city":"Penkule","zip":"LV-3725"},"akācijas - 14":{"address":"Akācijas - 14","city":"Penkule","zip":"LV-3725"},"akācijas - 15":{"address":"Akācijas - 15","city":"Penkule","zip":"LV-3725"},"akācijas - 16":{"address":"Akācijas - 16","city":"Penkule","zip":"LV-3725"},"akācijas - 17":{"address":"Akācijas - 17","city":"Penkule","zip":"LV-3725"},"akācijas - 18":{"address":"Akācijas - 18","city":"Penkule","zip":"LV-3725"},"akācijas 8 - 18":{"address":"Akācijas 8 - 18","city":"Akācijas","zip":"LV-3719"},"akācijas 8 - 15":{"address":"Akācijas 8 - 15","city":"Akācijas","zip":"LV-3719"},"akācijas 8 - 17":{"address":"Akācijas 8 - 17","city":"Akācijas","zip":"LV-3719"},"akācijas 8 - 1":{"address":"Akācijas 8 - 1","city":"Akācijas","zip":"LV-3719"},"akācijas 8 - 2":{"address":"Akācijas 8 - 2","city":"Akācijas","zip":"LV-3719"},"akācijas 8 - 3":{"address":"Akācijas 8 - 3","city":"Akācijas","zip":"LV-3719"},"akācijas 8 - 4":{"address":"Akācijas 8 - 4","city":"Akācijas","zip":"LV-3719"},"akācijas 8 - 5":{"address":"Akācijas 8 - 5","city":"Akācijas","zip":"LV-3719"},"akācijas 8 - 6":{"address":"Akācijas 8 - 6","city":"Akācijas","zip":"LV-3719"},"akācijas 8 - 7":{"address":"Akācijas 8 - 7","city":"Akācijas","zip":"LV-3719"},"akācijas 8 - 8":{"address":"Akācijas 8 - 8","city":"Akācijas","zip":"LV-3719"},"akācijas 8 - 9":{"address":"Akācijas 8 - 9","city":"Akācijas","zip":"LV-3719"},"akācijas 8 - 10":{"address":"Akācijas 8 - 10","city":"Akācijas","zip":"LV-3719"},"akācijas 8 - 11":{"address":"Akācijas 8 - 11","city":"Akācijas","zip":"LV-3719"},"akācijas 8 - 12":{"address":"Akācijas 8 - 12","city":"Akācijas","zip":"LV-3719"},"akācijas 8 - 13":{"address":"Akācijas 8 - 13","city":"Akācijas","zip":"LV-3719"},"akācijas 8 - 14":{"address":"Akācijas 8 - 14","city":"Akācijas","zip":"LV-3719"},"akācijas 8 - 16":{"address":"Akācijas 8 - 16","city":"Akācijas","zip":"LV-3719"},"akācijas 4 - 7":{"address":"Akācijas 4 - 7","city":"Akācijas","zip":"LV-3719"},"akācijas 4 - 10":{"address":"Akācijas 4 - 10","city":"Akācijas","zip":"LV-3719"},"akācijas 4 - 1":{"address":"Akācijas 4 - 1","city":"Akācijas","zip":"LV-3719"},"akācijas 4 - 9":{"address":"Akācijas 4 - 9","city":"Akācijas","zip":"LV-3719"},"akācijas 4 - 2":{"address":"Akācijas 4 - 2","city":"Akācijas","zip":"LV-3719"},"akācijas 4 - 3":{"address":"Akācijas 4 - 3","city":"Akācijas","zip":"LV-3719"},"akācijas 4 - 4":{"address":"Akācijas 4 - 4","city":"Akācijas","zip":"LV-3719"},"akācijas 4 - 5":{"address":"Akācijas 4 - 5","city":"Akācijas","zip":"LV-3719"},"akācijas 4 - 6":{"address":"Akācijas 4 - 6","city":"Akācijas","zip":"LV-3719"},"akācijas 4 - 8":{"address":"Akācijas 4 - 8","city":"Akācijas","zip":"LV-3719"},"akācijas 4 - 11":{"address":"Akācijas 4 - 11","city":"Akācijas","zip":"LV-3719"},"akācijas 4 - 12":{"address":"Akācijas 4 - 12","city":"Akācijas","zip":"LV-3719"},"akācijas 5 - 1":{"address":"Akācijas 5 - 1","city":"Akācijas","zip":"LV-3719"},"akācijas 5 - 2":{"address":"Akācijas 5 - 2","city":"Akācijas","zip":"LV-3719"},"akācijas 5 - 3":{"address":"Akācijas 5 - 3","city":"Akācijas","zip":"LV-3719"},"akācijas 5 - 4":{"address":"Akācijas 5 - 4","city":"Akācijas","zip":"LV-3719"},"akācijas 5 - 5":{"address":"Akācijas 5 - 5","city":"Akācijas","zip":"LV-3719"},"akācijas 5 - 6":{"address":"Akācijas 5 - 6","city":"Akācijas","zip":"LV-3719"},"akācijas 5 - 7":{"address":"Akācijas 5 - 7","city":"Akācijas","zip":"LV-3719"},"akācijas 5 - 8":{"address":"Akācijas 5 - 8","city":"Akācijas","zip":"LV-3719"},"akācijas 5 - 9":{"address":"Akācijas 5 - 9","city":"Akācijas","zip":"LV-3719"},"akācijas 5 - 10":{"address":"Akācijas 5 - 10","city":"Akācijas","zip":"LV-3719"},"akācijas 5 - 11":{"address":"Akācijas 5 - 11","city":"Akācijas","zip":"LV-3719"},"akācijas 5 - 12":{"address":"Akācijas 5 - 12","city":"Akācijas","zip":"LV-3719"},"akācijas 6 - 1":{"address":"Akācijas 6 - 1","city":"Akācijas","zip":"LV-3719"},"akācijas 6 - 2":{"address":"Akācijas 6 - 2","city":"Akācijas","zip":"LV-3719"},"akācijas 6 - 3":{"address":"Akācijas 6 - 3","city":"Akācijas","zip":"LV-3719"},"akācijas 6 - 4":{"address":"Akācijas 6 - 4","city":"Akācijas","zip":"LV-3719"},"akācijas 6 - 5":{"address":"Akācijas 6 - 5","city":"Akācijas","zip":"LV-3719"},"akācijas 6 - 6":{"address":"Akācijas 6 - 6","city":"Akācijas","zip":"LV-3719"},"akācijas 6 - 7":{"address":"Akācijas 6 - 7","city":"Akācijas","zip":"LV-3719"},"akācijas 6 - 8":{"address":"Akācijas 6 - 8","city":"Akācijas","zip":"LV-3719"},"akācijas 6 - 9":{"address":"Akācijas 6 - 9","city":"Akācijas","zip":"LV-3719"},"akācijas 6 - 11":{"address":"Akācijas 6 - 11","city":"Akācijas","zip":"LV-3719"},"akācijas 6 - 15":{"address":"Akācijas 6 - 15","city":"Akācijas","zip":"LV-3719"},"akācijas 6 - 12":{"address":"Akācijas 6 - 12","city":"Akācijas","zip":"LV-3719"},"akācijas 6 - 10":{"address":"Akācijas 6 - 10","city":"Akācijas","zip":"LV-3719"},"akācijas 6 - 13":{"address":"Akācijas 6 - 13","city":"Akācijas","zip":"LV-3719"},"akācijas 6 - 14":{"address":"Akācijas 6 - 14","city":"Akācijas","zip":"LV-3719"},"akācijas 6 - 16":{"address":"Akācijas 6 - 16","city":"Akācijas","zip":"LV-3719"},"akācijas 6 - 17":{"address":"Akācijas 6 - 17","city":"Akācijas","zip":"LV-3719"},"akācijas 6 - 18":{"address":"Akācijas 6 - 18","city":"Akācijas","zip":"LV-3719"},"akācijas 1 - 1":{"address":"Akācijas 1 - 1","city":"Akācijas","zip":"LV-3719"},"akācijas 1 - 2":{"address":"Akācijas 1 - 2","city":"Akācijas","zip":"LV-3719"},"akācijas 1 - 3":{"address":"Akācijas 1 - 3","city":"Akācijas","zip":"LV-3719"},"akācijas 1 - 4":{"address":"Akācijas 1 - 4","city":"Akācijas","zip":"LV-3719"},"akācijas 1 - 5":{"address":"Akācijas 1 - 5","city":"Akācijas","zip":"LV-3719"},"akācijas 1 - 6":{"address":"Akācijas 1 - 6","city":"Akācijas","zip":"LV-3719"},"akācijas 1 - 7":{"address":"Akācijas 1 - 7","city":"Akācijas","zip":"LV-3719"}}