{"alejas - 1":{"address":"Alejas - 1","city":"Jeri","zip":"LV-4234"},"alejas - 2":{"address":"Alejas - 2","city":"Jeri","zip":"LV-4234"},"alejas - 3":{"address":"Alejas - 3","city":"Jeri","zip":"LV-4234"},"alejas - 4":{"address":"Alejas - 4","city":"Jeri","zip":"LV-4234"},"alejas - 5":{"address":"Alejas - 5","city":"Kalniena","zip":"LV-4406"},"alejas - 6":{"address":"Alejas - 6","city":"Kalniena","zip":"LV-4406"},"alejas - 7":{"address":"Alejas - 7","city":"Kalniena","zip":"LV-4406"},"alejas - 8":{"address":"Alejas - 8","city":"Kalniena","zip":"LV-4406"},"alejas - 9":{"address":"Alejas - 9","city":"Kalniena","zip":"LV-4406"},"alejas - 10":{"address":"Alejas - 10","city":"Kalniena","zip":"LV-4406"},"alejas - 11":{"address":"Alejas - 11","city":"Kalniena","zip":"LV-4406"},"alejas - 12":{"address":"Alejas - 12","city":"Kalniena","zip":"LV-4406"},"alejas iela 6 - 1":{"address":"Alejas iela 6 - 1","city":"Kocēni","zip":"LV-4220"},"alejas iela 6 - 2":{"address":"Alejas iela 6 - 2","city":"Kocēni","zip":"LV-4220"},"alejas iela 6 - 3":{"address":"Alejas iela 6 - 3","city":"Rencēni","zip":"LV-4232"},"alejas iela 6 - 4":{"address":"Alejas iela 6 - 4","city":"Rencēni","zip":"LV-4232"},"alejas iela 6 - 5":{"address":"Alejas iela 6 - 5","city":"Rencēni","zip":"LV-4232"},"alejas iela 6 - 6":{"address":"Alejas iela 6 - 6","city":"Rencēni","zip":"LV-4232"},"alejas iela 6 - 7":{"address":"Alejas iela 6 - 7","city":"Rencēni","zip":"LV-4232"},"alejas iela 6 - 8":{"address":"Alejas iela 6 - 8","city":"Rencēni","zip":"LV-4232"},"alejas iela 6 - 9":{"address":"Alejas iela 6 - 9","city":"Rencēni","zip":"LV-4232"},"alejas iela 6 - 10":{"address":"Alejas iela 6 - 10","city":"Rencēni","zip":"LV-4232"},"alejas iela 6 - 11":{"address":"Alejas iela 6 - 11","city":"Rencēni","zip":"LV-4232"},"alejas iela 6 - 12":{"address":"Alejas iela 6 - 12","city":"Rencēni","zip":"LV-4232"},"alejas iela 6 - 13":{"address":"Alejas iela 6 - 13","city":"Rencēni","zip":"LV-4232"},"alejas iela 6 - 14":{"address":"Alejas iela 6 - 14","city":"Rencēni","zip":"LV-4232"},"alejas iela 6 - 15":{"address":"Alejas iela 6 - 15","city":"Rencēni","zip":"LV-4232"},"alejas iela 6 - 16":{"address":"Alejas iela 6 - 16","city":"Rencēni","zip":"LV-4232"},"alejas iela 6 - 17":{"address":"Alejas iela 6 - 17","city":"Rencēni","zip":"LV-4232"},"alejas iela 6 - 18":{"address":"Alejas iela 6 - 18","city":"Rencēni","zip":"LV-4232"},"alejas iela 8 - 1":{"address":"Alejas iela 8 - 1","city":"Rencēni","zip":"LV-4232"},"alejas iela 8 - 2":{"address":"Alejas iela 8 - 2","city":"Rencēni","zip":"LV-4232"},"alejas iela 8 - 3":{"address":"Alejas iela 8 - 3","city":"Rencēni","zip":"LV-4232"},"alejas iela 8 - 4":{"address":"Alejas iela 8 - 4","city":"Rencēni","zip":"LV-4232"},"alejas iela 8 - 5":{"address":"Alejas iela 8 - 5","city":"Rencēni","zip":"LV-4232"},"alejas iela 8 - 6":{"address":"Alejas iela 8 - 6","city":"Rencēni","zip":"LV-4232"},"alejas iela 8 - 7":{"address":"Alejas iela 8 - 7","city":"Rencēni","zip":"LV-4232"},"alejas iela 8 - 8":{"address":"Alejas iela 8 - 8","city":"Rencēni","zip":"LV-4232"},"alejas iela 8 - 9":{"address":"Alejas iela 8 - 9","city":"Rencēni","zip":"LV-4232"},"alejas iela 8 - 10":{"address":"Alejas iela 8 - 10","city":"Rencēni","zip":"LV-4232"},"alejas iela 8 - 11":{"address":"Alejas iela 8 - 11","city":"Rencēni","zip":"LV-4232"},"alejas iela 8 - 12":{"address":"Alejas iela 8 - 12","city":"Rencēni","zip":"LV-4232"},"alejas iela 8 - 13":{"address":"Alejas iela 8 - 13","city":"Rencēni","zip":"LV-4232"},"alejas iela 8 - 14":{"address":"Alejas iela 8 - 14","city":"Rencēni","zip":"LV-4232"},"alejas iela 8 - 15":{"address":"Alejas iela 8 - 15","city":"Rencēni","zip":"LV-4232"},"alejas iela 8 - 16":{"address":"Alejas iela 8 - 16","city":"Rencēni","zip":"LV-4232"},"alejas iela 8 - 17":{"address":"Alejas iela 8 - 17","city":"Rencēni","zip":"LV-4232"},"alejas iela 8 - 18":{"address":"Alejas iela 8 - 18","city":"Rencēni","zip":"LV-4232"},"alejas iela 9 - 1":{"address":"Alejas iela 9 - 1","city":"Kocēni","zip":"LV-4220"},"alejas iela 9 - 2":{"address":"Alejas iela 9 - 2","city":"Kocēni","zip":"LV-4220"},"alejas iela 9 - 3":{"address":"Alejas iela 9 - 3","city":"Kocēni","zip":"LV-4220"},"alejas iela 9 - 4":{"address":"Alejas iela 9 - 4","city":"Kocēni","zip":"LV-4220"},"alejas iela 9 - 5":{"address":"Alejas iela 9 - 5","city":"Kocēni","zip":"LV-4220"},"alejas iela 1 - 1":{"address":"Alejas iela 1 - 1","city":"Kocēni","zip":"LV-4220"},"alejas iela 1 - 2":{"address":"Alejas iela 1 - 2","city":"Kocēni","zip":"LV-4220"},"alejas iela 9a - 1":{"address":"Alejas iela 9A - 1","city":"Kocēni","zip":"LV-4220"},"alejas iela 9a - 2":{"address":"Alejas iela 9A - 2","city":"Kocēni","zip":"LV-4220"},"alejas iela 9a - 3":{"address":"Alejas iela 9A - 3","city":"Kocēni","zip":"LV-4220"},"alejas iela 9a - 4":{"address":"Alejas iela 9A - 4","city":"Kocēni","zip":"LV-4220"},"alejas iela 9a - 5":{"address":"Alejas iela 9A - 5","city":"Kocēni","zip":"LV-4220"},"alejas iela 9a - 6":{"address":"Alejas iela 9A - 6","city":"Kocēni","zip":"LV-4220"},"alejas iela 9a - 7":{"address":"Alejas iela 9A - 7","city":"Kocēni","zip":"LV-4220"},"alejas iela 9a - 8":{"address":"Alejas iela 9A - 8","city":"Kocēni","zip":"LV-4220"}}