{"vaivari - 1":{"address":"Vaivari - 1","city":"Strautiņi","zip":"LV-4333"},"vaivari - 2":{"address":"Vaivari - 2","city":"Strautiņi","zip":"LV-4333"},"vaivari - 3":{"address":"Vaivari - 3","city":"Strautiņi","zip":"LV-4333"},"vaivari - 4":{"address":"Vaivari - 4","city":"Strautiņi","zip":"LV-4333"},"vaivari - 5":{"address":"Vaivari - 5","city":"Strautiņi","zip":"LV-4333"},"vaivari - 6":{"address":"Vaivari - 6","city":"Strautiņi","zip":"LV-4333"},"vaivari - 7":{"address":"Vaivari - 7","city":"Strautiņi","zip":"LV-4333"},"vaivari - 8":{"address":"Vaivari - 8","city":"Strautiņi","zip":"LV-4333"},"vaivari - 9":{"address":"Vaivari - 9","city":"Strautiņi","zip":"LV-4333"},"vaivari - 10":{"address":"Vaivari - 10","city":"Strautiņi","zip":"LV-4333"},"vaivari - 11":{"address":"Vaivari - 11","city":"Strautiņi","zip":"LV-4333"},"vaivari - 12":{"address":"Vaivari - 12","city":"Strautiņi","zip":"LV-4333"},"vaivari - 13":{"address":"Vaivari - 13","city":"Strautiņi","zip":"LV-4333"},"vaivari - 14":{"address":"Vaivari - 14","city":"Strautiņi","zip":"LV-4333"},"vaivari - 15":{"address":"Vaivari - 15","city":"Strautiņi","zip":"LV-4333"},"vaivari - 16":{"address":"Vaivari - 16","city":"Strautiņi","zip":"LV-4333"},"vaivari - 17":{"address":"Vaivari - 17","city":"Strautiņi","zip":"LV-4333"},"vaivari - 18":{"address":"Vaivari - 18","city":"Strautiņi","zip":"LV-4333"},"viļņi - 1":{"address":"Viļņi - 1","city":"Strautiņi","zip":"LV-4333"},"viļņi - 2":{"address":"Viļņi - 2","city":"Strautiņi","zip":"LV-4333"},"viļņi - 3":{"address":"Viļņi - 3","city":"Strautiņi","zip":"LV-4333"},"viļņi - 4":{"address":"Viļņi - 4","city":"Strautiņi","zip":"LV-4333"},"viļņi - 5":{"address":"Viļņi - 5","city":"Strautiņi","zip":"LV-4333"},"viļņi - 6":{"address":"Viļņi - 6","city":"Strautiņi","zip":"LV-4333"},"viļņi - 7":{"address":"Viļņi - 7","city":"Strautiņi","zip":"LV-4333"},"viļņi - 8":{"address":"Viļņi - 8","city":"Strautiņi","zip":"LV-4333"},"viļņi - 9":{"address":"Viļņi - 9","city":"Strautiņi","zip":"LV-4333"},"viļņi - 10":{"address":"Viļņi - 10","city":"Strautiņi","zip":"LV-4333"},"viļņi - 11":{"address":"Viļņi - 11","city":"Strautiņi","zip":"LV-4333"},"viļņi - 12":{"address":"Viļņi - 12","city":"Strautiņi","zip":"LV-4333"},"viļņi - 13":{"address":"Viļņi - 13","city":"Strautiņi","zip":"LV-4333"},"viļņi - 14":{"address":"Viļņi - 14","city":"Strautiņi","zip":"LV-4333"},"viļņi - 15":{"address":"Viļņi - 15","city":"Strautiņi","zip":"LV-4333"},"viļņi - 16":{"address":"Viļņi - 16","city":"Strautiņi","zip":"LV-4333"},"viļņi - 17":{"address":"Viļņi - 17","city":"Strautiņi","zip":"LV-4333"},"viļņi - 18":{"address":"Viļņi - 18","city":"Strautiņi","zip":"LV-4333"},"vīteri - 1":{"address":"Vīteri - 1","city":"Strautiņi","zip":"LV-4333"},"vīteri - 2":{"address":"Vīteri - 2","city":"Strautiņi","zip":"LV-4333"},"vīteri - 3":{"address":"Vīteri - 3","city":"Strautiņi","zip":"LV-4333"},"vīteri - 4":{"address":"Vīteri - 4","city":"Strautiņi","zip":"LV-4333"},"vīteri - 5":{"address":"Vīteri - 5","city":"Strautiņi","zip":"LV-4333"},"vīteri - 6":{"address":"Vīteri - 6","city":"Strautiņi","zip":"LV-4333"},"vīteri - 7":{"address":"Vīteri - 7","city":"Strautiņi","zip":"LV-4333"},"vīteri - 8":{"address":"Vīteri - 8","city":"Strautiņi","zip":"LV-4333"},"vīteri - 9":{"address":"Vīteri - 9","city":"Strautiņi","zip":"LV-4333"},"vīteri - 10":{"address":"Vīteri - 10","city":"Strautiņi","zip":"LV-4333"},"vīteri - 11":{"address":"Vīteri - 11","city":"Strautiņi","zip":"LV-4333"},"vīteri - 12":{"address":"Vīteri - 12","city":"Strautiņi","zip":"LV-4333"},"vīteri - 13":{"address":"Vīteri - 13","city":"Strautiņi","zip":"LV-4333"},"vīteri - 14":{"address":"Vīteri - 14","city":"Strautiņi","zip":"LV-4333"},"vīteri - 15":{"address":"Vīteri - 15","city":"Strautiņi","zip":"LV-4333"},"vīteri - 16":{"address":"Vīteri - 16","city":"Strautiņi","zip":"LV-4333"},"vīteri - 17":{"address":"Vīteri - 17","city":"Strautiņi","zip":"LV-4333"},"vīteri - 18":{"address":"Vīteri - 18","city":"Strautiņi","zip":"LV-4333"},"stūri 2 - 1":{"address":"Stūri 2 - 1","city":"Alsviķi","zip":"LV-4333"},"stūri 2 - 2":{"address":"Stūri 2 - 2","city":"Alsviķi","zip":"LV-4333"}}