{"amatnieki - 1":{"address":"Amatnieki - 1","city":"Palsmane","zip":"LV-4724"},"amatnieki - 2":{"address":"Amatnieki - 2","city":"Palsmane","zip":"LV-4724"},"amatnieki - 3":{"address":"Amatnieki - 3","city":"Palsmane","zip":"LV-4724"},"ābeļu iela 21 - 1":{"address":"Ābeļu iela 21 - 1","city":"Amatnieki","zip":"LV-2137"},"ābeļu iela 21 - 2":{"address":"Ābeļu iela 21 - 2","city":"Amatnieki","zip":"LV-2137"},"ābeļu iela 41 - 1":{"address":"Ābeļu iela 41 - 1","city":"Amatnieki","zip":"LV-2137"},"ābeļu iela 41 - 2":{"address":"Ābeļu iela 41 - 2","city":"Amatnieki","zip":"LV-2137"},"amatnieki - 4":{"address":"Amatnieki - 4","city":"Palsmane","zip":"LV-4724"},"amatnieki - 5":{"address":"Amatnieki - 5","city":"Palsmane","zip":"LV-4724"},"amatnieki - 6":{"address":"Amatnieki - 6","city":"Palsmane","zip":"LV-4724"},"amatnieki - 7":{"address":"Amatnieki - 7","city":"Palsmane","zip":"LV-4724"},"amatnieki - 8":{"address":"Amatnieki - 8","city":"Palsmane","zip":"LV-4724"},"amatnieki - 9":{"address":"Amatnieki - 9","city":"Palsmane","zip":"LV-4724"},"amatnieki - 10":{"address":"Amatnieki - 10","city":"Palsmane","zip":"LV-4724"},"amatnieki - 11":{"address":"Amatnieki - 11","city":"Palsmane","zip":"LV-4724"},"amatnieki - 12":{"address":"Amatnieki - 12","city":"Palsmane","zip":"LV-4724"},"amatnieki - 13":{"address":"Amatnieki - 13","city":"Palsmane","zip":"LV-4724"},"amatnieki":{"address":"Amatnieki","city":"Amatnieki","zip":"LV-2137"},"bauskas iela amatnieki":{"address":"Bauskas iela Amatnieki","city":"Bārbele","zip":"LV-3905"},"vecstārasti 2":{"address":"Vecstārasti 2","city":"Amatnieki","zip":"LV-2137"},"amatnieku iela 8":{"address":"Amatnieku iela 8","city":"Amatnieki","zip":"LV-2137"},"amatnieku iela 10":{"address":"Amatnieku iela 10","city":"Amatnieki","zip":"LV-2137"},"jumiķu iela 3":{"address":"Jumiķu iela 3","city":"Amatnieki","zip":"LV-2137"},"vecstārasti":{"address":"Vecstārasti","city":"Amatnieki","zip":"LV-2137"},"ābeļu iela 21":{"address":"Ābeļu iela 21","city":"Amatnieki","zip":"LV-2137"},"riņķa iela 6":{"address":"Riņķa iela 6","city":"Amatnieki","zip":"LV-2137"},"riņķa iela 7":{"address":"Riņķa iela 7","city":"Amatnieki","zip":"LV-2137"},"riņķa iela 9":{"address":"Riņķa iela 9","city":"Amatnieki","zip":"LV-2137"},"ābeļu iela 23":{"address":"Ābeļu iela 23","city":"Amatnieki","zip":"LV-2137"},"ābeļu iela 24":{"address":"Ābeļu iela 24","city":"Amatnieki","zip":"LV-2137"}}