{"andrupenes iela 61 - 1":{"address":"Andrupenes iela 61 - 1","city":"Malta","zip":"LV-4630"},"andrupenes iela 61 - 2":{"address":"Andrupenes iela 61 - 2","city":"Malta","zip":"LV-4630"},"andrupenes iela 61 - 3":{"address":"Andrupenes iela 61 - 3","city":"Malta","zip":"LV-4630"},"andrupenes iela 65 - 1":{"address":"Andrupenes iela 65 - 1","city":"Malta","zip":"LV-4630"},"andrupenes iela 65 - 2":{"address":"Andrupenes iela 65 - 2","city":"Malta","zip":"LV-4630"},"andrupenes iela 59 - 1":{"address":"Andrupenes iela 59 - 1","city":"Malta","zip":"LV-4630"},"andrupenes iela 59 - 2":{"address":"Andrupenes iela 59 - 2","city":"Malta","zip":"LV-4630"},"andrupenes iela 57 - 1":{"address":"Andrupenes iela 57 - 1","city":"Malta","zip":"LV-4630"},"andrupenes iela 57 - 2":{"address":"Andrupenes iela 57 - 2","city":"Malta","zip":"LV-4630"},"andrupenes iela 7 - 1":{"address":"Andrupenes iela 7 - 1","city":"Malta","zip":"LV-4630"},"andrupenes iela 7 - 2":{"address":"Andrupenes iela 7 - 2","city":"Malta","zip":"LV-4630"},"andrupenes iela 3 - 1":{"address":"Andrupenes iela 3 - 1","city":"Malta","zip":"LV-4630"},"andrupenes iela 3 - 2":{"address":"Andrupenes iela 3 - 2","city":"Malta","zip":"LV-4630"},"akas - 1":{"address":"Akas - 1","city":"Kazimirova","zip":"LV-5687"},"akas - 2":{"address":"Akas - 2","city":"Kazimirova","zip":"LV-5687"},"apsīšu mājas - 1":{"address":"Apsīšu mājas - 1","city":"Kazimirova","zip":"LV-5687"},"apsīšu mājas - 2":{"address":"Apsīšu mājas - 2","city":"Kazimirova","zip":"LV-5687"},"apsīšu mājas - 3":{"address":"Apsīšu mājas - 3","city":"Kazimirova","zip":"LV-5687"},"apsīšu mājas - 4":{"address":"Apsīšu mājas - 4","city":"Kazimirova","zip":"LV-5687"},"apsīšu mājas - 5":{"address":"Apsīšu mājas - 5","city":"Kazimirova","zip":"LV-5687"},"apsīšu mājas - 6":{"address":"Apsīšu mājas - 6","city":"Kazimirova","zip":"LV-5687"},"apsīšu mājas - 7":{"address":"Apsīšu mājas - 7","city":"Kazimirova","zip":"LV-5687"},"zvaniņi - 1":{"address":"Zvaniņi - 1","city":"Mariampole","zip":"LV-5687"},"zvaniņi - 2":{"address":"Zvaniņi - 2","city":"Mariampole","zip":"LV-5687"},"zvaniņi - 3":{"address":"Zvaniņi - 3","city":"Mariampole","zip":"LV-5687"},"zvaniņi - 4":{"address":"Zvaniņi - 4","city":"Mariampole","zip":"LV-5687"},"zvaniņi - 5":{"address":"Zvaniņi - 5","city":"Mariampole","zip":"LV-5687"},"irbēni - 1":{"address":"Irbēni - 1","city":"Golovanovka","zip":"LV-5687"},"irbēni - 2":{"address":"Irbēni - 2","city":"Golovanovka","zip":"LV-5687"},"irbēni - 3":{"address":"Irbēni - 3","city":"Golovanovka","zip":"LV-5687"},"irbēni - 4":{"address":"Irbēni - 4","city":"Golovanovka","zip":"LV-5687"},"paugurakas - 1":{"address":"Paugurakas - 1","city":"Kazimirova","zip":"LV-5687"},"paugurakas - 2":{"address":"Paugurakas - 2","city":"Kazimirova","zip":"LV-5687"},"dagdas iela 3 - 1":{"address":"Dagdas iela 3 - 1","city":"Andrupene","zip":"LV-5687"},"dagdas iela 3 - 2":{"address":"Dagdas iela 3 - 2","city":"Andrupene","zip":"LV-5687"},"rēzeknes iela 6 - 1":{"address":"Rēzeknes iela 6 - 1","city":"Andrupene","zip":"LV-5687"},"rēzeknes iela 6 - 2":{"address":"Rēzeknes iela 6 - 2","city":"Andrupene","zip":"LV-5687"},"kundziņas - 1":{"address":"Kundziņas - 1","city":"Mariampole","zip":"LV-5687"},"kundziņas - 2":{"address":"Kundziņas - 2","city":"Mariampole","zip":"LV-5687"},"kundziņas - 3":{"address":"Kundziņas - 3","city":"Mariampole","zip":"LV-5687"},"kundziņas - 4":{"address":"Kundziņas - 4","city":"Mariampole","zip":"LV-5687"},"kundziņas - 5":{"address":"Kundziņas - 5","city":"Mariampole","zip":"LV-5687"},"kundziņas - 6":{"address":"Kundziņas - 6","city":"Mariampole","zip":"LV-5687"},"kundziņas - 7":{"address":"Kundziņas - 7","city":"Mariampole","zip":"LV-5687"},"kundziņas - 8":{"address":"Kundziņas - 8","city":"Mariampole","zip":"LV-5687"},"ausekļi - 1":{"address":"Ausekļi - 1","city":"Mariampole","zip":"LV-5687"},"ausekļi - 2":{"address":"Ausekļi - 2","city":"Mariampole","zip":"LV-5687"},"ausekļi - 3":{"address":"Ausekļi - 3","city":"Mariampole","zip":"LV-5687"},"ausekļi - 4":{"address":"Ausekļi - 4","city":"Mariampole","zip":"LV-5687"},"ausekļi - 5":{"address":"Ausekļi - 5","city":"Mariampole","zip":"LV-5687"},"ausekļi - 6":{"address":"Ausekļi - 6","city":"Mariampole","zip":"LV-5687"},"ausekļi - 7":{"address":"Ausekļi - 7","city":"Mariampole","zip":"LV-5687"},"ausekļi - 8":{"address":"Ausekļi - 8","city":"Mariampole","zip":"LV-5687"},"ausekļi - 9":{"address":"Ausekļi - 9","city":"Mariampole","zip":"LV-5687"},"ausekļi - 10":{"address":"Ausekļi - 10","city":"Mariampole","zip":"LV-5687"},"ausekļi - 11":{"address":"Ausekļi - 11","city":"Mariampole","zip":"LV-5687"},"ausekļi - 12":{"address":"Ausekļi - 12","city":"Mariampole","zip":"LV-5687"},"ausekļi - 13":{"address":"Ausekļi - 13","city":"Mariampole","zip":"LV-5687"},"ausekļi - 14":{"address":"Ausekļi - 14","city":"Mariampole","zip":"LV-5687"},"ausekļi - 15":{"address":"Ausekļi - 15","city":"Mariampole","zip":"LV-5687"},"ausekļi - 16":{"address":"Ausekļi - 16","city":"Mariampole","zip":"LV-5687"},"ausekļi - 17":{"address":"Ausekļi - 17","city":"Mariampole","zip":"LV-5687"},"ausekļi - 18":{"address":"Ausekļi - 18","city":"Mariampole","zip":"LV-5687"},"ausekļi - 19":{"address":"Ausekļi - 19","city":"Mariampole","zip":"LV-5687"},"ausekļi - 20":{"address":"Ausekļi - 20","city":"Mariampole","zip":"LV-5687"},"garmāji - 1":{"address":"Garmāji - 1","city":"Biža","zip":"LV-5687"},"garmāji - 2":{"address":"Garmāji - 2","city":"Biža","zip":"LV-5687"},"ezernieku iela 1a - 1":{"address":"Ezernieku iela 1A - 1","city":"Andrupene","zip":"LV-5687"},"ezernieku iela 1a - 2":{"address":"Ezernieku iela 1A - 2","city":"Andrupene","zip":"LV-5687"},"ezernieku iela 1a - 3":{"address":"Ezernieku iela 1A - 3","city":"Andrupene","zip":"LV-5687"},"ezernieku iela 1a - 4":{"address":"Ezernieku iela 1A - 4","city":"Andrupene","zip":"LV-5687"},"ezernieku iela 1a - 5":{"address":"Ezernieku iela 1A - 5","city":"Andrupene","zip":"LV-5687"},"ezernieku iela 1a - 6":{"address":"Ezernieku iela 1A - 6","city":"Andrupene","zip":"LV-5687"},"ezernieku iela 1a - 7":{"address":"Ezernieku iela 1A - 7","city":"Andrupene","zip":"LV-5687"},"ezernieku iela 1a - 8":{"address":"Ezernieku iela 1A - 8","city":"Andrupene","zip":"LV-5687"},"ezernieku iela 1a - 9":{"address":"Ezernieku iela 1A - 9","city":"Andrupene","zip":"LV-5687"},"ezernieku iela 1a - 10":{"address":"Ezernieku iela 1A - 10","city":"Andrupene","zip":"LV-5687"},"ezernieku iela 1a - 11":{"address":"Ezernieku iela 1A - 11","city":"Andrupene","zip":"LV-5687"},"ezernieku iela 12 - 1":{"address":"Ezernieku iela 12 - 1","city":"Andrupene","zip":"LV-5687"},"ezernieku iela 12 - 2":{"address":"Ezernieku iela 12 - 2","city":"Andrupene","zip":"LV-5687"},"rēzeknes iela 7 - 1":{"address":"Rēzeknes iela 7 - 1","city":"Andrupene","zip":"LV-5687"},"rēzeknes iela 7 - 2":{"address":"Rēzeknes iela 7 - 2","city":"Andrupene","zip":"LV-5687"},"skolas iela 4 - 1":{"address":"Skolas iela 4 - 1","city":"Andrupene","zip":"LV-5687"},"skolas iela 4 - 2":{"address":"Skolas iela 4 - 2","city":"Andrupene","zip":"LV-5687"},"skolas iela 4 - 3":{"address":"Skolas iela 4 - 3","city":"Andrupene","zip":"LV-5687"},"skolas iela 4 - 4":{"address":"Skolas iela 4 - 4","city":"Andrupene","zip":"LV-5687"},"skolas iela 4 - 5":{"address":"Skolas iela 4 - 5","city":"Andrupene","zip":"LV-5687"},"skolas iela 4 - 6":{"address":"Skolas iela 4 - 6","city":"Andrupene","zip":"LV-5687"},"skolas iela 4 - 7":{"address":"Skolas iela 4 - 7","city":"Andrupene","zip":"LV-5687"},"skolas iela 4 - 8":{"address":"Skolas iela 4 - 8","city":"Andrupene","zip":"LV-5687"},"skolas iela 4 - 9":{"address":"Skolas iela 4 - 9","city":"Andrupene","zip":"LV-5687"},"skolas iela 4 - 10":{"address":"Skolas iela 4 - 10","city":"Andrupene","zip":"LV-5687"},"skolas iela 4 - 11":{"address":"Skolas iela 4 - 11","city":"Andrupene","zip":"LV-5687"},"skolas iela 4 - 12":{"address":"Skolas iela 4 - 12","city":"Andrupene","zip":"LV-5687"},"skolas iela 4a - 1":{"address":"Skolas iela 4A - 1","city":"Andrupene","zip":"LV-5687"},"skolas iela 4a - 2":{"address":"Skolas iela 4A - 2","city":"Andrupene","zip":"LV-5687"},"skolas iela 4a - 3":{"address":"Skolas iela 4A - 3","city":"Andrupene","zip":"LV-5687"},"skolas iela 4a - 4":{"address":"Skolas iela 4A - 4","city":"Andrupene","zip":"LV-5687"},"skolas iela 4a - 5":{"address":"Skolas iela 4A - 5","city":"Andrupene","zip":"LV-5687"},"skolas iela 4a - 6":{"address":"Skolas iela 4A - 6","city":"Andrupene","zip":"LV-5687"}}