{"annas sakses iela 1 - 1":{"address":"Annas Sakses iela 1 - 1","city":"Lejasciems","zip":"LV-4412"},"annas sakses iela 1 - 2":{"address":"Annas Sakses iela 1 - 2","city":"Lejasciems","zip":"LV-4412"},"annas sakses iela 1 - 3":{"address":"Annas Sakses iela 1 - 3","city":"Lejasciems","zip":"LV-4412"},"annas sakses iela 1 - 4":{"address":"Annas Sakses iela 1 - 4","city":"Lejasciems","zip":"LV-4412"},"annas sakses iela 1 - 5":{"address":"Annas Sakses iela 1 - 5","city":"Lejasciems","zip":"LV-4412"},"annas sakses iela 1 - 6":{"address":"Annas Sakses iela 1 - 6","city":"Lejasciems","zip":"LV-4412"},"annas sakses iela 1 - 7":{"address":"Annas Sakses iela 1 - 7","city":"Lejasciems","zip":"LV-4412"},"annas sakses iela 1 - 8":{"address":"Annas Sakses iela 1 - 8","city":"Lejasciems","zip":"LV-4412"},"annas sakses iela 1 - 9":{"address":"Annas Sakses iela 1 - 9","city":"Lejasciems","zip":"LV-4412"},"annas sakses iela 1 - 10":{"address":"Annas Sakses iela 1 - 10","city":"Lejasciems","zip":"LV-4412"},"annas sakses iela 1 - 11":{"address":"Annas Sakses iela 1 - 11","city":"Lejasciems","zip":"LV-4412"},"annas sakses iela 1 - 12":{"address":"Annas Sakses iela 1 - 12","city":"Lejasciems","zip":"LV-4412"},"annas sakses iela 1 - 13":{"address":"Annas Sakses iela 1 - 13","city":"Lejasciems","zip":"LV-4412"},"annas sakses iela 1 - 14":{"address":"Annas Sakses iela 1 - 14","city":"Lejasciems","zip":"LV-4412"},"annas sakses iela 1 - 15":{"address":"Annas Sakses iela 1 - 15","city":"Lejasciems","zip":"LV-4412"},"annas sakses iela 1 - 16":{"address":"Annas Sakses iela 1 - 16","city":"Lejasciems","zip":"LV-4412"},"annas sakses iela 1 - 17":{"address":"Annas Sakses iela 1 - 17","city":"Lejasciems","zip":"LV-4412"},"annas sakses iela 1 - 18":{"address":"Annas Sakses iela 1 - 18","city":"Lejasciems","zip":"LV-4412"},"annas sakses iela 1 - 19":{"address":"Annas Sakses iela 1 - 19","city":"Lejasciems","zip":"LV-4412"},"annas sakses iela 1 - 20":{"address":"Annas Sakses iela 1 - 20","city":"Lejasciems","zip":"LV-4412"},"annas sakses iela 1 - 21":{"address":"Annas Sakses iela 1 - 21","city":"Lejasciems","zip":"LV-4412"},"annas sakses iela 1 - 22":{"address":"Annas Sakses iela 1 - 22","city":"Lejasciems","zip":"LV-4412"},"annas sakses iela 1 - 23":{"address":"Annas Sakses iela 1 - 23","city":"Lejasciems","zip":"LV-4412"},"annas sakses iela 1 - 24":{"address":"Annas Sakses iela 1 - 24","city":"Lejasciems","zip":"LV-4412"},"smiltis - 2":{"address":"Smiltis - 2","city":"Anna","zip":"LV-4341"},"tautas nams - 1":{"address":"Tautas nams - 1","city":"Anna","zip":"LV-4341"},"tautas nams - 2":{"address":"Tautas nams - 2","city":"Anna","zip":"LV-4341"},"tautas nams - 3":{"address":"Tautas nams - 3","city":"Anna","zip":"LV-4341"},"smiltis - 1":{"address":"Smiltis - 1","city":"Anna","zip":"LV-4341"},"smiltis - 3":{"address":"Smiltis - 3","city":"Anna","zip":"LV-4341"},"smiltis - 4":{"address":"Smiltis - 4","city":"Anna","zip":"LV-4341"},"smiltis - 5":{"address":"Smiltis - 5","city":"Anna","zip":"LV-4341"},"smiltis - 6":{"address":"Smiltis - 6","city":"Anna","zip":"LV-4341"},"smiltis - 7":{"address":"Smiltis - 7","city":"Anna","zip":"LV-4341"},"smiltis - 10":{"address":"Smiltis - 10","city":"Anna","zip":"LV-4341"},"smiltis - 9":{"address":"Smiltis - 9","city":"Anna","zip":"LV-4341"},"smiltis - 8":{"address":"Smiltis - 8","city":"Anna","zip":"LV-4341"},"smiltis - 13":{"address":"Smiltis - 13","city":"Anna","zip":"LV-4341"},"smiltis - 11":{"address":"Smiltis - 11","city":"Anna","zip":"LV-4341"},"smiltis - 12":{"address":"Smiltis - 12","city":"Anna","zip":"LV-4341"},"lazdas - 1":{"address":"Lazdas - 1","city":"Anna","zip":"LV-4341"},"lazdas - 2":{"address":"Lazdas - 2","city":"Anna","zip":"LV-4341"},"lazdas - 3":{"address":"Lazdas - 3","city":"Anna","zip":"LV-4341"},"lazdas - 4":{"address":"Lazdas - 4","city":"Anna","zip":"LV-4341"},"lazdas - 5":{"address":"Lazdas - 5","city":"Anna","zip":"LV-4341"},"lazdas - 6":{"address":"Lazdas - 6","city":"Anna","zip":"LV-4341"},"lazdas - 7":{"address":"Lazdas - 7","city":"Anna","zip":"LV-4341"},"lazdas - 8":{"address":"Lazdas - 8","city":"Anna","zip":"LV-4341"},"lazdas - 9":{"address":"Lazdas - 9","city":"Anna","zip":"LV-4341"},"lazdas - 10":{"address":"Lazdas - 10","city":"Anna","zip":"LV-4341"},"lazdas - 11":{"address":"Lazdas - 11","city":"Anna","zip":"LV-4341"},"lazdas - 12":{"address":"Lazdas - 12","city":"Anna","zip":"LV-4341"},"lazdas - 13":{"address":"Lazdas - 13","city":"Anna","zip":"LV-4341"},"lazdas - 14":{"address":"Lazdas - 14","city":"Anna","zip":"LV-4341"},"lazdas - 15":{"address":"Lazdas - 15","city":"Anna","zip":"LV-4341"},"lazdas - 16":{"address":"Lazdas - 16","city":"Anna","zip":"LV-4341"},"lazdas - 17":{"address":"Lazdas - 17","city":"Anna","zip":"LV-4341"},"lazdas - 18":{"address":"Lazdas - 18","city":"Anna","zip":"LV-4341"},"lazdas - 19":{"address":"Lazdas - 19","city":"Anna","zip":"LV-4341"},"lazdas - 20":{"address":"Lazdas - 20","city":"Anna","zip":"LV-4341"},"lazdas - 21":{"address":"Lazdas - 21","city":"Anna","zip":"LV-4341"},"lazdas - 22":{"address":"Lazdas - 22","city":"Anna","zip":"LV-4341"},"lazdas - 23":{"address":"Lazdas - 23","city":"Anna","zip":"LV-4341"},"lazdas - 24":{"address":"Lazdas - 24","city":"Anna","zip":"LV-4341"},"annas skola - 1":{"address":"Annas skola - 1","city":"Anna","zip":"LV-4341"},"annas skola - 2":{"address":"Annas skola - 2","city":"Anna","zip":"LV-4341"},"annas skola - 3":{"address":"Annas skola - 3","city":"Anna","zip":"LV-4341"},"annas skola - 4":{"address":"Annas skola - 4","city":"Anna","zip":"LV-4341"},"annas skola - 5":{"address":"Annas skola - 5","city":"Anna","zip":"LV-4341"},"annas skola - 6":{"address":"Annas skola - 6","city":"Anna","zip":"LV-4341"}}