{"anniņas":{"address":"Anniņas","city":"Meža Japini","zip":"LV-5652"},"anniņas mājas":{"address":"Anniņas mājas","city":"Lielā Puderova","zip":"LV-4611"},"anniņas iela 1":{"address":"Anniņas iela 1","city":"Mežezeri","zip":"LV-2121"},"anniņas iela 2":{"address":"Anniņas iela 2","city":"Mežezeri","zip":"LV-2121"},"anniņas iela 3":{"address":"Anniņas iela 3","city":"Mežezeri","zip":"LV-2121"},"anniņas iela 4":{"address":"Anniņas iela 4","city":"Mežezeri","zip":"LV-2121"},"anniņas iela 5":{"address":"Anniņas iela 5","city":"Mežezeri","zip":"LV-2121"},"anniņas iela 6":{"address":"Anniņas iela 6","city":"Mežezeri","zip":"LV-2121"},"anniņas iela 7":{"address":"Anniņas iela 7","city":"Mežezeri","zip":"LV-2121"},"anniņas iela 8":{"address":"Anniņas iela 8","city":"Mežezeri","zip":"LV-2121"},"anniņas iela 9":{"address":"Anniņas iela 9","city":"Mežezeri","zip":"LV-2121"},"anniņas iela 10":{"address":"Anniņas iela 10","city":"Mežezeri","zip":"LV-2121"},"anniņas iela 11":{"address":"Anniņas iela 11","city":"Mežezeri","zip":"LV-2121"},"anniņas iela 12":{"address":"Anniņas iela 12","city":"Mežezeri","zip":"LV-2121"},"anniņas iela 13":{"address":"Anniņas iela 13","city":"Mežezeri","zip":"LV-2121"},"anniņas iela 14":{"address":"Anniņas iela 14","city":"Mežezeri","zip":"LV-2121"},"anniņas iela 15":{"address":"Anniņas iela 15","city":"Mežezeri","zip":"LV-2121"},"anniņas iela 16":{"address":"Anniņas iela 16","city":"Mežezeri","zip":"LV-2121"}}