{"anužu saullēkti - 1":{"address":"Anužu Saullēkti - 1","city":"Anuži","zip":"LV-3262"},"anužu saullēkti - 2":{"address":"Anužu Saullēkti - 2","city":"Anuži","zip":"LV-3262"},"anužu saullēkti - 3":{"address":"Anužu Saullēkti - 3","city":"Anuži","zip":"LV-3262"},"anužu saullēkti - 4":{"address":"Anužu Saullēkti - 4","city":"Anuži","zip":"LV-3262"},"anužu saullēkti - 5":{"address":"Anužu Saullēkti - 5","city":"Anuži","zip":"LV-3262"},"anužu saullēkti - 6":{"address":"Anužu Saullēkti - 6","city":"Anuži","zip":"LV-3262"},"anužu saullēkti - 7":{"address":"Anužu Saullēkti - 7","city":"Anuži","zip":"LV-3262"},"anužu saullēkti - 8":{"address":"Anužu Saullēkti - 8","city":"Anuži","zip":"LV-3262"},"anužu saullēkti - 9":{"address":"Anužu Saullēkti - 9","city":"Anuži","zip":"LV-3262"},"anužu saullēkti - 10":{"address":"Anužu Saullēkti - 10","city":"Anuži","zip":"LV-3262"},"anužu saullēkti - 11":{"address":"Anužu Saullēkti - 11","city":"Anuži","zip":"LV-3262"},"anužu saullēkti - 12":{"address":"Anužu Saullēkti - 12","city":"Anuži","zip":"LV-3262"},"anužu veikals":{"address":"Anužu veikals","city":"Anuži","zip":"LV-3262"},"anužu pārslas":{"address":"Anužu Pārslas","city":"Anuži","zip":"LV-3262"},"anužu saullēkti":{"address":"Anužu Saullēkti","city":"Anuži","zip":"LV-3262"},"anužu tehnikas serviss":{"address":"Anužu tehnikas serviss","city":"Anuži","zip":"LV-3262"}}