{"apiņu iela 17 - 1":{"address":"Apiņu iela 17 - 1","city":"Krustkalni","zip":"LV-2111"},"apiņu iela 17 - 2":{"address":"Apiņu iela 17 - 2","city":"Krustkalni","zip":"LV-2111"},"apiņu iela 3 - 1":{"address":"Apiņu iela 3 - 1","city":"Krustkalni","zip":"LV-2111"},"apiņu iela 3 - 2":{"address":"Apiņu iela 3 - 2","city":"Krustkalni","zip":"LV-2111"},"apiņu iela 3 - 3":{"address":"Apiņu iela 3 - 3","city":"Krustkalni","zip":"LV-2111"},"apiņu iela 3 - 5":{"address":"Apiņu iela 3 - 5","city":"Krustkalni","zip":"LV-2111"},"apiņu iela 3 - 6":{"address":"Apiņu iela 3 - 6","city":"Krustkalni","zip":"LV-2111"},"apiņu iela 3 - 7":{"address":"Apiņu iela 3 - 7","city":"Krustkalni","zip":"LV-2111"},"apiņu iela 3 - 8":{"address":"Apiņu iela 3 - 8","city":"Krustkalni","zip":"LV-2111"},"apiņu iela 3 - 9":{"address":"Apiņu iela 3 - 9","city":"Krustkalni","zip":"LV-2111"},"apiņu iela 3 - 10":{"address":"Apiņu iela 3 - 10","city":"Krustkalni","zip":"LV-2111"},"apiņu iela 3 - 11":{"address":"Apiņu iela 3 - 11","city":"Krustkalni","zip":"LV-2111"},"apiņu iela 3 - 12":{"address":"Apiņu iela 3 - 12","city":"Krustkalni","zip":"LV-2111"},"apiņu iela 3 - 13":{"address":"Apiņu iela 3 - 13","city":"Krustkalni","zip":"LV-2111"},"apiņu iela 3 - 14":{"address":"Apiņu iela 3 - 14","city":"Krustkalni","zip":"LV-2111"},"apiņu iela 3 - 15":{"address":"Apiņu iela 3 - 15","city":"Krustkalni","zip":"LV-2111"},"apiņu iela 3 - 16":{"address":"Apiņu iela 3 - 16","city":"Krustkalni","zip":"LV-2111"},"apiņu iela 3 - 17":{"address":"Apiņu iela 3 - 17","city":"Krustkalni","zip":"LV-2111"},"apiņu iela 3 - 18":{"address":"Apiņu iela 3 - 18","city":"Krustkalni","zip":"LV-2111"},"apiņu mājas":{"address":"Apiņu mājas","city":"Peksīne","zip":"LV-4587"},"apiņumājas":{"address":"Apiņumājas","city":"Elkšņeva","zip":"LV-4591"},"apiņu iela 1":{"address":"Apiņu iela 1","city":"Carnikava","zip":"LV-2163"},"apiņu iela 2":{"address":"Apiņu iela 2","city":"Carnikava","zip":"LV-2163"},"apiņu iela 3":{"address":"Apiņu iela 3","city":"Carnikava","zip":"LV-2163"},"apiņu iela 4":{"address":"Apiņu iela 4","city":"Carnikava","zip":"LV-2163"}}