{"apsītes - 1":{"address":"Apsītes - 1","city":"Ķeiži","zip":"LV-4715"},"apsītes - 2":{"address":"Apsītes - 2","city":"Ķeiži","zip":"LV-4715"},"apsītes - 3":{"address":"Apsītes - 3","city":"Vecstāmeriena","zip":"LV-4406"},"apsītes - 4":{"address":"Apsītes - 4","city":"Vecstāmeriena","zip":"LV-4406"},"apsītes - 5":{"address":"Apsītes - 5","city":"Vecstāmeriena","zip":"LV-4406"},"apsītes - 6":{"address":"Apsītes - 6","city":"Vecstāmeriena","zip":"LV-4406"},"apsītes - 7":{"address":"Apsītes - 7","city":"Vecstāmeriena","zip":"LV-4406"},"apsītes - 8":{"address":"Apsītes - 8","city":"Vecstāmeriena","zip":"LV-4406"},"apsītes - 9":{"address":"Apsītes - 9","city":"Vecstāmeriena","zip":"LV-4406"},"apsītes - 10":{"address":"Apsītes - 10","city":"Vecstāmeriena","zip":"LV-4406"},"apsītes - 11":{"address":"Apsītes - 11","city":"Vecstāmeriena","zip":"LV-4406"},"apsītes - 12":{"address":"Apsītes - 12","city":"Vecstāmeriena","zip":"LV-4406"},"apsītes":{"address":"Apsītes","city":"Engure","zip":"LV-3113"}}