{"asariņas - 1":{"address":"Asariņas - 1","city":"Vidriži","zip":"LV-4013"},"asariņas - 2":{"address":"Asariņas - 2","city":"Vidriži","zip":"LV-4013"},"asariņas - 3":{"address":"Asariņas - 3","city":"Vidriži","zip":"LV-4013"},"asariņas - 4":{"address":"Asariņas - 4","city":"Vidriži","zip":"LV-4013"},"asariņas - 5":{"address":"Asariņas - 5","city":"Vidriži","zip":"LV-4013"},"asariņas - 6":{"address":"Asariņas - 6","city":"Vidriži","zip":"LV-4013"},"asariņas - 7":{"address":"Asariņas - 7","city":"Vidriži","zip":"LV-4013"},"asariņas - 8":{"address":"Asariņas - 8","city":"Vidriži","zip":"LV-4013"},"asariņas - 9":{"address":"Asariņas - 9","city":"Vidriži","zip":"LV-4013"},"asariņas - 10":{"address":"Asariņas - 10","city":"Vidriži","zip":"LV-4013"},"asariņas - 11":{"address":"Asariņas - 11","city":"Vidriži","zip":"LV-4013"},"asariņas - 12":{"address":"Asariņas - 12","city":"Vidriži","zip":"LV-4013"},"asariņas - 13":{"address":"Asariņas - 13","city":"Vidriži","zip":"LV-4013"},"asariņas - 14":{"address":"Asariņas - 14","city":"Vidriži","zip":"LV-4013"},"asariņas - 15":{"address":"Asariņas - 15","city":"Vidriži","zip":"LV-4013"},"asariņas - 16":{"address":"Asariņas - 16","city":"Vidriži","zip":"LV-4013"},"asariņas - 17":{"address":"Asariņas - 17","city":"Vidriži","zip":"LV-4013"},"asariņas - 18":{"address":"Asariņas - 18","city":"Vidriži","zip":"LV-4013"},"asariņas - 19":{"address":"Asariņas - 19","city":"Vidriži","zip":"LV-4013"},"asari - 13":{"address":"Asari - 13","city":"Rauda","zip":"LV-3101"},"asari - 12":{"address":"Asari - 12","city":"Rauda","zip":"LV-3101"},"asari - 11":{"address":"Asari - 11","city":"Rauda","zip":"LV-3101"},"asari - 10":{"address":"Asari - 10","city":"Rauda","zip":"LV-3101"},"asari - 9":{"address":"Asari - 9","city":"Rauda","zip":"LV-3101"},"asari - 8":{"address":"Asari - 8","city":"Rauda","zip":"LV-3101"},"asari - 7":{"address":"Asari - 7","city":"Rauda","zip":"LV-3101"},"asari - 6":{"address":"Asari - 6","city":"Madliena","zip":"LV-5045"},"asari - 5":{"address":"Asari - 5","city":"Madliena","zip":"LV-5045"},"asari - 4":{"address":"Asari - 4","city":"Madliena","zip":"LV-5045"},"asari - 3":{"address":"Asari - 3","city":"Madliena","zip":"LV-5045"},"asari - 2":{"address":"Asari - 2","city":"Madliena","zip":"LV-5045"},"asari - 1":{"address":"Asari - 1","city":"Madliena","zip":"LV-5045"},"asari - 17":{"address":"Asari - 17","city":"Rauda","zip":"LV-3101"},"asari - 14":{"address":"Asari - 14","city":"Rauda","zip":"LV-3101"},"asari - 16":{"address":"Asari - 16","city":"Rauda","zip":"LV-3101"},"asari - 15":{"address":"Asari - 15","city":"Rauda","zip":"LV-3101"},"asari - 18":{"address":"Asari - 18","city":"Rauda","zip":"LV-3101"},"asarīši - 3":{"address":"Asarīši - 3","city":"Vētras","zip":"LV-2167"},"asariņas":{"address":"Asariņas","city":"Vidriži","zip":"LV-4013"},"asari":{"address":"Asari","city":"Rauda","zip":"LV-3101"},"asarīši":{"address":"Asarīši","city":"Augšciems","zip":"LV-2135"}}