{"asteres - 1":{"address":"Asteres - 1","city":"Basi","zip":"LV-3312"},"asteres - 2":{"address":"Asteres - 2","city":"Basi","zip":"LV-3312"},"āsteres muiža - 1":{"address":"Āsteres muiža - 1","city":"Āstere","zip":"LV-4052"},"āsteres muiža - 2":{"address":"Āsteres muiža - 2","city":"Āstere","zip":"LV-4052"},"āsteres muiža - 3":{"address":"Āsteres muiža - 3","city":"Āstere","zip":"LV-4052"},"āsteres muiža - 4":{"address":"Āsteres muiža - 4","city":"Āstere","zip":"LV-4052"},"āsteres muiža - 5":{"address":"Āsteres muiža - 5","city":"Āstere","zip":"LV-4052"},"āsteres muiža - 6":{"address":"Āsteres muiža - 6","city":"Āstere","zip":"LV-4052"},"āsteres muiža - 7":{"address":"Āsteres muiža - 7","city":"Āstere","zip":"LV-4052"},"āsteres muiža - 8":{"address":"Āsteres muiža - 8","city":"Āstere","zip":"LV-4052"},"āsteres muiža - 9":{"address":"Āsteres muiža - 9","city":"Āstere","zip":"LV-4052"},"āsteres muiža - 10":{"address":"Āsteres muiža - 10","city":"Āstere","zip":"LV-4052"},"āsteres muiža - 11":{"address":"Āsteres muiža - 11","city":"Āstere","zip":"LV-4052"},"āsteres muiža - 12":{"address":"Āsteres muiža - 12","city":"Āstere","zip":"LV-4052"},"asteres":{"address":"Asteres","city":"Asači","zip":"LV-4611"},"āsteres":{"address":"Āsteres","city":"Āstere","zip":"LV-4052"},"asteres iela 13":{"address":"Asteres iela 13","city":"Ječi","zip":"LV-3480"},"asteres iela 6":{"address":"Asteres iela 6","city":"Ječi","zip":"LV-3480"},"asteres iela 7":{"address":"Asteres iela 7","city":"Ječi","zip":"LV-3480"},"asteres iela 8":{"address":"Asteres iela 8","city":"Ječi","zip":"LV-3480"},"asteres iela 9":{"address":"Asteres iela 9","city":"Ječi","zip":"LV-3480"},"asteres iela 10":{"address":"Asteres iela 10","city":"Ječi","zip":"LV-3480"},"asteres iela 11":{"address":"Asteres iela 11","city":"Ječi","zip":"LV-3480"},"asteres iela 3":{"address":"Asteres iela 3","city":"Ječi","zip":"LV-3480"},"asteres iela 1":{"address":"Asteres iela 1","city":"Ječi","zip":"LV-3480"},"asteres 1":{"address":"Asteres 1","city":"Kalni","zip":"LV-5473"},"āsteres muiža":{"address":"Āsteres muiža","city":"Āstere","zip":"LV-4052"}}