{"ataugas - 1":{"address":"Ataugas - 1","city":"Vecbebri","zip":"LV-5135"},"ataugas - 2":{"address":"Ataugas - 2","city":"Vecbebri","zip":"LV-5135"},"ataugas - 3":{"address":"Ataugas - 3","city":"Vecbebri","zip":"LV-5135"},"ataugas - 4":{"address":"Ataugas - 4","city":"Vecbebri","zip":"LV-5135"},"ataugas - 5":{"address":"Ataugas - 5","city":"Vecbebri","zip":"LV-5135"},"ataugas - 6":{"address":"Ataugas - 6","city":"Vecbebri","zip":"LV-5135"},"ataugas - 7":{"address":"Ataugas - 7","city":"Vecbebri","zip":"LV-5135"},"ataugas - 8":{"address":"Ataugas - 8","city":"Vecbebri","zip":"LV-5135"},"ataugas - 9":{"address":"Ataugas - 9","city":"Vecbebri","zip":"LV-5135"},"ataugas - 10":{"address":"Ataugas - 10","city":"Vecbebri","zip":"LV-5135"},"ataugas - 11":{"address":"Ataugas - 11","city":"Vecbebri","zip":"LV-5135"},"ataugas - 12":{"address":"Ataugas - 12","city":"Vecbebri","zip":"LV-5135"},"ataugas 1 - 1":{"address":"Ataugas 1 - 1","city":"SaulesdÄrzs","zip":"LV-5052"},"ataugas 1 - 2":{"address":"Ataugas 1 - 2","city":"SaulesdÄrzs","zip":"LV-5052"},"ataugas":{"address":"Ataugas","city":"Ruba","zip":"LV-3894"}}