{"atpūtas - 1":{"address":"Atpūtas - 1","city":"Litene","zip":"LV-4405"},"atpūtas - 2":{"address":"Atpūtas - 2","city":"Litene","zip":"LV-4405"},"atpūtas - 3":{"address":"Atpūtas - 3","city":"Litene","zip":"LV-4405"},"atpūtas - 4":{"address":"Atpūtas - 4","city":"Litene","zip":"LV-4405"},"atpūtas - 5":{"address":"Atpūtas - 5","city":"Litene","zip":"LV-4405"},"atpūtas - 6":{"address":"Atpūtas - 6","city":"Litene","zip":"LV-4405"},"atpūtas - 7":{"address":"Atpūtas - 7","city":"Litene","zip":"LV-4405"},"atpūtas - 8":{"address":"Atpūtas - 8","city":"Litene","zip":"LV-4405"},"atpūtas - 9":{"address":"Atpūtas - 9","city":"Litene","zip":"LV-4405"},"atpūtas - 10":{"address":"Atpūtas - 10","city":"Litene","zip":"LV-4405"},"atpūtas - 11":{"address":"Atpūtas - 11","city":"Litene","zip":"LV-4405"},"atpūtas - 12":{"address":"Atpūtas - 12","city":"Litene","zip":"LV-4405"},"atpūtas - 13":{"address":"Atpūtas - 13","city":"Litene","zip":"LV-4405"},"atpūtas - 14":{"address":"Atpūtas - 14","city":"Litene","zip":"LV-4405"},"atpūtas 1 - 1":{"address":"Atpūtas 1 - 1","city":"Litene","zip":"LV-4405"},"atpūtas 1 - 2":{"address":"Atpūtas 1 - 2","city":"Litene","zip":"LV-4405"},"atpūtas 1 - 3":{"address":"Atpūtas 1 - 3","city":"Litene","zip":"LV-4405"},"atpūtas 1 - 4":{"address":"Atpūtas 1 - 4","city":"Litene","zip":"LV-4405"},"atpūtas 1 - 5":{"address":"Atpūtas 1 - 5","city":"Litene","zip":"LV-4405"},"atpūtas 1 - 6":{"address":"Atpūtas 1 - 6","city":"Litene","zip":"LV-4405"}}