{"atvases - 1":{"address":"Atvases - 1","city":"Trapene","zip":"LV-4348"},"atvases - 2":{"address":"Atvases - 2","city":"Trapene","zip":"LV-4348"},"atvases - 3":{"address":"Atvases - 3","city":"Trapene","zip":"LV-4348"},"atvases - 4":{"address":"Atvases - 4","city":"Trapene","zip":"LV-4348"},"atvases - 5":{"address":"Atvases - 5","city":"Trapene","zip":"LV-4348"},"atvases - 6":{"address":"Atvases - 6","city":"Trapene","zip":"LV-4348"},"atvases - 7":{"address":"Atvases - 7","city":"Trapene","zip":"LV-4348"},"atvases - 8":{"address":"Atvases - 8","city":"Trapene","zip":"LV-4348"},"atvases - 9":{"address":"Atvases - 9","city":"Trapene","zip":"LV-4348"},"atvases - 10":{"address":"Atvases - 10","city":"Trapene","zip":"LV-4348"},"atvases - 11":{"address":"Atvases - 11","city":"Trapene","zip":"LV-4348"},"atvases - 12":{"address":"Atvases - 12","city":"Trapene","zip":"LV-4348"},"atvases":{"address":"Atvases","city":"Priednieki","zip":"LV-5477"},"atvases 1":{"address":"Atvases 1","city":"Aizstrautnieki","zip":"LV-3701"},"jaunās atvases":{"address":"Jaunās Atvases","city":"Jaunie Čači","zip":"LV-4601"}}