{"atvari - 1":{"address":"Atvari - 1","city":"Blāzma","zip":"LV-3613"},"atvari - 2":{"address":"Atvari - 2","city":"Blāzma","zip":"LV-3613"},"atvari - 3":{"address":"Atvari - 3","city":"Blāzma","zip":"LV-3613"},"atvari - 4":{"address":"Atvari - 4","city":"Annenieki","zip":"LV-3718"},"atvari - 5":{"address":"Atvari - 5","city":"Annenieki","zip":"LV-3718"},"atvari - 6":{"address":"Atvari - 6","city":"Annenieki","zip":"LV-3718"},"atvari - 7":{"address":"Atvari - 7","city":"Annenieki","zip":"LV-3718"},"atvari - 8":{"address":"Atvari - 8","city":"Annenieki","zip":"LV-3718"},"atvari - 9":{"address":"Atvari - 9","city":"Satiķi","zip":"LV-3873"},"atvari - 10":{"address":"Atvari - 10","city":"Satiķi","zip":"LV-3873"},"atvari - 11":{"address":"Atvari - 11","city":"Satiķi","zip":"LV-3873"},"atvari - 12":{"address":"Atvari - 12","city":"Satiķi","zip":"LV-3873"},"atvari - 13":{"address":"Atvari - 13","city":"Satiķi","zip":"LV-3873"},"atvari - 14":{"address":"Atvari - 14","city":"Satiķi","zip":"LV-3873"},"atvari - 15":{"address":"Atvari - 15","city":"Satiķi","zip":"LV-3873"},"atvari - 16":{"address":"Atvari - 16","city":"Satiķi","zip":"LV-3873"},"atvari - 17":{"address":"Atvari - 17","city":"Satiķi","zip":"LV-3873"},"atvari - 18":{"address":"Atvari - 18","city":"Satiķi","zip":"LV-3873"},"atvari - 19":{"address":"Atvari - 19","city":"Satiķi","zip":"LV-3873"},"atvari - 20":{"address":"Atvari - 20","city":"Satiķi","zip":"LV-3873"},"atvari - 21":{"address":"Atvari - 21","city":"Satiķi","zip":"LV-3873"},"atvari - 22":{"address":"Atvari - 22","city":"Satiķi","zip":"LV-3873"},"atvari - 23":{"address":"Atvari - 23","city":"Satiķi","zip":"LV-3873"},"atvari - 24":{"address":"Atvari - 24","city":"Satiķi","zip":"LV-3873"}}