{"audzes - 1":{"address":"Audzes - 1","city":"Slampe","zip":"LV-3119"},"audzes - 2":{"address":"Audzes - 2","city":"Slampe","zip":"LV-3119"},"audzes - 3":{"address":"Audzes - 3","city":"Slampe","zip":"LV-3119"},"audzes - 4":{"address":"Audzes - 4","city":"Slampe","zip":"LV-3119"},"audzes - 5":{"address":"Audzes - 5","city":"Slampe","zip":"LV-3119"},"audzes - 6":{"address":"Audzes - 6","city":"Slampe","zip":"LV-3119"},"audzes - 7":{"address":"Audzes - 7","city":"Slampe","zip":"LV-3119"},"audzes - 8":{"address":"Audzes - 8","city":"Slampe","zip":"LV-3119"},"audzes - 9":{"address":"Audzes - 9","city":"Slampe","zip":"LV-3119"},"audzes - 10":{"address":"Audzes - 10","city":"Slampe","zip":"LV-3119"},"audzes - 11":{"address":"Audzes - 11","city":"Slampe","zip":"LV-3119"},"audzes - 12":{"address":"Audzes - 12","city":"Slampe","zip":"LV-3119"},"audzes - 13":{"address":"Audzes - 13","city":"Slampe","zip":"LV-3119"},"audzes - 14":{"address":"Audzes - 14","city":"Slampe","zip":"LV-3119"},"audzes - 15":{"address":"Audzes - 15","city":"Slampe","zip":"LV-3119"},"audzes - 16":{"address":"Audzes - 16","city":"Slampe","zip":"LV-3119"},"audzes - 17":{"address":"Audzes - 17","city":"Slampe","zip":"LV-3119"},"audzes - 18":{"address":"Audzes - 18","city":"Slampe","zip":"LV-3119"},"audzes - 19":{"address":"Audzes - 19","city":"Slampe","zip":"LV-3119"},"audzes - 20":{"address":"Audzes - 20","city":"Slampe","zip":"LV-3119"},"audzes - 21":{"address":"Audzes - 21","city":"Slampe","zip":"LV-3119"},"audzes - 22":{"address":"Audzes - 22","city":"Slampe","zip":"LV-3119"},"audzes - 23":{"address":"Audzes - 23","city":"Slampe","zip":"LV-3119"},"audzes - 24":{"address":"Audzes - 24","city":"Slampe","zip":"LV-3119"},"audzes":{"address":"Audzes","city":"Daudzeva","zip":"LV-5111"}}