{"ausekļi - 1":{"address":"Ausekļi - 1","city":"Ziras","zip":"LV-3624"},"ausekļi - 2":{"address":"Ausekļi - 2","city":"Ziras","zip":"LV-3624"},"ausekļi 3 - 1":{"address":"Ausekļi 3 - 1","city":"Alsviķi","zip":"LV-4333"},"ausekļi 3 - 2":{"address":"Ausekļi 3 - 2","city":"Alsviķi","zip":"LV-4333"},"ausekļi 3 - 3":{"address":"Ausekļi 3 - 3","city":"Alsviķi","zip":"LV-4333"},"ausekļi 3 - 4":{"address":"Ausekļi 3 - 4","city":"Alsviķi","zip":"LV-4333"},"ausekļi 3 - 5":{"address":"Ausekļi 3 - 5","city":"Alsviķi","zip":"LV-4333"},"ausekļi 3 - 6":{"address":"Ausekļi 3 - 6","city":"Alsviķi","zip":"LV-4333"},"ausekļi - 3":{"address":"Ausekļi - 3","city":"Vadakste","zip":"LV-3895"},"ausekļi - 4":{"address":"Ausekļi - 4","city":"Vadakste","zip":"LV-3895"},"ausekļi - 5":{"address":"Ausekļi - 5","city":"Vadakste","zip":"LV-3895"},"ausekļi - 6":{"address":"Ausekļi - 6","city":"Vadakste","zip":"LV-3895"},"ausekļi - 7":{"address":"Ausekļi - 7","city":"Vadakste","zip":"LV-3895"},"ausekļi - 8":{"address":"Ausekļi - 8","city":"Vadakste","zip":"LV-3895"},"ausekļi - 9":{"address":"Ausekļi - 9","city":"Vadakste","zip":"LV-3895"},"ausekļi - 10":{"address":"Ausekļi - 10","city":"Vadakste","zip":"LV-3895"},"ausekļi - 11":{"address":"Ausekļi - 11","city":"Vadakste","zip":"LV-3895"},"ausekļi - 12":{"address":"Ausekļi - 12","city":"Vadakste","zip":"LV-3895"},"ausekļi - 13":{"address":"Ausekļi - 13","city":"Vadakste","zip":"LV-3895"},"ausekļi - 14":{"address":"Ausekļi - 14","city":"Vadakste","zip":"LV-3895"},"ausekļi - 15":{"address":"Ausekļi - 15","city":"Vadakste","zip":"LV-3895"},"ausekļi - 16":{"address":"Ausekļi - 16","city":"Vadakste","zip":"LV-3895"},"ausekļi - 17":{"address":"Ausekļi - 17","city":"Vadakste","zip":"LV-3895"},"ausekļi - 18":{"address":"Ausekļi - 18","city":"Vadakste","zip":"LV-3895"},"ausekļi - 19":{"address":"Ausekļi - 19","city":"Vadakste","zip":"LV-3895"},"ausekļi - 20":{"address":"Ausekļi - 20","city":"Vadakste","zip":"LV-3895"},"ausekļi - 21":{"address":"Ausekļi - 21","city":"Vadakste","zip":"LV-3895"},"ausekļi - 22":{"address":"Ausekļi - 22","city":"Vadakste","zip":"LV-3895"},"ausekļi - 23":{"address":"Ausekļi - 23","city":"Vadakste","zip":"LV-3895"},"ausekļi - 24":{"address":"Ausekļi - 24","city":"Vadakste","zip":"LV-3895"},"ausekļi - 25":{"address":"Ausekļi - 25","city":"Vadakste","zip":"LV-3895"},"ausekļi - 26":{"address":"Ausekļi - 26","city":"Vadakste","zip":"LV-3895"},"ausekļi - 27":{"address":"Ausekļi - 27","city":"Vadakste","zip":"LV-3895"},"auseklīši - 1":{"address":"Auseklīši - 1","city":"Zebrene","zip":"LV-3731"},"auseklīši - 2":{"address":"Auseklīši - 2","city":"Zebrene","zip":"LV-3731"},"auseklīši - 3":{"address":"Auseklīši - 3","city":"Zebrene","zip":"LV-3731"},"auseklīši - 4":{"address":"Auseklīši - 4","city":"Zebrene","zip":"LV-3731"},"auseklīši - 5":{"address":"Auseklīši - 5","city":"Zebrene","zip":"LV-3731"},"auseklīši - 6":{"address":"Auseklīši - 6","city":"Zebrene","zip":"LV-3731"},"auseklīši - 7":{"address":"Auseklīši - 7","city":"Zebrene","zip":"LV-3731"},"auseklīši - 8":{"address":"Auseklīši - 8","city":"Zebrene","zip":"LV-3731"},"auseklīši - 9":{"address":"Auseklīši - 9","city":"Zebrene","zip":"LV-3731"},"auseklīši - 10":{"address":"Auseklīši - 10","city":"Zebrene","zip":"LV-3731"},"auseklīši - 11":{"address":"Auseklīši - 11","city":"Zebrene","zip":"LV-3731"},"auseklīši - 12":{"address":"Auseklīši - 12","city":"Zebrene","zip":"LV-3731"},"auseklīši - 13":{"address":"Auseklīši - 13","city":"Zebrene","zip":"LV-3731"},"auseklīši - 14":{"address":"Auseklīši - 14","city":"Zebrene","zip":"LV-3731"},"auseklīši - 15":{"address":"Auseklīši - 15","city":"Zebrene","zip":"LV-3731"},"auseklīši - 16":{"address":"Auseklīši - 16","city":"Zebrene","zip":"LV-3731"},"auseklīši - 17":{"address":"Auseklīši - 17","city":"Zebrene","zip":"LV-3731"},"auseklīši - 18":{"address":"Auseklīši - 18","city":"Zebrene","zip":"LV-3731"}}