{"auseklīši - 1":{"address":"Auseklīši - 1","city":"Zebrene","zip":"LV-3731"},"auseklīši - 2":{"address":"Auseklīši - 2","city":"Zebrene","zip":"LV-3731"},"auseklīši - 3":{"address":"Auseklīši - 3","city":"Zebrene","zip":"LV-3731"},"auseklīši - 4":{"address":"Auseklīši - 4","city":"Zebrene","zip":"LV-3731"},"auseklīši - 5":{"address":"Auseklīši - 5","city":"Zebrene","zip":"LV-3731"},"auseklīši - 6":{"address":"Auseklīši - 6","city":"Zebrene","zip":"LV-3731"},"auseklīši - 7":{"address":"Auseklīši - 7","city":"Zebrene","zip":"LV-3731"},"auseklīši - 8":{"address":"Auseklīši - 8","city":"Zebrene","zip":"LV-3731"},"auseklīši - 9":{"address":"Auseklīši - 9","city":"Zebrene","zip":"LV-3731"},"auseklīši - 10":{"address":"Auseklīši - 10","city":"Zebrene","zip":"LV-3731"},"auseklīši - 11":{"address":"Auseklīši - 11","city":"Zebrene","zip":"LV-3731"},"auseklīši - 12":{"address":"Auseklīši - 12","city":"Zebrene","zip":"LV-3731"},"auseklīši - 13":{"address":"Auseklīši - 13","city":"Zebrene","zip":"LV-3731"},"auseklīši - 14":{"address":"Auseklīši - 14","city":"Zebrene","zip":"LV-3731"},"auseklīši - 15":{"address":"Auseklīši - 15","city":"Zebrene","zip":"LV-3731"},"auseklīši - 16":{"address":"Auseklīši - 16","city":"Zebrene","zip":"LV-3731"},"auseklīši - 17":{"address":"Auseklīši - 17","city":"Zebrene","zip":"LV-3731"},"auseklīši - 18":{"address":"Auseklīši - 18","city":"Zebrene","zip":"LV-3731"},"auseklīši":{"address":"Auseklīši","city":"Žogotas","zip":"LV-4652"},"krasta iela auseklīši":{"address":"Krasta iela Auseklīši","city":"Stelpe","zip":"LV-3925"}}