{"ausmas - 1":{"address":"Ausmas - 1","city":"Vadakste","zip":"LV-3895"},"ausmas - 2":{"address":"Ausmas - 2","city":"Vadakste","zip":"LV-3895"},"ausmas - 3":{"address":"Ausmas - 3","city":"Vadakste","zip":"LV-3895"},"ausmas - 4":{"address":"Ausmas - 4","city":"Vadakste","zip":"LV-3895"},"centra iela ausmas - 1":{"address":"Centra iela Ausmas - 1","city":"Svitene","zip":"LV-3917"},"centra iela ausmas - 2":{"address":"Centra iela Ausmas - 2","city":"Svitene","zip":"LV-3917"},"centra iela ausmas - 3":{"address":"Centra iela Ausmas - 3","city":"Svitene","zip":"LV-3917"},"centra iela ausmas - 4":{"address":"Centra iela Ausmas - 4","city":"Svitene","zip":"LV-3917"},"centra iela ausmas - 5":{"address":"Centra iela Ausmas - 5","city":"Svitene","zip":"LV-3917"},"centra iela ausmas - 6":{"address":"Centra iela Ausmas - 6","city":"Svitene","zip":"LV-3917"},"centra iela ausmas - 7":{"address":"Centra iela Ausmas - 7","city":"Svitene","zip":"LV-3917"},"centra iela ausmas - 8":{"address":"Centra iela Ausmas - 8","city":"Svitene","zip":"LV-3917"},"centra iela ausmas - 9":{"address":"Centra iela Ausmas - 9","city":"Svitene","zip":"LV-3917"},"centra iela ausmas - 10":{"address":"Centra iela Ausmas - 10","city":"Svitene","zip":"LV-3917"},"centra iela ausmas - 11":{"address":"Centra iela Ausmas - 11","city":"Svitene","zip":"LV-3917"},"centra iela ausmas - 12":{"address":"Centra iela Ausmas - 12","city":"Svitene","zip":"LV-3917"},"centra iela ausmas - 13":{"address":"Centra iela Ausmas - 13","city":"Svitene","zip":"LV-3917"},"centra iela ausmas - 14":{"address":"Centra iela Ausmas - 14","city":"Svitene","zip":"LV-3917"},"centra iela ausmas - 15":{"address":"Centra iela Ausmas - 15","city":"Svitene","zip":"LV-3917"},"centra iela ausmas - 16":{"address":"Centra iela Ausmas - 16","city":"Svitene","zip":"LV-3917"},"centra iela ausmas - 17":{"address":"Centra iela Ausmas - 17","city":"Svitene","zip":"LV-3917"},"centra iela ausmas - 18":{"address":"Centra iela Ausmas - 18","city":"Svitene","zip":"LV-3917"},"centra iela ausmas - 19":{"address":"Centra iela Ausmas - 19","city":"Svitene","zip":"LV-3917"},"centra iela ausmas - 20":{"address":"Centra iela Ausmas - 20","city":"Svitene","zip":"LV-3917"},"centra iela ausmas - 21":{"address":"Centra iela Ausmas - 21","city":"Svitene","zip":"LV-3917"},"centra iela ausmas - 22":{"address":"Centra iela Ausmas - 22","city":"Svitene","zip":"LV-3917"},"centra iela ausmas - 23":{"address":"Centra iela Ausmas - 23","city":"Svitene","zip":"LV-3917"},"centra iela ausmas - 24":{"address":"Centra iela Ausmas - 24","city":"Svitene","zip":"LV-3917"},"centra iela ausmas - 25":{"address":"Centra iela Ausmas - 25","city":"Svitene","zip":"LV-3917"},"centra iela ausmas - 26":{"address":"Centra iela Ausmas - 26","city":"Svitene","zip":"LV-3917"},"centra iela ausmas - 27":{"address":"Centra iela Ausmas - 27","city":"Svitene","zip":"LV-3917"},"centra iela ausmas - 28":{"address":"Centra iela Ausmas - 28","city":"Svitene","zip":"LV-3917"},"centra iela ausmas - 29":{"address":"Centra iela Ausmas - 29","city":"Svitene","zip":"LV-3917"},"centra iela ausmas - 30":{"address":"Centra iela Ausmas - 30","city":"Svitene","zip":"LV-3917"},"centra iela ausmas - 31":{"address":"Centra iela Ausmas - 31","city":"Svitene","zip":"LV-3917"},"centra iela ausmas - 32":{"address":"Centra iela Ausmas - 32","city":"Svitene","zip":"LV-3917"},"centra iela ausmas - 33":{"address":"Centra iela Ausmas - 33","city":"Svitene","zip":"LV-3917"},"centra iela ausmas - 34":{"address":"Centra iela Ausmas - 34","city":"Svitene","zip":"LV-3917"},"centra iela ausmas - 35":{"address":"Centra iela Ausmas - 35","city":"Svitene","zip":"LV-3917"},"centra iela ausmas - 36":{"address":"Centra iela Ausmas - 36","city":"Svitene","zip":"LV-3917"},"ausmas - 5":{"address":"Ausmas - 5","city":"Vadakste","zip":"LV-3895"},"ausmas - 6":{"address":"Ausmas - 6","city":"Vadakste","zip":"LV-3895"},"ausmas - 7":{"address":"Ausmas - 7","city":"Vadakste","zip":"LV-3895"},"ausmas - 8":{"address":"Ausmas - 8","city":"Vadakste","zip":"LV-3895"},"ausmas - 9":{"address":"Ausmas - 9","city":"Vadakste","zip":"LV-3895"},"ausmas - 10":{"address":"Ausmas - 10","city":"Vadakste","zip":"LV-3895"},"ausmas - 11":{"address":"Ausmas - 11","city":"Vadakste","zip":"LV-3895"},"ausmas - 12":{"address":"Ausmas - 12","city":"Vadakste","zip":"LV-3895"},"ausmas - 13":{"address":"Ausmas - 13","city":"Vadakste","zip":"LV-3895"},"ausmas - 14":{"address":"Ausmas - 14","city":"Vadakste","zip":"LV-3895"},"ausmas - 15":{"address":"Ausmas - 15","city":"Vadakste","zip":"LV-3895"},"ausmas - 16":{"address":"Ausmas - 16","city":"Vadakste","zip":"LV-3895"},"ausmas - 17":{"address":"Ausmas - 17","city":"Vadakste","zip":"LV-3895"},"ausmas - 18":{"address":"Ausmas - 18","city":"Vadakste","zip":"LV-3895"}}