{"aveņu iela 3 - 1":{"address":"Aveņu iela 3 - 1","city":"Kocēni","zip":"LV-4220"},"aveņu iela 3 - 2":{"address":"Aveņu iela 3 - 2","city":"Kocēni","zip":"LV-4220"},"aveņu iela 3 - 3":{"address":"Aveņu iela 3 - 3","city":"Kocēni","zip":"LV-4220"},"aveņu iela 3 - 4":{"address":"Aveņu iela 3 - 4","city":"Kocēni","zip":"LV-4220"},"aveņu iela 3 - 5":{"address":"Aveņu iela 3 - 5","city":"Kocēni","zip":"LV-4220"},"aveņu iela 3 - 6":{"address":"Aveņu iela 3 - 6","city":"Kocēni","zip":"LV-4220"},"aveņu iela 3 - 7":{"address":"Aveņu iela 3 - 7","city":"Kocēni","zip":"LV-4220"},"aveņu iela 3 - 8":{"address":"Aveņu iela 3 - 8","city":"Kocēni","zip":"LV-4220"},"aveņu iela 3 - 9":{"address":"Aveņu iela 3 - 9","city":"Kocēni","zip":"LV-4220"},"aveņu iela 3 - 10":{"address":"Aveņu iela 3 - 10","city":"Kocēni","zip":"LV-4220"},"aveņu iela 3 - 11":{"address":"Aveņu iela 3 - 11","city":"Kocēni","zip":"LV-4220"},"aveņu iela 3 - 12":{"address":"Aveņu iela 3 - 12","city":"Kocēni","zip":"LV-4220"},"aveņu iela 3 - 14":{"address":"Aveņu iela 3 - 14","city":"Kocēni","zip":"LV-4220"},"aveņu iela 3 - 15":{"address":"Aveņu iela 3 - 15","city":"Kocēni","zip":"LV-4220"},"aveņu iela 3 - 16":{"address":"Aveņu iela 3 - 16","city":"Kocēni","zip":"LV-4220"},"aveņu iela 3 - 17":{"address":"Aveņu iela 3 - 17","city":"Kocēni","zip":"LV-4220"},"aveņu iela 3 - 18":{"address":"Aveņu iela 3 - 18","city":"Kocēni","zip":"LV-4220"},"aveņu iela 3 - 19":{"address":"Aveņu iela 3 - 19","city":"Kocēni","zip":"LV-4220"},"aveņu iela 2 - 1":{"address":"Aveņu iela 2 - 1","city":"Ozolnieki","zip":"LV-3018"},"aveņu iela 2 - 2":{"address":"Aveņu iela 2 - 2","city":"Ozolnieki","zip":"LV-3018"},"aveņu iela 2b - 1":{"address":"Aveņu iela 2B - 1","city":"Piņķi","zip":"LV-2107"},"aveņu iela 2b - 2":{"address":"Aveņu iela 2B - 2","city":"Piņķi","zip":"LV-2107"}}