{"avoti - 1":{"address":"Avoti - 1","city":"Satiķi","zip":"LV-3873"},"avoti - 2":{"address":"Avoti - 2","city":"Satiķi","zip":"LV-3873"},"avoti - 3":{"address":"Avoti - 3","city":"Satiķi","zip":"LV-3873"},"avoti - 4":{"address":"Avoti - 4","city":"Satiķi","zip":"LV-3873"},"avotiņi - 1":{"address":"Avotiņi - 1","city":"Zaube","zip":"LV-4113"},"avotiņi - 2":{"address":"Avotiņi - 2","city":"Zaube","zip":"LV-4113"},"avotiņi - 3":{"address":"Avotiņi - 3","city":"Kalniena","zip":"LV-4406"},"avotiņi - 4":{"address":"Avotiņi - 4","city":"Kalniena","zip":"LV-4406"},"avotiņi - 5":{"address":"Avotiņi - 5","city":"Kalniena","zip":"LV-4406"},"avotiņi - 6":{"address":"Avotiņi - 6","city":"Kalniena","zip":"LV-4406"},"avotiņi - 7":{"address":"Avotiņi - 7","city":"Kalniena","zip":"LV-4406"},"avotiņi - 8":{"address":"Avotiņi - 8","city":"Kalniena","zip":"LV-4406"},"avotiņi - 9":{"address":"Avotiņi - 9","city":"Kalniena","zip":"LV-4406"},"avotiņi - 10":{"address":"Avotiņi - 10","city":"Kalniena","zip":"LV-4406"},"avotiņi - 11":{"address":"Avotiņi - 11","city":"Kalniena","zip":"LV-4406"},"avotiņi - 12":{"address":"Avotiņi - 12","city":"Kalniena","zip":"LV-4406"},"avotiņi - 13":{"address":"Avotiņi - 13","city":"Kalniena","zip":"LV-4406"},"avotiņi - 14":{"address":"Avotiņi - 14","city":"Kalniena","zip":"LV-4406"},"avotiņi - 15":{"address":"Avotiņi - 15","city":"Kalniena","zip":"LV-4406"},"avotiņi - 16":{"address":"Avotiņi - 16","city":"Kalniena","zip":"LV-4406"},"avotiņi - 17":{"address":"Avotiņi - 17","city":"Kalniena","zip":"LV-4406"},"avotiņi - 18":{"address":"Avotiņi - 18","city":"Kalniena","zip":"LV-4406"},"avoti 1 - 1":{"address":"Avoti 1 - 1","city":"Pilsrundāle","zip":"LV-3921"},"avoti 1 - 2":{"address":"Avoti 1 - 2","city":"Pilsrundāle","zip":"LV-3921"},"avoti - 5":{"address":"Avoti - 5","city":"Satiķi","zip":"LV-3873"},"avoti - 6":{"address":"Avoti - 6","city":"Satiķi","zip":"LV-3873"},"avoti - 7":{"address":"Avoti - 7","city":"Satiķi","zip":"LV-3873"},"avoti - 8":{"address":"Avoti - 8","city":"Satiķi","zip":"LV-3873"},"avoti - 9":{"address":"Avoti - 9","city":"Satiķi","zip":"LV-3873"},"avoti - 10":{"address":"Avoti - 10","city":"Satiķi","zip":"LV-3873"},"avoti - 11":{"address":"Avoti - 11","city":"Satiķi","zip":"LV-3873"},"avoti - 12":{"address":"Avoti - 12","city":"Satiķi","zip":"LV-3873"},"avoti - 13":{"address":"Avoti - 13","city":"Satiķi","zip":"LV-3873"},"avoti - 14":{"address":"Avoti - 14","city":"Jaunauce","zip":"LV-3893"},"avoti - 15":{"address":"Avoti - 15","city":"Jaunauce","zip":"LV-3893"},"avoti - 16":{"address":"Avoti - 16","city":"Jaunauce","zip":"LV-3893"},"avoti - 17":{"address":"Avoti - 17","city":"Jaunauce","zip":"LV-3893"},"avoti - 18":{"address":"Avoti - 18","city":"Jaunauce","zip":"LV-3893"}}