{"avotiņi - 1":{"address":"Avotiņi - 1","city":"Evertova","zip":"LV-5735"},"avotiņi - 2":{"address":"Avotiņi - 2","city":"Evertova","zip":"LV-5735"},"avotiņi - 3":{"address":"Avotiņi - 3","city":"Kalniena","zip":"LV-4406"},"avotiņi - 4":{"address":"Avotiņi - 4","city":"Kalniena","zip":"LV-4406"},"avotiņi - 5":{"address":"Avotiņi - 5","city":"Kalniena","zip":"LV-4406"},"avotiņi - 6":{"address":"Avotiņi - 6","city":"Kalniena","zip":"LV-4406"},"avotiņi - 7":{"address":"Avotiņi - 7","city":"Kalniena","zip":"LV-4406"},"avotiņi - 8":{"address":"Avotiņi - 8","city":"Kalniena","zip":"LV-4406"},"avotiņi - 9":{"address":"Avotiņi - 9","city":"Kalniena","zip":"LV-4406"},"avotiņi - 10":{"address":"Avotiņi - 10","city":"Kalniena","zip":"LV-4406"},"avotiņi - 11":{"address":"Avotiņi - 11","city":"Kalniena","zip":"LV-4406"},"avotiņi - 12":{"address":"Avotiņi - 12","city":"Kalniena","zip":"LV-4406"},"avotiņi - 13":{"address":"Avotiņi - 13","city":"Kalniena","zip":"LV-4406"},"avotiņi - 14":{"address":"Avotiņi - 14","city":"Kalniena","zip":"LV-4406"},"avotiņi - 15":{"address":"Avotiņi - 15","city":"Kalniena","zip":"LV-4406"},"avotiņi - 16":{"address":"Avotiņi - 16","city":"Kalniena","zip":"LV-4406"},"avotiņi - 17":{"address":"Avotiņi - 17","city":"Kalniena","zip":"LV-4406"},"avotiņi - 18":{"address":"Avotiņi - 18","city":"Kalniena","zip":"LV-4406"},"avotiņi 1":{"address":"Avotiņi 1","city":"Vecpils","zip":"LV-4576"},"avotiņi":{"address":"Avotiņi","city":"Virķēni","zip":"LV-4241"},"avotiņi 2":{"address":"Avotiņi 2","city":"Māriņkalns","zip":"LV-4332"}}