{"5":{"address":"5","city":"Aļņi","zip":"LV-4628"},"aļņi 2 - 1":{"address":"Aļņi 2 - 1","city":"Aļņi","zip":"LV-4628"},"aļņi 2 - 2":{"address":"Aļņi 2 - 2","city":"Aļņi","zip":"LV-4628"},"aļņi 2 - 3":{"address":"Aļņi 2 - 3","city":"Aļņi","zip":"LV-4628"},"varakļānu mežniecība - 5":{"address":"Varakļānu mežniecība - 5","city":"Aļņi","zip":"LV-4628"},"varakļānu mežniecība - 1":{"address":"Varakļānu mežniecība - 1","city":"Aļņi","zip":"LV-4628"},"varakļānu mežniecība - 2":{"address":"Varakļānu mežniecība - 2","city":"Aļņi","zip":"LV-4628"},"varakļānu mežniecība - 3":{"address":"Varakļānu mežniecība - 3","city":"Aļņi","zip":"LV-4628"},"varakļānu mežniecība - 4":{"address":"Varakļānu mežniecība - 4","city":"Aļņi","zip":"LV-4628"},"varakļānu mežniecība - 6":{"address":"Varakļānu mežniecība - 6","city":"Aļņi","zip":"LV-4628"},"varakļānu mežniecība - 7":{"address":"Varakļānu mežniecība - 7","city":"Aļņi","zip":"LV-4628"},"varakļānu mežniecība - 8":{"address":"Varakļānu mežniecība - 8","city":"Aļņi","zip":"LV-4628"},"varakļānu mežniecība - 9":{"address":"Varakļānu mežniecība - 9","city":"Aļņi","zip":"LV-4628"},"varakļānu mežniecība - 10":{"address":"Varakļānu mežniecība - 10","city":"Aļņi","zip":"LV-4628"},"aļņi 7 - 1":{"address":"Aļņi 7 - 1","city":"Aļņi","zip":"LV-4628"},"aļņi 7 - 2":{"address":"Aļņi 7 - 2","city":"Aļņi","zip":"LV-4628"},"aļņi 7 - 3":{"address":"Aļņi 7 - 3","city":"Aļņi","zip":"LV-4628"},"aļņi 7 - 4":{"address":"Aļņi 7 - 4","city":"Aļņi","zip":"LV-4628"},"aļņi 7 - 5":{"address":"Aļņi 7 - 5","city":"Aļņi","zip":"LV-4628"},"aļņi 5 - 1":{"address":"Aļņi 5 - 1","city":"Aļņi","zip":"LV-4628"},"aļņi 5 - 11":{"address":"Aļņi 5 - 11","city":"Aļņi","zip":"LV-4628"},"aļņi 5 - 6":{"address":"Aļņi 5 - 6","city":"Aļņi","zip":"LV-4628"},"aļņi 5 - 2":{"address":"Aļņi 5 - 2","city":"Aļņi","zip":"LV-4628"},"aļņi 5 - 9":{"address":"Aļņi 5 - 9","city":"Aļņi","zip":"LV-4628"},"aļņi 5 - 4":{"address":"Aļņi 5 - 4","city":"Aļņi","zip":"LV-4628"},"aļņi 5 - 7":{"address":"Aļņi 5 - 7","city":"Aļņi","zip":"LV-4628"},"aļņi 5 - 5":{"address":"Aļņi 5 - 5","city":"Aļņi","zip":"LV-4628"},"aļņi 5 - 3":{"address":"Aļņi 5 - 3","city":"Aļņi","zip":"LV-4628"},"aļņi 5 - 10":{"address":"Aļņi 5 - 10","city":"Aļņi","zip":"LV-4628"},"aļņi 5 - 8":{"address":"Aļņi 5 - 8","city":"Aļņi","zip":"LV-4628"},"alnīši - 1":{"address":"Alnīši - 1","city":"Dzelmes","zip":"LV-5022"},"alnīši - 2":{"address":"Alnīši - 2","city":"Dzelmes","zip":"LV-5022"},"aļņi 1 - 4":{"address":"Aļņi 1 - 4","city":"Aļņi","zip":"LV-4628"},"aļņi 1 - 3":{"address":"Aļņi 1 - 3","city":"Aļņi","zip":"LV-4628"},"aļņi 1 - 1":{"address":"Aļņi 1 - 1","city":"Aļņi","zip":"LV-4628"},"aļņi 1 - 2":{"address":"Aļņi 1 - 2","city":"Aļņi","zip":"LV-4628"},"aļņi 4 - 1":{"address":"Aļņi 4 - 1","city":"Aļņi","zip":"LV-4628"},"aļņi 4 - 2":{"address":"Aļņi 4 - 2","city":"Aļņi","zip":"LV-4628"},"aļņi":{"address":"Aļņi","city":"Berjozki","zip":"LV-5662"},"alņi":{"address":"Alņi","city":"Losi","zip":"LV-4633"},"priežmalas":{"address":"Priežmalas","city":"Aļņi","zip":"LV-4628"},"aļņi 6":{"address":"Aļņi 6","city":"Aļņi","zip":"LV-4628"},"aļņi 2":{"address":"Aļņi 2","city":"Aļņi","zip":"LV-4628"},"aļņi 7":{"address":"Aļņi 7","city":"Aļņi","zip":"LV-4628"},"varakļānu mežniecība":{"address":"Varakļānu mežniecība","city":"Aļņi","zip":"LV-4628"},"aļņi 3":{"address":"Aļņi 3","city":"Aļņi","zip":"LV-4628"},"aļņi 5":{"address":"Aļņi 5","city":"Aļņi","zip":"LV-4628"},"alniņi":{"address":"Alniņi","city":"Evertova","zip":"LV-5735"},"alnīši":{"address":"Alnīši","city":"Dzelmes","zip":"LV-5022"},"aļņi 4":{"address":"Aļņi 4","city":"Aļņi","zip":"LV-4628"},"dēļu druvas":{"address":"Dēļu druvas","city":"Aļņi","zip":"LV-4628"},"aļņi 1":{"address":"Aļņi 1","city":"Aļņi","zip":"LV-4628"}}