{"kalnišķu baloži - 1":{"address":"Kalnišķu Baloži - 1","city":"Kalnišķi","zip":"LV-3476"},"kalnišķu baloži - 2":{"address":"Kalnišķu Baloži - 2","city":"Kalnišķi","zip":"LV-3476"},"kalnišķu baloži - 3":{"address":"Kalnišķu Baloži - 3","city":"Kalnišķi","zip":"LV-3476"},"kalnišķu baloži - 4":{"address":"Kalnišķu Baloži - 4","city":"Kalnišķi","zip":"LV-3476"},"baloži - 1":{"address":"Baloži - 1","city":"Atpūta","zip":"LV-3008"},"baloži - 2":{"address":"Baloži - 2","city":"Atpūta","zip":"LV-3008"},"baloži - 3":{"address":"Baloži - 3","city":"Atpūta","zip":"LV-3008"},"baloži - 4":{"address":"Baloži - 4","city":"Atpūta","zip":"LV-3008"},"baloži - 5":{"address":"Baloži - 5","city":"Atpūta","zip":"LV-3008"},"baloži - 6":{"address":"Baloži - 6","city":"Atpūta","zip":"LV-3008"},"baloži - 7":{"address":"Baloži - 7","city":"Vienība","zip":"LV-3140"},"baloži - 8":{"address":"Baloži - 8","city":"Vienība","zip":"LV-3140"},"baloži - 9":{"address":"Baloži - 9","city":"Vienība","zip":"LV-3140"},"baloži - 10":{"address":"Baloži - 10","city":"Vienība","zip":"LV-3140"},"baloži - 11":{"address":"Baloži - 11","city":"Vienība","zip":"LV-3140"},"baloži - 12":{"address":"Baloži - 12","city":"Vienība","zip":"LV-3140"}}