{"baltā māja - 1":{"address":"Baltā māja - 1","city":"Ķekava","zip":"LV-2123"},"baltā māja - 2":{"address":"Baltā māja - 2","city":"Ķekava","zip":"LV-2123"},"baltā māja - 3":{"address":"Baltā māja - 3","city":"Ķekava","zip":"LV-2123"},"baltā māja - 4":{"address":"Baltā māja - 4","city":"Ķekava","zip":"LV-2123"},"baltā māja - 5":{"address":"Baltā māja - 5","city":"Ķekava","zip":"LV-2123"},"baltā māja - 6":{"address":"Baltā māja - 6","city":"Ķekava","zip":"LV-2123"},"baltā māja - 7":{"address":"Baltā māja - 7","city":"Drabeši","zip":"LV-4101"},"baltā māja - 8":{"address":"Baltā māja - 8","city":"Drabeši","zip":"LV-4101"},"vējoņi - 1":{"address":"Vējoņi - 1","city":"Baltaiskrogs","zip":"LV-3897"},"vējoņi - 2":{"address":"Vējoņi - 2","city":"Baltaiskrogs","zip":"LV-3897"},"vējoņi - 3":{"address":"Vējoņi - 3","city":"Baltaiskrogs","zip":"LV-3897"},"vējoņi - 4":{"address":"Vējoņi - 4","city":"Baltaiskrogs","zip":"LV-3897"},"vējoņi - 5":{"address":"Vējoņi - 5","city":"Baltaiskrogs","zip":"LV-3897"},"līči - 1":{"address":"Līči - 1","city":"Baltaiskrogs","zip":"LV-3897"},"līči - 2":{"address":"Līči - 2","city":"Baltaiskrogs","zip":"LV-3897"},"līči - 3":{"address":"Līči - 3","city":"Baltaiskrogs","zip":"LV-3897"},"līči - 4":{"address":"Līči - 4","city":"Baltaiskrogs","zip":"LV-3897"},"līči - 5":{"address":"Līči - 5","city":"Baltaiskrogs","zip":"LV-3897"},"līči - 6":{"address":"Līči - 6","city":"Baltaiskrogs","zip":"LV-3897"},"līči - 7":{"address":"Līči - 7","city":"Baltaiskrogs","zip":"LV-3897"},"līči - 8":{"address":"Līči - 8","city":"Baltaiskrogs","zip":"LV-3897"},"līgotņi - 1":{"address":"Līgotņi - 1","city":"Baltaiskrogs","zip":"LV-3897"},"līgotņi - 2":{"address":"Līgotņi - 2","city":"Baltaiskrogs","zip":"LV-3897"},"līgotņi - 3":{"address":"Līgotņi - 3","city":"Baltaiskrogs","zip":"LV-3897"},"baltā skola - 3":{"address":"Baltā skola - 3","city":"Mazalakste","zip":"LV-3270"},"baltā skola - 1":{"address":"Baltā skola - 1","city":"Mazalakste","zip":"LV-3270"},"baltā skola - 2":{"address":"Baltā skola - 2","city":"Mazalakste","zip":"LV-3270"},"baltā skola - 4":{"address":"Baltā skola - 4","city":"Mazalakste","zip":"LV-3270"},"baltā skola - 5":{"address":"Baltā skola - 5","city":"Mazalakste","zip":"LV-3270"},"baltā skola - 6":{"address":"Baltā skola - 6","city":"Mazalakste","zip":"LV-3270"},"baltā skola - 7":{"address":"Baltā skola - 7","city":"Mazalakste","zip":"LV-3270"},"baltā skola - 8":{"address":"Baltā skola - 8","city":"Mazalakste","zip":"LV-3270"},"baltā skola - 9":{"address":"Baltā skola - 9","city":"Mazalakste","zip":"LV-3270"},"baltā skola - 10":{"address":"Baltā skola - 10","city":"Mazalakste","zip":"LV-3270"},"baltā skola - 11":{"address":"Baltā skola - 11","city":"Mazalakste","zip":"LV-3270"},"baltā skola - 12":{"address":"Baltā skola - 12","city":"Mazalakste","zip":"LV-3270"},"baltā skola - 13":{"address":"Baltā skola - 13","city":"Mazalakste","zip":"LV-3270"},"baltā iela 10 - 1":{"address":"Baltā iela 10 - 1","city":"Piņķi","zip":"LV-2107"},"baltā iela 10 - 2":{"address":"Baltā iela 10 - 2","city":"Piņķi","zip":"LV-2107"}}