{"vējoņi - 1":{"address":"Vējoņi - 1","city":"Baltaiskrogs","zip":"LV-3897"},"vējoņi - 2":{"address":"Vējoņi - 2","city":"Baltaiskrogs","zip":"LV-3897"},"vējoņi - 3":{"address":"Vējoņi - 3","city":"Baltaiskrogs","zip":"LV-3897"},"vējoņi - 4":{"address":"Vējoņi - 4","city":"Baltaiskrogs","zip":"LV-3897"},"vējoņi - 5":{"address":"Vējoņi - 5","city":"Baltaiskrogs","zip":"LV-3897"},"līči - 1":{"address":"Līči - 1","city":"Baltaiskrogs","zip":"LV-3897"},"līči - 2":{"address":"Līči - 2","city":"Baltaiskrogs","zip":"LV-3897"},"līči - 3":{"address":"Līči - 3","city":"Baltaiskrogs","zip":"LV-3897"},"līči - 4":{"address":"Līči - 4","city":"Baltaiskrogs","zip":"LV-3897"},"līči - 5":{"address":"Līči - 5","city":"Baltaiskrogs","zip":"LV-3897"},"līči - 6":{"address":"Līči - 6","city":"Baltaiskrogs","zip":"LV-3897"},"līči - 7":{"address":"Līči - 7","city":"Baltaiskrogs","zip":"LV-3897"},"līči - 8":{"address":"Līči - 8","city":"Baltaiskrogs","zip":"LV-3897"},"līgotņi - 1":{"address":"Līgotņi - 1","city":"Baltaiskrogs","zip":"LV-3897"},"līgotņi - 2":{"address":"Līgotņi - 2","city":"Baltaiskrogs","zip":"LV-3897"},"līgotņi - 3":{"address":"Līgotņi - 3","city":"Baltaiskrogs","zip":"LV-3897"},"vējoņi":{"address":"Vējoņi","city":"Baltaiskrogs","zip":"LV-3897"},"krasta iela 1":{"address":"Krasta iela 1","city":"Baltaiskrogs","zip":"LV-3897"},"krasta iela 2":{"address":"Krasta iela 2","city":"Baltaiskrogs","zip":"LV-3897"},"krasta iela 3":{"address":"Krasta iela 3","city":"Baltaiskrogs","zip":"LV-3897"},"krasta iela 4":{"address":"Krasta iela 4","city":"Baltaiskrogs","zip":"LV-3897"},"krasta iela 5":{"address":"Krasta iela 5","city":"Baltaiskrogs","zip":"LV-3897"},"krasta iela 6":{"address":"Krasta iela 6","city":"Baltaiskrogs","zip":"LV-3897"},"krasta iela 7":{"address":"Krasta iela 7","city":"Baltaiskrogs","zip":"LV-3897"},"krasta iela 8":{"address":"Krasta iela 8","city":"Baltaiskrogs","zip":"LV-3897"},"krasta iela 9":{"address":"Krasta iela 9","city":"Baltaiskrogs","zip":"LV-3897"},"bandenieki":{"address":"Bandenieki","city":"Baltaiskrogs","zip":"LV-3897"},"cepurnieki":{"address":"Cepurnieki","city":"Baltaiskrogs","zip":"LV-3897"},"dzintari":{"address":"Dzintari","city":"Baltaiskrogs","zip":"LV-3897"},"kamenes":{"address":"Kamenes","city":"Baltaiskrogs","zip":"LV-3897"},"kreijas":{"address":"Kreijas","city":"Baltaiskrogs","zip":"LV-3897"},"līgotņi":{"address":"Līgotņi","city":"Baltaiskrogs","zip":"LV-3897"},"rudeņi":{"address":"Rudeņi","city":"Baltaiskrogs","zip":"LV-3897"},"spīdolas":{"address":"Spīdolas","city":"Baltaiskrogs","zip":"LV-3897"},"vālodzītes":{"address":"Vālodzītes","city":"Baltaiskrogs","zip":"LV-3897"},"vītoli":{"address":"Vītoli","city":"Baltaiskrogs","zip":"LV-3897"},"līči":{"address":"Līči","city":"Baltaiskrogs","zip":"LV-3897"},"baltais":{"address":"Baltais","city":"Silabrieži","zip":"LV-2119"},"baltaiskrogs":{"address":"Baltaiskrogs","city":"Caici","zip":"LV-5329"},"baltais krogs":{"address":"Baltais krogs","city":"Baltakrogs","zip":"LV-5477"},"baltais akmens":{"address":"Baltais Akmens","city":"Lielie Dzerkaļi","zip":"LV-5304"},"baltais stārķis":{"address":"Baltais stārķis","city":"Brigi","zip":"LV-5707"},"šķūnis baltais centrā":{"address":"Šķūnis Baltais Centrā","city":"Jaunpils","zip":"LV-3145"},"baltais ērglis":{"address":"Baltais Ērglis","city":"Zapāni","zip":"LV-5745"},"kalnupes":{"address":"Kalnupes","city":"Baltaiskrogs","zip":"LV-5450"},"krogs":{"address":"Krogs","city":"Baltaiskrogs","zip":"LV-5450"},"ozoli":{"address":"Ozoli","city":"Baltaiskrogs","zip":"LV-5450"},"purvmala":{"address":"Purvmala","city":"Baltaiskrogs","zip":"LV-5450"},"baltais veikals":{"address":"Baltais veikals","city":"Daudzeva","zip":"LV-5111"},"auziņi":{"address":"Auziņi","city":"Baltais Dukstigals","zip":"LV-4617"},"baltalkšņi":{"address":"Baltalkšņi","city":"Baltais Dukstigals","zip":"LV-4617"},"ceplīši":{"address":"Ceplīši","city":"Baltais Dukstigals","zip":"LV-4617"},"eglaine":{"address":"Eglaine","city":"Baltais Dukstigals","zip":"LV-4617"},"ievas":{"address":"Ievas","city":"Baltais Dukstigals","zip":"LV-4617"},"liepnieki":{"address":"Liepnieki","city":"Baltais Dukstigals","zip":"LV-4617"},"liepu parks":{"address":"Liepu parks","city":"Baltais Dukstigals","zip":"LV-4617"},"sējēji":{"address":"Sējēji","city":"Baltais Dukstigals","zip":"LV-4617"},"baltais briedis":{"address":"Baltais Briedis","city":"Kravaļi","zip":"LV-4583"}}