{"krasti - 1":{"address":"Krasti - 1","city":"Baltezers","zip":"LV-2164"},"krasti - 2":{"address":"Krasti - 2","city":"Baltezers","zip":"LV-2164"},"priedes - 1":{"address":"Priedes - 1","city":"Baltezers","zip":"LV-2164"},"priedes - 2":{"address":"Priedes - 2","city":"Baltezers","zip":"LV-2164"},"priedes - 3":{"address":"Priedes - 3","city":"Baltezers","zip":"LV-2164"},"priedes - 4":{"address":"Priedes - 4","city":"Baltezers","zip":"LV-2164"},"priedes - 5":{"address":"Priedes - 5","city":"Baltezers","zip":"LV-2164"},"priedes - 6":{"address":"Priedes - 6","city":"Baltezers","zip":"LV-2164"},"priedes - 9":{"address":"Priedes - 9","city":"Baltezers","zip":"LV-2164"},"priedes - 12":{"address":"Priedes - 12","city":"Baltezers","zip":"LV-2164"},"priedes - 14":{"address":"Priedes - 14","city":"Baltezers","zip":"LV-2164"},"priedes - 16":{"address":"Priedes - 16","city":"Baltezers","zip":"LV-2164"},"priedes - 17":{"address":"Priedes - 17","city":"Baltezers","zip":"LV-2164"},"priedes - 18":{"address":"Priedes - 18","city":"Baltezers","zip":"LV-2164"},"priedes - 7":{"address":"Priedes - 7","city":"Baltezers","zip":"LV-2164"},"priedes - 8":{"address":"Priedes - 8","city":"Baltezers","zip":"LV-2164"},"priedes - 10":{"address":"Priedes - 10","city":"Baltezers","zip":"LV-2164"},"priedes - 11":{"address":"Priedes - 11","city":"Baltezers","zip":"LV-2164"},"priedes - 13":{"address":"Priedes - 13","city":"Baltezers","zip":"LV-2164"},"priedes - 15":{"address":"Priedes - 15","city":"Baltezers","zip":"LV-2164"},"laivu iela 23 - 1":{"address":"Laivu iela 23 - 1","city":"Baltezers","zip":"LV-2164"},"laivu iela 23 - 2":{"address":"Laivu iela 23 - 2","city":"Baltezers","zip":"LV-2164"},"mētru iela 4 - 1":{"address":"Mētru iela 4 - 1","city":"Baltezers","zip":"LV-2164"},"mētru iela 4 - 2":{"address":"Mētru iela 4 - 2","city":"Baltezers","zip":"LV-2164"},"mētru iela 6 - 1":{"address":"Mētru iela 6 - 1","city":"Baltezers","zip":"LV-2164"},"mētru iela 6 - 2":{"address":"Mētru iela 6 - 2","city":"Baltezers","zip":"LV-2164"},"tallinas šoseja 55 - 1":{"address":"Tallinas šoseja 55 - 1","city":"Baltezers","zip":"LV-2164"},"tallinas šoseja 55 - 2":{"address":"Tallinas šoseja 55 - 2","city":"Baltezers","zip":"LV-2164"},"tallinas šoseja 55 - 3":{"address":"Tallinas šoseja 55 - 3","city":"Baltezers","zip":"LV-2164"},"tallinas šoseja 55 - 4":{"address":"Tallinas šoseja 55 - 4","city":"Baltezers","zip":"LV-2164"},"tallinas šoseja 55 - 5":{"address":"Tallinas šoseja 55 - 5","city":"Baltezers","zip":"LV-2164"},"tallinas šoseja 55 - 6":{"address":"Tallinas šoseja 55 - 6","city":"Baltezers","zip":"LV-2164"},"tallinas šoseja 55 - 7":{"address":"Tallinas šoseja 55 - 7","city":"Baltezers","zip":"LV-2164"},"tallinas šoseja 55 - 8":{"address":"Tallinas šoseja 55 - 8","city":"Baltezers","zip":"LV-2164"},"tallinas šoseja 55 - 9":{"address":"Tallinas šoseja 55 - 9","city":"Baltezers","zip":"LV-2164"},"tallinas šoseja 55 - 10":{"address":"Tallinas šoseja 55 - 10","city":"Baltezers","zip":"LV-2164"},"tallinas šoseja 55 - 11":{"address":"Tallinas šoseja 55 - 11","city":"Baltezers","zip":"LV-2164"},"tallinas šoseja 55 - 12":{"address":"Tallinas šoseja 55 - 12","city":"Baltezers","zip":"LV-2164"},"tallinas šoseja 55 - 13":{"address":"Tallinas šoseja 55 - 13","city":"Baltezers","zip":"LV-2164"},"tallinas šoseja 55 - 14":{"address":"Tallinas šoseja 55 - 14","city":"Baltezers","zip":"LV-2164"},"sūkņu stacijas iela 4 - 1":{"address":"Sūkņu stacijas iela 4 - 1","city":"Baltezers","zip":"LV-2164"},"sūkņu stacijas iela 4 - 2":{"address":"Sūkņu stacijas iela 4 - 2","city":"Baltezers","zip":"LV-2164"},"sūkņu stacijas iela 4 - 3":{"address":"Sūkņu stacijas iela 4 - 3","city":"Baltezers","zip":"LV-2164"},"sūkņu stacijas iela 4 - 4":{"address":"Sūkņu stacijas iela 4 - 4","city":"Baltezers","zip":"LV-2164"},"sūkņu stacijas iela 4 - 5":{"address":"Sūkņu stacijas iela 4 - 5","city":"Baltezers","zip":"LV-2164"},"sūkņu stacijas iela 4 - 6":{"address":"Sūkņu stacijas iela 4 - 6","city":"Baltezers","zip":"LV-2164"},"sūkņu stacijas iela 4 - 7":{"address":"Sūkņu stacijas iela 4 - 7","city":"Baltezers","zip":"LV-2164"},"sūkņu stacijas iela 4 - 8":{"address":"Sūkņu stacijas iela 4 - 8","city":"Baltezers","zip":"LV-2164"},"sūkņu stacijas iela 2 - 1":{"address":"Sūkņu stacijas iela 2 - 1","city":"Baltezers","zip":"LV-2164"},"sūkņu stacijas iela 2 - 2":{"address":"Sūkņu stacijas iela 2 - 2","city":"Baltezers","zip":"LV-2164"},"sūkņu stacijas iela 2 - 3":{"address":"Sūkņu stacijas iela 2 - 3","city":"Baltezers","zip":"LV-2164"},"sūkņu stacijas iela 2 - 4":{"address":"Sūkņu stacijas iela 2 - 4","city":"Baltezers","zip":"LV-2164"},"sūkņu stacijas iela 2 - 5":{"address":"Sūkņu stacijas iela 2 - 5","city":"Baltezers","zip":"LV-2164"},"sūkņu stacijas iela 2 - 6":{"address":"Sūkņu stacijas iela 2 - 6","city":"Baltezers","zip":"LV-2164"},"sūkņu stacijas iela 2 - 7":{"address":"Sūkņu stacijas iela 2 - 7","city":"Baltezers","zip":"LV-2164"},"sūkņu stacijas iela 2 - 8":{"address":"Sūkņu stacijas iela 2 - 8","city":"Baltezers","zip":"LV-2164"},"sūkņu stacijas iela 2 - 9":{"address":"Sūkņu stacijas iela 2 - 9","city":"Baltezers","zip":"LV-2164"},"sūkņu stacijas iela 2 - 10":{"address":"Sūkņu stacijas iela 2 - 10","city":"Baltezers","zip":"LV-2164"},"sūkņu stacijas iela 2 - 11":{"address":"Sūkņu stacijas iela 2 - 11","city":"Baltezers","zip":"LV-2164"},"sūkņu stacijas iela 2 - 12":{"address":"Sūkņu stacijas iela 2 - 12","city":"Baltezers","zip":"LV-2164"},"alderu iela 30 - 1":{"address":"Alderu iela 30 - 1","city":"Baltezers","zip":"LV-2164"},"alderu iela 30 - 2":{"address":"Alderu iela 30 - 2","city":"Baltezers","zip":"LV-2164"},"alderu iela 30 - 3":{"address":"Alderu iela 30 - 3","city":"Baltezers","zip":"LV-2164"},"alderu iela 30 - 4":{"address":"Alderu iela 30 - 4","city":"Baltezers","zip":"LV-2164"},"alderu iela 30 - 5":{"address":"Alderu iela 30 - 5","city":"Baltezers","zip":"LV-2164"},"alderu iela 30 - 6":{"address":"Alderu iela 30 - 6","city":"Baltezers","zip":"LV-2164"},"alderu iela 30 - 7":{"address":"Alderu iela 30 - 7","city":"Baltezers","zip":"LV-2164"},"alderu iela 30 - 8":{"address":"Alderu iela 30 - 8","city":"Baltezers","zip":"LV-2164"},"alderu iela 30 - 9":{"address":"Alderu iela 30 - 9","city":"Baltezers","zip":"LV-2164"},"alderu iela 30 - 10":{"address":"Alderu iela 30 - 10","city":"Baltezers","zip":"LV-2164"},"alderu iela 30 - 11":{"address":"Alderu iela 30 - 11","city":"Baltezers","zip":"LV-2164"},"alderu iela 30 - 12":{"address":"Alderu iela 30 - 12","city":"Baltezers","zip":"LV-2164"},"alderu iela 30 - 13":{"address":"Alderu iela 30 - 13","city":"Baltezers","zip":"LV-2164"},"alderu iela 30 - 14":{"address":"Alderu iela 30 - 14","city":"Baltezers","zip":"LV-2164"},"alderu iela 30 - 15":{"address":"Alderu iela 30 - 15","city":"Baltezers","zip":"LV-2164"},"alderu iela 30 - 16":{"address":"Alderu iela 30 - 16","city":"Baltezers","zip":"LV-2164"},"alderu iela 30 - 17":{"address":"Alderu iela 30 - 17","city":"Baltezers","zip":"LV-2164"},"alderu iela 30 - 18":{"address":"Alderu iela 30 - 18","city":"Baltezers","zip":"LV-2164"},"alderu iela 30 - 19":{"address":"Alderu iela 30 - 19","city":"Baltezers","zip":"LV-2164"},"alderu iela 30 - 20":{"address":"Alderu iela 30 - 20","city":"Baltezers","zip":"LV-2164"},"alderu iela 30 - 21":{"address":"Alderu iela 30 - 21","city":"Baltezers","zip":"LV-2164"},"alderu iela 30 - 22":{"address":"Alderu iela 30 - 22","city":"Baltezers","zip":"LV-2164"},"alderu iela 30 - 23":{"address":"Alderu iela 30 - 23","city":"Baltezers","zip":"LV-2164"},"alderu iela 30 - 24":{"address":"Alderu iela 30 - 24","city":"Baltezers","zip":"LV-2164"},"alderu iela 30 - 25":{"address":"Alderu iela 30 - 25","city":"Baltezers","zip":"LV-2164"},"alderu iela 30 - 26":{"address":"Alderu iela 30 - 26","city":"Baltezers","zip":"LV-2164"},"alderu iela 30 - 27":{"address":"Alderu iela 30 - 27","city":"Baltezers","zip":"LV-2164"},"alderu iela 30 - 28":{"address":"Alderu iela 30 - 28","city":"Baltezers","zip":"LV-2164"},"alderu iela 30 - 30":{"address":"Alderu iela 30 - 30","city":"Baltezers","zip":"LV-2164"},"alderu iela 30 - 29":{"address":"Alderu iela 30 - 29","city":"Baltezers","zip":"LV-2164"},"tallinas šoseja 64 - 1":{"address":"Tallinas šoseja 64 - 1","city":"Baltezers","zip":"LV-2164"},"tallinas šoseja 64 - 2":{"address":"Tallinas šoseja 64 - 2","city":"Baltezers","zip":"LV-2164"},"alderu iela 29 - 1":{"address":"Alderu iela 29 - 1","city":"Baltezers","zip":"LV-2164"},"alderu iela 29 - 2":{"address":"Alderu iela 29 - 2","city":"Baltezers","zip":"LV-2164"},"alderu iela 27 - 1":{"address":"Alderu iela 27 - 1","city":"Baltezers","zip":"LV-2164"},"alderu iela 27 - 2":{"address":"Alderu iela 27 - 2","city":"Baltezers","zip":"LV-2164"},"alderu iela 27 - 3":{"address":"Alderu iela 27 - 3","city":"Baltezers","zip":"LV-2164"},"alderu iela 27 - 4":{"address":"Alderu iela 27 - 4","city":"Baltezers","zip":"LV-2164"},"alderu iela 27 - 5":{"address":"Alderu iela 27 - 5","city":"Baltezers","zip":"LV-2164"},"alderu iela 27 - 6":{"address":"Alderu iela 27 - 6","city":"Baltezers","zip":"LV-2164"}}