{"barkāni":{"address":"Barkāni","city":"Kampiški","zip":"LV-4633"},"kalvāni":{"address":"Kalvāni","city":"Barkāni","zip":"LV-5717"},"roko":{"address":"Roko","city":"Barkāni","zip":"LV-5717"},"miglas":{"address":"Miglas","city":"Barkāni","zip":"LV-5717"},"plūmes":{"address":"Plūmes","city":"Barkāni","zip":"LV-5717"},"rutuļi":{"address":"Rutuļi","city":"Barkāni","zip":"LV-5717"},"salaskalni":{"address":"Salaskalni","city":"Barkāni","zip":"LV-5717"},"tālumnieki":{"address":"Tālumnieki","city":"Barkāni","zip":"LV-5717"},"gludoji":{"address":"Gludoji","city":"Barkāni","zip":"LV-5717"},"ievāji":{"address":"Ievāji","city":"Barkāni","zip":"LV-5717"},"klinti":{"address":"Klinti","city":"Barkāni","zip":"LV-5717"},"kursīši":{"address":"Kursīši","city":"Barkāni","zip":"LV-5717"},"lakši":{"address":"Lakši","city":"Barkāni","zip":"LV-5717"},"mālkalni":{"address":"Mālkalni","city":"Barkāni","zip":"LV-5717"},"mežmaļi":{"address":"Mežmaļi","city":"Barkāni","zip":"LV-5717"},"apkalni":{"address":"Apkalni","city":"Barkāni","zip":"LV-5717"},"durdzes":{"address":"Durdzes","city":"Barkāni","zip":"LV-5717"},"fabulas":{"address":"Fabulas","city":"Barkāni","zip":"LV-5717"},"barkani":{"address":"Barkani","city":"Dudari","zip":"LV-4623"}}