{"baznīcas iela 1 - 1":{"address":"Baznīcas iela 1 - 1","city":"Stoļerova","zip":"LV-4642"},"baznīcas iela 1 - 2":{"address":"Baznīcas iela 1 - 2","city":"Stoļerova","zip":"LV-4642"},"baznīcas iela 6 - 1":{"address":"Baznīcas iela 6 - 1","city":"Stoļerova","zip":"LV-4642"},"baznīcas iela 6 - 2":{"address":"Baznīcas iela 6 - 2","city":"Stoļerova","zip":"LV-4642"},"baznīcas iela 3 - 1":{"address":"Baznīcas iela 3 - 1","city":"Lipuški","zip":"LV-4626"},"baznīcas iela 3 - 2":{"address":"Baznīcas iela 3 - 2","city":"Lipuški","zip":"LV-4626"},"baznīcas iela 3 - 3":{"address":"Baznīcas iela 3 - 3","city":"Lipuški","zip":"LV-4626"},"baznīcas iela 3 - 4":{"address":"Baznīcas iela 3 - 4","city":"Lipuški","zip":"LV-4626"},"baznīcas iela 3 - 5":{"address":"Baznīcas iela 3 - 5","city":"Lipuški","zip":"LV-4626"},"baznīcas iela 3 - 6":{"address":"Baznīcas iela 3 - 6","city":"Lipuški","zip":"LV-4626"},"baznīcas iela 3 - 7":{"address":"Baznīcas iela 3 - 7","city":"Lipuški","zip":"LV-4626"},"baznīcas iela 3 - 8":{"address":"Baznīcas iela 3 - 8","city":"Lipuški","zip":"LV-4626"},"baznīcas iela 3 - 9":{"address":"Baznīcas iela 3 - 9","city":"Lipuški","zip":"LV-4626"},"baznīcas iela 3 - 10":{"address":"Baznīcas iela 3 - 10","city":"Lipuški","zip":"LV-4626"},"baznīcas iela 3 - 11":{"address":"Baznīcas iela 3 - 11","city":"Lipuški","zip":"LV-4626"},"baznīcas iela 3 - 12":{"address":"Baznīcas iela 3 - 12","city":"Lipuški","zip":"LV-4626"}}