{"bebri - 2":{"address":"Bebri - 2","city":"Cīruļi","zip":"LV-5228"},"bebri - 11":{"address":"Bebri - 11","city":"Līči","zip":"LV-2118"},"bebri - 16":{"address":"Bebri - 16","city":"Līči","zip":"LV-2118"},"bebri - 20":{"address":"Bebri - 20","city":"Līči","zip":"LV-2118"},"bebri - 23":{"address":"Bebri - 23","city":"Līči","zip":"LV-2118"},"bebri - 26":{"address":"Bebri - 26","city":"Līči","zip":"LV-2118"},"bebri - 30":{"address":"Bebri - 30","city":"Līči","zip":"LV-2118"},"bebri - 44":{"address":"Bebri - 44","city":"Līči","zip":"LV-2118"},"bebri - 3":{"address":"Bebri - 3","city":"Līči","zip":"LV-2118"},"bebri - 4":{"address":"Bebri - 4","city":"Līči","zip":"LV-2118"},"bebri - 5":{"address":"Bebri - 5","city":"Līči","zip":"LV-2118"},"bebri - 6":{"address":"Bebri - 6","city":"Līči","zip":"LV-2118"},"bebri - 7":{"address":"Bebri - 7","city":"Līči","zip":"LV-2118"},"bebri - 9":{"address":"Bebri - 9","city":"Līči","zip":"LV-2118"},"bebri - 10":{"address":"Bebri - 10","city":"Līči","zip":"LV-2118"},"bebri - 12":{"address":"Bebri - 12","city":"Līči","zip":"LV-2118"},"bebri - 13":{"address":"Bebri - 13","city":"Līči","zip":"LV-2118"},"bebri - 14":{"address":"Bebri - 14","city":"Līči","zip":"LV-2118"},"bebri - 15":{"address":"Bebri - 15","city":"Līči","zip":"LV-2118"},"bebri - 17":{"address":"Bebri - 17","city":"Līči","zip":"LV-2118"},"bebri - 18":{"address":"Bebri - 18","city":"Līči","zip":"LV-2118"},"bebri - 19":{"address":"Bebri - 19","city":"Līči","zip":"LV-2118"},"bebri - 21":{"address":"Bebri - 21","city":"Līči","zip":"LV-2118"},"bebri - 22":{"address":"Bebri - 22","city":"Līči","zip":"LV-2118"},"bebri - 24":{"address":"Bebri - 24","city":"Līči","zip":"LV-2118"},"bebri - 28":{"address":"Bebri - 28","city":"Līči","zip":"LV-2118"},"bebri - 29":{"address":"Bebri - 29","city":"Līči","zip":"LV-2118"},"bebri - 33":{"address":"Bebri - 33","city":"Līči","zip":"LV-2118"},"bebri - 35":{"address":"Bebri - 35","city":"Līči","zip":"LV-2118"},"bebri - 36":{"address":"Bebri - 36","city":"Līči","zip":"LV-2118"},"bebri - 37":{"address":"Bebri - 37","city":"Līči","zip":"LV-2118"},"bebri - 38":{"address":"Bebri - 38","city":"Līči","zip":"LV-2118"},"bebri - 39":{"address":"Bebri - 39","city":"Līči","zip":"LV-2118"},"bebri - 41":{"address":"Bebri - 41","city":"Līči","zip":"LV-2118"},"bebri - 42":{"address":"Bebri - 42","city":"Līči","zip":"LV-2118"},"bebri - 43":{"address":"Bebri - 43","city":"Līči","zip":"LV-2118"},"bebri - 45":{"address":"Bebri - 45","city":"Līči","zip":"LV-2118"},"bebri - 47":{"address":"Bebri - 47","city":"Līči","zip":"LV-2118"},"bebri - 48":{"address":"Bebri - 48","city":"Līči","zip":"LV-2118"},"bebri - 34":{"address":"Bebri - 34","city":"Līči","zip":"LV-2118"},"bebri - 31":{"address":"Bebri - 31","city":"Līči","zip":"LV-2118"},"bebri - 40":{"address":"Bebri - 40","city":"Līči","zip":"LV-2118"},"bebri - 27":{"address":"Bebri - 27","city":"Līči","zip":"LV-2118"},"bebri - 8":{"address":"Bebri - 8","city":"Līči","zip":"LV-2118"},"bebri - 46":{"address":"Bebri - 46","city":"Līči","zip":"LV-2118"},"bebri - 32":{"address":"Bebri - 32","city":"Līči","zip":"LV-2118"},"bebri - 25":{"address":"Bebri - 25","city":"Līči","zip":"LV-2118"},"bebrīšu iela 1 - 1":{"address":"Bebrīšu iela 1 - 1","city":"Inčukalns","zip":"LV-2141"},"bebrīšu iela 1 - 2":{"address":"Bebrīšu iela 1 - 2","city":"Inčukalns","zip":"LV-2141"},"bebrīšu iela 1 - 3":{"address":"Bebrīšu iela 1 - 3","city":"Inčukalns","zip":"LV-2141"},"bebrīšu iela 1 - 4":{"address":"Bebrīšu iela 1 - 4","city":"Inčukalns","zip":"LV-2141"},"bebrīšu iela 1 - 5":{"address":"Bebrīšu iela 1 - 5","city":"Inčukalns","zip":"LV-2141"},"bebrīšu iela 1 - 6":{"address":"Bebrīšu iela 1 - 6","city":"Inčukalns","zip":"LV-2141"},"bebri - 1":{"address":"Bebri - 1","city":"Cīruļi","zip":"LV-5228"},"bebri - 1a":{"address":"Bebri - 1A","city":"Bebrene","zip":"LV-5439"},"bebri - 1b":{"address":"Bebri - 1B","city":"Bebrene","zip":"LV-5439"},"bebrīši":{"address":"Bebrīši","city":"Oļģina","zip":"LV-4566"}}