{"beverīnas - 1":{"address":"Beverīnas - 1","city":"Vijciems","zip":"LV-4733"},"beverīnas - 2":{"address":"Beverīnas - 2","city":"Vijciems","zip":"LV-4733"},"beverīnas - 3":{"address":"Beverīnas - 3","city":"Straupe","zip":"LV-4152"},"beverīnas - 4":{"address":"Beverīnas - 4","city":"Straupe","zip":"LV-4152"},"beverīnas - 5":{"address":"Beverīnas - 5","city":"Straupe","zip":"LV-4152"},"beverīnas - 6":{"address":"Beverīnas - 6","city":"Straupe","zip":"LV-4152"},"beverīnas - 7":{"address":"Beverīnas - 7","city":"Straupe","zip":"LV-4152"},"beverīnas - 8":{"address":"Beverīnas - 8","city":"Straupe","zip":"LV-4152"},"beveriņas - 1":{"address":"Beveriņas - 1","city":"Kalni","zip":"LV-5473"},"beveriņas - 2":{"address":"Beveriņas - 2","city":"Kalni","zip":"LV-5473"},"beverīnas iela 2 - 1":{"address":"Beverīnas iela 2 - 1","city":"Tīnūži","zip":"LV-5015"},"beverīnas iela 2 - 2":{"address":"Beverīnas iela 2 - 2","city":"Tīnūži","zip":"LV-5015"},"beverīnas iela 4 - 1":{"address":"Beverīnas iela 4 - 1","city":"Tīnūži","zip":"LV-5015"},"beverīnas iela 4 - 2":{"address":"Beverīnas iela 4 - 2","city":"Tīnūži","zip":"LV-5015"},"beverīnas 2 - 1":{"address":"Beverīnas 2 - 1","city":"Trikāta","zip":"LV-4731"},"beverīnas 2 - 2":{"address":"Beverīnas 2 - 2","city":"Trikāta","zip":"LV-4731"},"beverīnas 2 - 3":{"address":"Beverīnas 2 - 3","city":"Trikāta","zip":"LV-4731"},"beverīnas 2 - 4":{"address":"Beverīnas 2 - 4","city":"Trikāta","zip":"LV-4731"},"beverīnas 1 - 1":{"address":"Beverīnas 1 - 1","city":"Trikāta","zip":"LV-4731"},"beverīnas 1 - 2":{"address":"Beverīnas 1 - 2","city":"Trikāta","zip":"LV-4731"},"beverīnas 1 - 3":{"address":"Beverīnas 1 - 3","city":"Trikāta","zip":"LV-4731"},"beverīnas 1 - 4":{"address":"Beverīnas 1 - 4","city":"Trikāta","zip":"LV-4731"},"beverīnas 3 - 1":{"address":"Beverīnas 3 - 1","city":"Trikāta","zip":"LV-4731"},"beverīnas 3 - 2":{"address":"Beverīnas 3 - 2","city":"Trikāta","zip":"LV-4731"},"beverīnas 3 - 3":{"address":"Beverīnas 3 - 3","city":"Trikāta","zip":"LV-4731"},"beverīnas 3 - 4":{"address":"Beverīnas 3 - 4","city":"Trikāta","zip":"LV-4731"}}