{"bezdelīgu ligzdas - 1":{"address":"Bezdelīgu Ligzdas - 1","city":"Jakubki","zip":"LV-5692"},"bezdelīgu ligzdas - 2":{"address":"Bezdelīgu Ligzdas - 2","city":"Jakubki","zip":"LV-5692"},"bezdelīgu iela 2":{"address":"Bezdelīgu iela 2","city":"Blonti","zip":"LV-5706"},"bezdelīgu ligzda":{"address":"Bezdelīgu Ligzda","city":"Medemciems","zip":"LV-2127"},"bezdelīgu iela 1":{"address":"Bezdelīgu iela 1","city":"Vārzas","zip":"LV-4025"},"bezdelīgu iela 3":{"address":"Bezdelīgu iela 3","city":"Skulte","zip":"LV-4025"},"bezdelīgu iela 4":{"address":"Bezdelīgu iela 4","city":"Skulte","zip":"LV-4025"},"bezdelīgu iela 5":{"address":"Bezdelīgu iela 5","city":"Skulte","zip":"LV-4025"},"bezdelīgu iela 6":{"address":"Bezdelīgu iela 6","city":"Vārzas","zip":"LV-4025"},"bezdelīgu iela 7":{"address":"Bezdelīgu iela 7","city":"Vārzas","zip":"LV-4025"},"bezdelīgu iela 11":{"address":"Bezdelīgu iela 11","city":"Vārzas","zip":"LV-4025"},"bezdelīgu iela 2b":{"address":"Bezdelīgu iela 2B","city":"Vārzas","zip":"LV-4025"},"bezdelīgu iela 2c":{"address":"Bezdelīgu iela 2C","city":"Vārzas","zip":"LV-4025"},"bezdelīgu iela 2d":{"address":"Bezdelīgu iela 2D","city":"Vārzas","zip":"LV-4025"},"bezdelīgu iela 9":{"address":"Bezdelīgu iela 9","city":"Vārzas","zip":"LV-4025"},"bezdelīgu iela 2e":{"address":"Bezdelīgu iela 2E","city":"Vārzas","zip":"LV-4025"},"bezdelīgu iela 8":{"address":"Bezdelīgu iela 8","city":"Vārzas","zip":"LV-4025"},"bezdelīgu iela 2a":{"address":"Bezdelīgu iela 2A","city":"Vārzas","zip":"LV-4025"}}