{"vecā bibliotēka - 1":{"address":"Vecā bibliotēka - 1","city":"Vabole","zip":"LV-5477"},"vecā bibliotēka - 2":{"address":"Vecā bibliotēka - 2","city":"Vabole","zip":"LV-5477"},"krotes bibliotēka":{"address":"Krotes bibliotēka","city":"Krote","zip":"LV-3444"},"smelteru bibliotēka":{"address":"Smelteru bibliotēka","city":"Smelteri","zip":"LV-5326"},"druvas bibliotēka":{"address":"Druvas Bibliotēka","city":"Mežancāni","zip":"LV-5327"},"pieniņu bibliotēka":{"address":"Pieniņu bibliotēka","city":"Pieniņi","zip":"LV-5326"},"kotļarovas bibliotēka":{"address":"Kotļarovas bibliotēka","city":"Rozalina","zip":"LV-5330"},"vecā bibliotēka":{"address":"Vecā bibliotēka","city":"Vabole","zip":"LV-5477"},"arendoles bibliotēka":{"address":"Arendoles bibliotēka","city":"Arendole","zip":"LV-5325"},"bibliotēka":{"address":"Bibliotēka","city":"Krape","zip":"LV-5012"},"bērzciema bibliotēka":{"address":"Bērzciema bibliotēka","city":"Bērzciems","zip":"LV-3113"},"dvietes pagasta bibliotēka":{"address":"Dvietes pagasta bibliotēka","city":"Dviete","zip":"LV-5441"},"nesteru bibliotēka":{"address":"Nesteru bibliotēka","city":"Nesteri","zip":"LV-5717"},"sieksātes bibliotēka":{"address":"Sieksātes bibliotēka","city":"Sieksāte","zip":"LV-3325"},"gailīšu bibliotēka":{"address":"Gailīšu bibliotēka","city":"Gaiļmuiža","zip":"LV-5329"},"apšuciema bibliotēka":{"address":"Apšuciema bibliotēka","city":"Apšuciems","zip":"LV-3113"},"bibliotēka 2":{"address":"Bibliotēka 2","city":"Vaski","zip":"LV-3137"},"beibēžu bibliotēka":{"address":"Beibēžu Bibliotēka","city":"Beibeži","zip":"LV-3933"},"cēres bibliotēka":{"address":"Cēres bibliotēka","city":"Cēre","zip":"LV-3122"},"misas bibliotēka":{"address":"Misas Bibliotēka","city":"Misa","zip":"LV-3906"},"bozovas bibliotēka":{"address":"Bozovas bibliotēka","city":"Bozova","zip":"LV-5717"},"ezerkalna bibliotēka":{"address":"Ezerkalna bibliotēka","city":"Ezerkalns","zip":"LV-5601"},"puzes bibliotēka":{"address":"Puzes bibliotēka","city":"Blāzma","zip":"LV-3613"},"bārtas bibliotēka":{"address":"Bārtas bibliotēka","city":"Bārta","zip":"LV-3482"},"rāvas bibliotēka":{"address":"Rāvas bibliotēka","city":"Rāva","zip":"LV-3452"},"dižstendes bibliotēka":{"address":"Dižstendes bibliotēka","city":"Dižstende","zip":"LV-3258"}}