{"birztalas - 1":{"address":"Birztalas - 1","city":"Ādžūni","zip":"LV-3914"},"birztalas - 2":{"address":"Birztalas - 2","city":"Ādžūni","zip":"LV-3914"},"birztalas - 3":{"address":"Birztalas - 3","city":"Ādžūni","zip":"LV-3914"},"birztalas - 4":{"address":"Birztalas - 4","city":"Ādžūni","zip":"LV-3914"},"birztalas - 5":{"address":"Birztalas - 5","city":"Ādžūni","zip":"LV-3914"},"birztalas - 6":{"address":"Birztalas - 6","city":"Ādžūni","zip":"LV-3914"},"birztalas - 7":{"address":"Birztalas - 7","city":"Ādžūni","zip":"LV-3914"},"birztalas - 8":{"address":"Birztalas - 8","city":"Ādžūni","zip":"LV-3914"},"birztalas - 9":{"address":"Birztalas - 9","city":"Ādžūni","zip":"LV-3914"},"birztalas - 10":{"address":"Birztalas - 10","city":"Ādžūni","zip":"LV-3914"},"birztalas - 11":{"address":"Birztalas - 11","city":"Ādžūni","zip":"LV-3914"},"birztalas - 12":{"address":"Birztalas - 12","city":"Ādžūni","zip":"LV-3914"},"birztalas - 13":{"address":"Birztalas - 13","city":"Puikule","zip":"LV-4063"},"birztalas - 14":{"address":"Birztalas - 14","city":"Puikule","zip":"LV-4063"},"birztalas - 15":{"address":"Birztalas - 15","city":"Puikule","zip":"LV-4063"},"birztalas - 16":{"address":"Birztalas - 16","city":"Puikule","zip":"LV-4063"},"birztalas - 17":{"address":"Birztalas - 17","city":"Puikule","zip":"LV-4063"},"birztalas - 18":{"address":"Birztalas - 18","city":"Puikule","zip":"LV-4063"},"birztalas - 19":{"address":"Birztalas - 19","city":"Puikule","zip":"LV-4063"},"birztalas - 20":{"address":"Birztalas - 20","city":"Puikule","zip":"LV-4063"},"birztalas - 21":{"address":"Birztalas - 21","city":"Puikule","zip":"LV-4063"},"birztalas - 22":{"address":"Birztalas - 22","city":"Puikule","zip":"LV-4063"},"birztalas - 23":{"address":"Birztalas - 23","city":"Puikule","zip":"LV-4063"},"birztalas - 24":{"address":"Birztalas - 24","city":"Puikule","zip":"LV-4063"},"birztalas 10 - 1":{"address":"Birztalas 10 - 1","city":"Miltiņi","zip":"LV-3732"},"birztalas 10 - 2":{"address":"Birztalas 10 - 2","city":"Miltiņi","zip":"LV-3732"},"birztalas 10 - 3":{"address":"Birztalas 10 - 3","city":"Miltiņi","zip":"LV-3732"},"birztalas 10 - 4":{"address":"Birztalas 10 - 4","city":"Miltiņi","zip":"LV-3732"},"birztalas 12 - 1":{"address":"Birztalas 12 - 1","city":"Miltiņi","zip":"LV-3732"},"birztalas 12 - 2":{"address":"Birztalas 12 - 2","city":"Miltiņi","zip":"LV-3732"},"birztalas 12 - 3":{"address":"Birztalas 12 - 3","city":"Miltiņi","zip":"LV-3732"},"birztalas 12 - 4":{"address":"Birztalas 12 - 4","city":"Miltiņi","zip":"LV-3732"},"birztalas 13 - 1":{"address":"Birztalas 13 - 1","city":"Miltiņi","zip":"LV-3732"},"birztalas 13 - 2":{"address":"Birztalas 13 - 2","city":"Miltiņi","zip":"LV-3732"},"birztalas 13 - 3":{"address":"Birztalas 13 - 3","city":"Miltiņi","zip":"LV-3732"},"birztalas 13 - 4":{"address":"Birztalas 13 - 4","city":"Miltiņi","zip":"LV-3732"},"birztalas 13 - 5":{"address":"Birztalas 13 - 5","city":"Miltiņi","zip":"LV-3732"}}