{"birznieki - 1":{"address":"Birznieki - 1","city":"Leimaņi","zip":"LV-5223"},"birznieki - 2":{"address":"Birznieki - 2","city":"Leimaņi","zip":"LV-5223"},"ziedkalni - 1":{"address":"Ziedkalni - 1","city":"Birznieki","zip":"LV-2164"},"ziedkalni - 2":{"address":"Ziedkalni - 2","city":"Birznieki","zip":"LV-2164"},"saules - 1":{"address":"Saules - 1","city":"Birznieki","zip":"LV-2164"},"saules - 2":{"address":"Saules - 2","city":"Birznieki","zip":"LV-2164"},"birznieki 3 - 1":{"address":"Birznieki 3 - 1","city":"Jaunolaine","zip":"LV-2127"},"birznieki 3 - 2":{"address":"Birznieki 3 - 2","city":"Jaunolaine","zip":"LV-2127"},"birznieki 3 - 3":{"address":"Birznieki 3 - 3","city":"Jaunolaine","zip":"LV-2127"},"birznieki 3 - 4":{"address":"Birznieki 3 - 4","city":"Jaunolaine","zip":"LV-2127"},"birznieki 3 - 5":{"address":"Birznieki 3 - 5","city":"Jaunolaine","zip":"LV-2127"},"birznieki 3 - 6":{"address":"Birznieki 3 - 6","city":"Jaunolaine","zip":"LV-2127"},"birznieki 3 - 7":{"address":"Birznieki 3 - 7","city":"Jaunolaine","zip":"LV-2127"},"birznieki 3 - 8":{"address":"Birznieki 3 - 8","city":"Jaunolaine","zip":"LV-2127"},"birznieki 3 - 9":{"address":"Birznieki 3 - 9","city":"Jaunolaine","zip":"LV-2127"},"birznieki 3 - 10":{"address":"Birznieki 3 - 10","city":"Jaunolaine","zip":"LV-2127"},"birznieki 3 - 11":{"address":"Birznieki 3 - 11","city":"Jaunolaine","zip":"LV-2127"},"birznieki 3 - 12":{"address":"Birznieki 3 - 12","city":"Jaunolaine","zip":"LV-2127"},"birznieki 3 - 13":{"address":"Birznieki 3 - 13","city":"Jaunolaine","zip":"LV-2127"},"birznieki 3 - 14":{"address":"Birznieki 3 - 14","city":"Jaunolaine","zip":"LV-2127"},"birznieki 3 - 15":{"address":"Birznieki 3 - 15","city":"Jaunolaine","zip":"LV-2127"},"birznieki 3 - 16":{"address":"Birznieki 3 - 16","city":"Jaunolaine","zip":"LV-2127"},"birznieki 3 - 17":{"address":"Birznieki 3 - 17","city":"Jaunolaine","zip":"LV-2127"},"birznieki 3 - 18":{"address":"Birznieki 3 - 18","city":"Jaunolaine","zip":"LV-2127"},"birznieki 1 - 1":{"address":"Birznieki 1 - 1","city":"Jaunolaine","zip":"LV-2127"},"birznieki 1 - 2":{"address":"Birznieki 1 - 2","city":"Jaunolaine","zip":"LV-2127"},"birznieki 1 - 3":{"address":"Birznieki 1 - 3","city":"Jaunolaine","zip":"LV-2127"},"birznieki 1 - 4":{"address":"Birznieki 1 - 4","city":"Jaunolaine","zip":"LV-2127"},"birznieki 1 - 5":{"address":"Birznieki 1 - 5","city":"Jaunolaine","zip":"LV-2127"},"birznieki 1 - 6":{"address":"Birznieki 1 - 6","city":"Jaunolaine","zip":"LV-2127"},"birznieki 1 - 7":{"address":"Birznieki 1 - 7","city":"Jaunolaine","zip":"LV-2127"},"birznieki 1 - 8":{"address":"Birznieki 1 - 8","city":"Jaunolaine","zip":"LV-2127"},"birznieki 1 - 9":{"address":"Birznieki 1 - 9","city":"Jaunolaine","zip":"LV-2127"},"birznieki 1 - 10":{"address":"Birznieki 1 - 10","city":"Jaunolaine","zip":"LV-2127"},"birznieki 1 - 11":{"address":"Birznieki 1 - 11","city":"Jaunolaine","zip":"LV-2127"},"birznieki 1 - 12":{"address":"Birznieki 1 - 12","city":"Jaunolaine","zip":"LV-2127"},"birznieki 1 - 13":{"address":"Birznieki 1 - 13","city":"Jaunolaine","zip":"LV-2127"},"birznieki 1 - 14":{"address":"Birznieki 1 - 14","city":"Jaunolaine","zip":"LV-2127"},"birznieki 1 - 15":{"address":"Birznieki 1 - 15","city":"Jaunolaine","zip":"LV-2127"},"birznieki 1 - 16":{"address":"Birznieki 1 - 16","city":"Jaunolaine","zip":"LV-2127"},"birznieki 1 - 17":{"address":"Birznieki 1 - 17","city":"Jaunolaine","zip":"LV-2127"},"birznieki 1 - 18":{"address":"Birznieki 1 - 18","city":"Jaunolaine","zip":"LV-2127"},"birznieki 2 - 1":{"address":"Birznieki 2 - 1","city":"Jaunolaine","zip":"LV-2127"},"birznieki 2 - 2":{"address":"Birznieki 2 - 2","city":"Jaunolaine","zip":"LV-2127"},"birznieki 2 - 3":{"address":"Birznieki 2 - 3","city":"Jaunolaine","zip":"LV-2127"},"birznieki 2 - 4":{"address":"Birznieki 2 - 4","city":"Jaunolaine","zip":"LV-2127"},"birznieki 2 - 5":{"address":"Birznieki 2 - 5","city":"Jaunolaine","zip":"LV-2127"},"birznieki 2 - 6":{"address":"Birznieki 2 - 6","city":"Jaunolaine","zip":"LV-2127"},"birznieki 2 - 7":{"address":"Birznieki 2 - 7","city":"Jaunolaine","zip":"LV-2127"},"birznieki 2 - 8":{"address":"Birznieki 2 - 8","city":"Jaunolaine","zip":"LV-2127"},"birznieki 2 - 9":{"address":"Birznieki 2 - 9","city":"Jaunolaine","zip":"LV-2127"},"birznieki 2 - 10":{"address":"Birznieki 2 - 10","city":"Jaunolaine","zip":"LV-2127"},"birznieki 2 - 11":{"address":"Birznieki 2 - 11","city":"Jaunolaine","zip":"LV-2127"},"birznieki 2 - 12":{"address":"Birznieki 2 - 12","city":"Jaunolaine","zip":"LV-2127"},"birznieki 2 - 13":{"address":"Birznieki 2 - 13","city":"Jaunolaine","zip":"LV-2127"},"birznieki 2 - 14":{"address":"Birznieki 2 - 14","city":"Jaunolaine","zip":"LV-2127"},"birznieki 2 - 15":{"address":"Birznieki 2 - 15","city":"Jaunolaine","zip":"LV-2127"},"birznieki 2 - 16":{"address":"Birznieki 2 - 16","city":"Jaunolaine","zip":"LV-2127"},"birznieki 2 - 17":{"address":"Birznieki 2 - 17","city":"Jaunolaine","zip":"LV-2127"},"birznieki 2 - 18":{"address":"Birznieki 2 - 18","city":"Jaunolaine","zip":"LV-2127"},"birznieki - 3":{"address":"Birznieki - 3","city":"Leimaņi","zip":"LV-5223"},"birznieki - 4":{"address":"Birznieki - 4","city":"Leimaņi","zip":"LV-5223"},"birznieki - 5":{"address":"Birznieki - 5","city":"Leimaņi","zip":"LV-5223"},"birznieki - 6":{"address":"Birznieki - 6","city":"Leimaņi","zip":"LV-5223"},"birznieki - 7":{"address":"Birznieki - 7","city":"Leimaņi","zip":"LV-5223"},"birznieki - 8":{"address":"Birznieki - 8","city":"Leimaņi","zip":"LV-5223"},"birznieki":{"address":"Birznieki","city":"Nikolajeva","zip":"LV-4566"},"jaunbirznieki":{"address":"Jaunbirznieki","city":"Birznieki","zip":"LV-4583"},"jaunkalniņi":{"address":"Jaunkalniņi","city":"Birznieki","zip":"LV-4583"},"kalni":{"address":"Kalni","city":"Birznieki","zip":"LV-4583"},"ošupe":{"address":"Ošupe","city":"Birznieki","zip":"LV-4583"},"zobupļava":{"address":"Zobupļava","city":"Birznieki","zip":"LV-4583"}}