{"bitītes - 1":{"address":"Bitītes - 1","city":"Aizeļkšņi","zip":"LV-5740"},"bitītes - 2":{"address":"Bitītes - 2","city":"Aizeļkšņi","zip":"LV-5740"},"bitītes - 3":{"address":"Bitītes - 3","city":"Aizeļkšņi","zip":"LV-5740"},"bitītes - 4":{"address":"Bitītes - 4","city":"Aizeļkšņi","zip":"LV-5740"},"bitītes - 5":{"address":"Bitītes - 5","city":"Vandzene","zip":"LV-3281"},"bitītes - 6":{"address":"Bitītes - 6","city":"Vandzene","zip":"LV-3281"},"bitītes - 7":{"address":"Bitītes - 7","city":"Vandzene","zip":"LV-3281"},"bitītes - 8":{"address":"Bitītes - 8","city":"Vandzene","zip":"LV-3281"},"bitītes":{"address":"Bitītes","city":"Ķekava","zip":"LV-2123"},"bitīte":{"address":"Bitīte","city":"Laidi","zip":"LV-3317"},"bitīte-2 54":{"address":"Bitīte-2 54","city":"Galiņi","zip":"LV-2127"},"bitīte-2 73":{"address":"Bitīte-2 73","city":"Galiņi","zip":"LV-2127"},"bitīte-2 77":{"address":"Bitīte-2 77","city":"Galiņi","zip":"LV-2127"},"bitīte-2 51":{"address":"Bitīte-2 51","city":"Galiņi","zip":"LV-2127"},"bitīte-2 9":{"address":"Bitīte-2 9","city":"Galiņi","zip":"LV-2127"},"bitīte-2 41":{"address":"Bitīte-2 41","city":"Galiņi","zip":"LV-2127"},"bitīte-2 58":{"address":"Bitīte-2 58","city":"Galiņi","zip":"LV-2127"},"bitīte-2 74":{"address":"Bitīte-2 74","city":"Galiņi","zip":"LV-2127"},"bitīte-2 29":{"address":"Bitīte-2 29","city":"Galiņi","zip":"LV-2127"},"bitīte-2 28":{"address":"Bitīte-2 28","city":"Galiņi","zip":"LV-2127"},"bitīte-2 23":{"address":"Bitīte-2 23","city":"Galiņi","zip":"LV-2127"},"bitīte-2 67":{"address":"Bitīte-2 67","city":"Galiņi","zip":"LV-2127"},"bitīte-2 69":{"address":"Bitīte-2 69","city":"Galiņi","zip":"LV-2127"},"bitīte-2 45":{"address":"Bitīte-2 45","city":"Galiņi","zip":"LV-2127"},"bitīte-2 89":{"address":"Bitīte-2 89","city":"Galiņi","zip":"LV-2127"},"bitīte-2 93":{"address":"Bitīte-2 93","city":"Galiņi","zip":"LV-2127"},"bitīte-2 71":{"address":"Bitīte-2 71","city":"Galiņi","zip":"LV-2127"},"bitīte-2 6":{"address":"Bitīte-2 6","city":"Galiņi","zip":"LV-2127"},"bitīte-2 87":{"address":"Bitīte-2 87","city":"Galiņi","zip":"LV-2127"},"bitīte-2 16":{"address":"Bitīte-2 16","city":"Galiņi","zip":"LV-2127"},"bitīte-2 7":{"address":"Bitīte-2 7","city":"Galiņi","zip":"LV-2127"},"bitīte-2 91":{"address":"Bitīte-2 91","city":"Galiņi","zip":"LV-2127"},"bitīte-2 68":{"address":"Bitīte-2 68","city":"Galiņi","zip":"LV-2127"},"bitīte-2 34":{"address":"Bitīte-2 34","city":"Galiņi","zip":"LV-2127"},"bitīte-2 30":{"address":"Bitīte-2 30","city":"Galiņi","zip":"LV-2127"},"bitīte-2 50":{"address":"Bitīte-2 50","city":"Galiņi","zip":"LV-2127"},"bitīte-2 17":{"address":"Bitīte-2 17","city":"Galiņi","zip":"LV-2127"},"bitīte-2 20":{"address":"Bitīte-2 20","city":"Galiņi","zip":"LV-2127"},"bitīte-2 26":{"address":"Bitīte-2 26","city":"Galiņi","zip":"LV-2127"},"bitīte-2 46":{"address":"Bitīte-2 46","city":"Galiņi","zip":"LV-2127"},"bitīte-2 70":{"address":"Bitīte-2 70","city":"Galiņi","zip":"LV-2127"},"bitīte-2 21":{"address":"Bitīte-2 21","city":"Galiņi","zip":"LV-2127"},"bitīte-2 48":{"address":"Bitīte-2 48","city":"Galiņi","zip":"LV-2127"},"bitīte-2 72":{"address":"Bitīte-2 72","city":"Galiņi","zip":"LV-2127"},"bitīte-2 43/44":{"address":"Bitīte-2 43/44","city":"Galiņi","zip":"LV-2127"},"bitīte-2 5":{"address":"Bitīte-2 5","city":"Galiņi","zip":"LV-2127"},"bitīte-2 22":{"address":"Bitīte-2 22","city":"Galiņi","zip":"LV-2127"},"bitīte-2 75":{"address":"Bitīte-2 75","city":"Galiņi","zip":"LV-2127"},"bitīte-2 40":{"address":"Bitīte-2 40","city":"Galiņi","zip":"LV-2127"},"bitīte-2 59/60":{"address":"Bitīte-2 59/60","city":"Galiņi","zip":"LV-2127"},"bitīte-2 52":{"address":"Bitīte-2 52","city":"Galiņi","zip":"LV-2127"},"bitīte-2 88":{"address":"Bitīte-2 88","city":"Galiņi","zip":"LV-2127"},"bitīte-2 57":{"address":"Bitīte-2 57","city":"Galiņi","zip":"LV-2127"},"bitīte-2 24":{"address":"Bitīte-2 24","city":"Galiņi","zip":"LV-2127"},"bitīte-2 86":{"address":"Bitīte-2 86","city":"Galiņi","zip":"LV-2127"}}