{"papardes - 1":{"address":"Papardes - 1","city":"Bolūži","zip":"LV-5656"},"papardes - 2":{"address":"Papardes - 2","city":"Bolūži","zip":"LV-5656"},"papardes - 3":{"address":"Papardes - 3","city":"Bolūži","zip":"LV-5656"},"papardes - 4":{"address":"Papardes - 4","city":"Bolūži","zip":"LV-5656"},"papardes - 5":{"address":"Papardes - 5","city":"Bolūži","zip":"LV-5656"},"papardes - 6":{"address":"Papardes - 6","city":"Bolūži","zip":"LV-5656"},"papardes - 7":{"address":"Papardes - 7","city":"Bolūži","zip":"LV-5656"},"papardes - 8":{"address":"Papardes - 8","city":"Bolūži","zip":"LV-5656"},"bolūdeiši":{"address":"Bolūdeiši","city":"Bolūži","zip":"LV-5656"},"veras":{"address":"Veras","city":"Bolūži","zip":"LV-5656"},"papardes":{"address":"Papardes","city":"Bolūži","zip":"LV-5656"},"bolūži":{"address":"Bolūži","city":"Kūkoji","zip":"LV-4650"},"baloži":{"address":"Baloži","city":"Bolūži","zip":"LV-5656"},"dīķīši":{"address":"Dīķīši","city":"Bolūži","zip":"LV-5656"},"ērgļi":{"address":"Ērgļi","city":"Bolūži","zip":"LV-5656"},"saliņas":{"address":"Saliņas","city":"Bolūži","zip":"LV-5656"},"boluži":{"address":"Boluži","city":"Krīviņi","zip":"LV-5601"}}