{"mazie bramaņi - 1":{"address":"Mazie Bramaņi - 1","city":"Bramaņi","zip":"LV-5320"},"mazie bramaņi - 2":{"address":"Mazie Bramaņi - 2","city":"Bramaņi","zip":"LV-5320"},"bramaņi":{"address":"Bramaņi","city":"Bekuciems","zip":"LV-5020"},"krastusalas":{"address":"Krastusalas","city":"Bramaņi","zip":"LV-5320"},"vārpas":{"address":"Vārpas","city":"Bramaņiški","zip":"LV-5440"},"lielie bramaņi":{"address":"Lielie Bramaņi","city":"Bramaņi","zip":"LV-5320"},"bramaņi 2":{"address":"Bramaņi 2","city":"Babīte","zip":"LV-2101"},"kaļinovka":{"address":"Kaļinovka","city":"Bramaņiški","zip":"LV-5440"},"avenāji":{"address":"Avenāji","city":"Bramaņiški","zip":"LV-5440"},"bērzmale":{"address":"Bērzmale","city":"Bramaņiški","zip":"LV-5440"},"liepkalni":{"address":"Liepkalni","city":"Bramaņiški","zip":"LV-5440"},"andrejevskis":{"address":"Andrejevskis","city":"Bramaņiški","zip":"LV-5440"},"bramaņiški":{"address":"Bramaņiški","city":"Bramaņiški","zip":"LV-5440"},"jaunnovadi":{"address":"Jaunnovadi","city":"Bramaņi","zip":"LV-5320"},"kalnavoti":{"address":"Kalnavoti","city":"Bramaņi","zip":"LV-5320"},"kalpaki":{"address":"Kalpaki","city":"Bramaņi","zip":"LV-5320"},"krācaines":{"address":"Krācaines","city":"Bramaņi","zip":"LV-5320"},"lejas":{"address":"Lejas","city":"Bramaņi","zip":"LV-5320"},"mazie bramaņi":{"address":"Mazie Bramaņi","city":"Bramaņi","zip":"LV-5320"},"natraiņi":{"address":"Natraiņi","city":"Bramaņi","zip":"LV-5320"},"purinieši":{"address":"Purinieši","city":"Bramaņi","zip":"LV-5320"},"purviņi":{"address":"Purviņi","city":"Bramaņi","zip":"LV-5320"},"rozes":{"address":"Rozes","city":"Bramaņi","zip":"LV-5320"},"vidsēti":{"address":"Vidsēti","city":"Bramaņi","zip":"LV-5320"},"zvirbuļi":{"address":"Zvirbuļi","city":"Bramaņi","zip":"LV-5320"}}