{"saules iela 12 - 1":{"address":"Saules iela 12 - 1","city":"Tadaiķi","zip":"LV-3446"},"saules iela 12 - 2":{"address":"Saules iela 12 - 2","city":"Tadaiķi","zip":"LV-3446"},"saules iela 12 - 3":{"address":"Saules iela 12 - 3","city":"Tadaiķi","zip":"LV-3446"},"saules iela 12 - 4":{"address":"Saules iela 12 - 4","city":"Tadaiķi","zip":"LV-3446"},"saules iela 12 - 5":{"address":"Saules iela 12 - 5","city":"Tadaiķi","zip":"LV-3446"},"saules iela 12 - 6":{"address":"Saules iela 12 - 6","city":"Tadaiķi","zip":"LV-3446"},"saules iela 12 - 7":{"address":"Saules iela 12 - 7","city":"Tadaiķi","zip":"LV-3446"},"saules iela 12 - 8":{"address":"Saules iela 12 - 8","city":"Tadaiķi","zip":"LV-3446"},"saules iela 12 - 9":{"address":"Saules iela 12 - 9","city":"Tadaiķi","zip":"LV-3446"},"saules iela 12 - 10":{"address":"Saules iela 12 - 10","city":"Tadaiķi","zip":"LV-3446"},"saules iela 12 - 11":{"address":"Saules iela 12 - 11","city":"Tadaiķi","zip":"LV-3446"},"saules iela 12 - 12":{"address":"Saules iela 12 - 12","city":"Tadaiķi","zip":"LV-3446"},"dzirnavas 3 - 1":{"address":"Dzirnavas 3 - 1","city":"Bunka","zip":"LV-3446"},"dzirnavas 3 - 2":{"address":"Dzirnavas 3 - 2","city":"Bunka","zip":"LV-3446"},"saules iela 1 - 1":{"address":"Saules iela 1 - 1","city":"Tadaiķi","zip":"LV-3446"},"saules iela 1 - 2":{"address":"Saules iela 1 - 2","city":"Tadaiķi","zip":"LV-3446"},"saules iela 1 - 3":{"address":"Saules iela 1 - 3","city":"Tadaiķi","zip":"LV-3446"},"saules iela 1 - 4":{"address":"Saules iela 1 - 4","city":"Tadaiķi","zip":"LV-3446"},"saules iela 2 - 1":{"address":"Saules iela 2 - 1","city":"Tadaiķi","zip":"LV-3446"},"saules iela 2 - 2":{"address":"Saules iela 2 - 2","city":"Tadaiķi","zip":"LV-3446"},"dzirnavas - 1":{"address":"Dzirnavas - 1","city":"Krote","zip":"LV-3444"},"dzirnavas - 2":{"address":"Dzirnavas - 2","city":"Krote","zip":"LV-3444"},"dzirnavas - 3":{"address":"Dzirnavas - 3","city":"Krote","zip":"LV-3444"},"dzirnavas - 4":{"address":"Dzirnavas - 4","city":"Krote","zip":"LV-3444"},"dzirnavas - 5":{"address":"Dzirnavas - 5","city":"Krote","zip":"LV-3444"},"dzirnavas - 6":{"address":"Dzirnavas - 6","city":"Krote","zip":"LV-3444"},"dzirnavas - 7":{"address":"Dzirnavas - 7","city":"Krote","zip":"LV-3444"},"dzirnavas - 8":{"address":"Dzirnavas - 8","city":"Krote","zip":"LV-3444"},"dzirnavas - 9":{"address":"Dzirnavas - 9","city":"Krote","zip":"LV-3444"},"dzirnavas - 10":{"address":"Dzirnavas - 10","city":"Krote","zip":"LV-3444"},"dzirnavas - 2a":{"address":"Dzirnavas - 2A","city":"Krote","zip":"LV-3444"},"dzirnavas - 4a":{"address":"Dzirnavas - 4A","city":"Krote","zip":"LV-3444"},"dzirnavas - 5a":{"address":"Dzirnavas - 5A","city":"Krote","zip":"LV-3444"},"liepas - 1":{"address":"Liepas - 1","city":"Krote","zip":"LV-3444"},"liepas - 2":{"address":"Liepas - 2","city":"Krote","zip":"LV-3444"},"liepas - 3":{"address":"Liepas - 3","city":"Krote","zip":"LV-3444"},"liepas - 4":{"address":"Liepas - 4","city":"Krote","zip":"LV-3444"},"liepas - 5":{"address":"Liepas - 5","city":"Krote","zip":"LV-3444"},"liepas - 6":{"address":"Liepas - 6","city":"Krote","zip":"LV-3444"},"liepas - 7":{"address":"Liepas - 7","city":"Krote","zip":"LV-3444"},"liepas - 8":{"address":"Liepas - 8","city":"Krote","zip":"LV-3444"},"liepas - 9":{"address":"Liepas - 9","city":"Krote","zip":"LV-3444"},"liepas - 10":{"address":"Liepas - 10","city":"Krote","zip":"LV-3444"},"liepas - 11":{"address":"Liepas - 11","city":"Krote","zip":"LV-3444"},"liepas - 12":{"address":"Liepas - 12","city":"Krote","zip":"LV-3444"},"kurši - 1":{"address":"Kurši - 1","city":"Krote","zip":"LV-3444"},"kurši - 2":{"address":"Kurši - 2","city":"Krote","zip":"LV-3444"},"kurši - 3":{"address":"Kurši - 3","city":"Krote","zip":"LV-3444"},"kurši - 4":{"address":"Kurši - 4","city":"Krote","zip":"LV-3444"},"kurši - 5":{"address":"Kurši - 5","city":"Krote","zip":"LV-3444"},"kurši - 6":{"address":"Kurši - 6","city":"Krote","zip":"LV-3444"},"kurši - 7":{"address":"Kurši - 7","city":"Krote","zip":"LV-3444"},"kurši - 8":{"address":"Kurši - 8","city":"Krote","zip":"LV-3444"},"melderi - 1":{"address":"Melderi - 1","city":"Krote","zip":"LV-3444"},"melderi - 2":{"address":"Melderi - 2","city":"Krote","zip":"LV-3444"},"melderi - 3":{"address":"Melderi - 3","city":"Krote","zip":"LV-3444"},"melderi - 4":{"address":"Melderi - 4","city":"Krote","zip":"LV-3444"},"melderi - 5":{"address":"Melderi - 5","city":"Krote","zip":"LV-3444"},"melderi - 6":{"address":"Melderi - 6","city":"Krote","zip":"LV-3444"},"melderi - 7":{"address":"Melderi - 7","city":"Krote","zip":"LV-3444"}}