{"ezerieši":{"address":"Ezerieši","city":"Lejas Butkāni","zip":"LV-5685"},"purvmalas":{"address":"Purvmalas","city":"Kalna Butkāni","zip":"LV-5685"},"kumeliņi":{"address":"Kumeliņi","city":"Lejas Butkāni","zip":"LV-5685"},"vālodzes":{"address":"Vālodzes","city":"Lejas Butkāni","zip":"LV-5685"},"veikals":{"address":"Veikals","city":"Kalna Butkāni","zip":"LV-5685"},"caunas":{"address":"Caunas","city":"Lejas Butkāni","zip":"LV-5685"},"ezerlīči":{"address":"Ezerlīči","city":"Lejas Butkāni","zip":"LV-5685"},"pīlāri":{"address":"Pīlāri","city":"Kalna Butkāni","zip":"LV-5685"},"butkāni":{"address":"Butkāni","city":"Kalna Butkāni","zip":"LV-5685"},"augstkalni":{"address":"Augstkalni","city":"Kalna Butkāni","zip":"LV-5685"},"būdiņi":{"address":"Būdiņi","city":"Kalna Butkāni","zip":"LV-5685"},"eglāji":{"address":"Eglāji","city":"Kalna Butkāni","zip":"LV-5685"},"ilgmalas":{"address":"Ilgmalas","city":"Kalna Butkāni","zip":"LV-5685"},"kalni":{"address":"Kalni","city":"Kalna Butkāni","zip":"LV-5685"},"lejnieki":{"address":"Lejnieki","city":"Kalna Butkāni","zip":"LV-5685"},"pavasari":{"address":"Pavasari","city":"Kalna Butkāni","zip":"LV-5685"},"pēļi":{"address":"Pēļi","city":"Kalna Butkāni","zip":"LV-5685"},"sniegi":{"address":"Sniegi","city":"Kalna Butkāni","zip":"LV-5685"},"tīreļi":{"address":"Tīreļi","city":"Kalna Butkāni","zip":"LV-5685"},"zirdziņi":{"address":"Zirdziņi","city":"Kalna Butkāni","zip":"LV-5685"},"bērzi":{"address":"Bērzi","city":"Lejas Butkāni","zip":"LV-5685"},"ezerkalni":{"address":"Ezerkalni","city":"Lejas Butkāni","zip":"LV-5685"},"lapsiņi":{"address":"Lapsiņi","city":"Lejas Butkāni","zip":"LV-5685"},"raudiņas":{"address":"Raudiņas","city":"Lejas Butkāni","zip":"LV-5685"}}