{"liepas 1 - 1":{"address":"Liepas 1 - 1","city":"Bārta","zip":"LV-3482"},"liepas 1 - 2":{"address":"Liepas 1 - 2","city":"Bārta","zip":"LV-3482"},"pienupes - 1":{"address":"Pienupes - 1","city":"Bārta","zip":"LV-3482"},"pienupes - 2":{"address":"Pienupes - 2","city":"Bārta","zip":"LV-3482"},"pasta ēka - 1":{"address":"Pasta ēka - 1","city":"Bārta","zip":"LV-3482"},"pasta ēka - 2":{"address":"Pasta ēka - 2","city":"Bārta","zip":"LV-3482"},"pasta ēka - 3":{"address":"Pasta ēka - 3","city":"Bārta","zip":"LV-3482"},"pasta ēka - 4":{"address":"Pasta ēka - 4","city":"Bārta","zip":"LV-3482"},"cīrulīši - 2":{"address":"Cīrulīši - 2","city":"Bārta","zip":"LV-3482"},"cīrulīši - 1":{"address":"Cīrulīši - 1","city":"Bārta","zip":"LV-3482"},"lejnieki - 1":{"address":"Lejnieki - 1","city":"Bārta","zip":"LV-3482"},"lejnieki - 2":{"address":"Lejnieki - 2","city":"Bārta","zip":"LV-3482"},"rūpnieki - 1":{"address":"Rūpnieki - 1","city":"Bārta","zip":"LV-3482"},"rūpnieki - 2":{"address":"Rūpnieki - 2","city":"Bārta","zip":"LV-3482"},"vēji - 1":{"address":"Vēji - 1","city":"Bārta","zip":"LV-3482"},"vēji - 2":{"address":"Vēji - 2","city":"Bārta","zip":"LV-3482"},"vēji - 3":{"address":"Vēji - 3","city":"Bārta","zip":"LV-3482"},"vēji - 4":{"address":"Vēji - 4","city":"Bārta","zip":"LV-3482"},"vetiecirknis - 1":{"address":"Vetiecirknis - 1","city":"Bārta","zip":"LV-3482"},"vetiecirknis - 2":{"address":"Vetiecirknis - 2","city":"Bārta","zip":"LV-3482"},"viesuļi - 1":{"address":"Viesuļi - 1","city":"Bārta","zip":"LV-3482"},"viesuļi - 2":{"address":"Viesuļi - 2","city":"Bārta","zip":"LV-3482"},"viesuļi - 3":{"address":"Viesuļi - 3","city":"Bārta","zip":"LV-3482"},"viesuļi - 4":{"address":"Viesuļi - 4","city":"Bārta","zip":"LV-3482"},"viesuļi - 5":{"address":"Viesuļi - 5","city":"Bārta","zip":"LV-3482"},"viesuļi - 6":{"address":"Viesuļi - 6","city":"Bārta","zip":"LV-3482"},"viesuļi - 7":{"address":"Viesuļi - 7","city":"Bārta","zip":"LV-3482"},"viesuļi - 8":{"address":"Viesuļi - 8","city":"Bārta","zip":"LV-3482"},"viesuļi - 9":{"address":"Viesuļi - 9","city":"Bārta","zip":"LV-3482"},"viesuļi - 10":{"address":"Viesuļi - 10","city":"Bārta","zip":"LV-3482"},"viesuļi - 11":{"address":"Viesuļi - 11","city":"Bārta","zip":"LV-3482"},"viesuļi - 12":{"address":"Viesuļi - 12","city":"Bārta","zip":"LV-3482"},"viesuļi - 13":{"address":"Viesuļi - 13","city":"Bārta","zip":"LV-3482"},"viesuļi - 14":{"address":"Viesuļi - 14","city":"Bārta","zip":"LV-3482"},"viesuļi - 15":{"address":"Viesuļi - 15","city":"Bārta","zip":"LV-3482"},"viesuļi - 16":{"address":"Viesuļi - 16","city":"Bārta","zip":"LV-3482"},"viesuļi - 17":{"address":"Viesuļi - 17","city":"Bārta","zip":"LV-3482"},"viesuļi - 18":{"address":"Viesuļi - 18","city":"Bārta","zip":"LV-3482"},"vētras - 1":{"address":"Vētras - 1","city":"Bārta","zip":"LV-3482"},"vētras - 2":{"address":"Vētras - 2","city":"Bārta","zip":"LV-3482"},"vētras - 3":{"address":"Vētras - 3","city":"Bārta","zip":"LV-3482"},"vētras - 4":{"address":"Vētras - 4","city":"Bārta","zip":"LV-3482"},"vētras - 5":{"address":"Vētras - 5","city":"Bārta","zip":"LV-3482"},"vētras - 6":{"address":"Vētras - 6","city":"Bārta","zip":"LV-3482"},"vētras - 7":{"address":"Vētras - 7","city":"Bārta","zip":"LV-3482"},"vētras - 8":{"address":"Vētras - 8","city":"Bārta","zip":"LV-3482"},"vētras - 9":{"address":"Vētras - 9","city":"Bārta","zip":"LV-3482"},"vētras - 10":{"address":"Vētras - 10","city":"Bārta","zip":"LV-3482"},"vētras - 11":{"address":"Vētras - 11","city":"Bārta","zip":"LV-3482"},"vētras - 12":{"address":"Vētras - 12","city":"Bārta","zip":"LV-3482"},"žubītes - 1":{"address":"Žubītes - 1","city":"Bārta","zip":"LV-3482"},"žubītes - 2":{"address":"Žubītes - 2","city":"Bārta","zip":"LV-3482"},"blāzmas - 1":{"address":"Blāzmas - 1","city":"Bārta","zip":"LV-3482"}}