{"grāveri - 1":{"address":"Grāveri - 1","city":"Bēne","zip":"LV-3711"},"grāveri - 2":{"address":"Grāveri - 2","city":"Bēne","zip":"LV-3711"},"grāveri - 3":{"address":"Grāveri - 3","city":"Bēne","zip":"LV-3711"},"grāveri - 4":{"address":"Grāveri - 4","city":"Bēne","zip":"LV-3711"},"grāveri - 5":{"address":"Grāveri - 5","city":"Bēne","zip":"LV-3711"},"jaunā māja 1 - 1":{"address":"Jaunā māja 1 - 1","city":"Vecmiķeļi","zip":"LV-3711"},"jaunā māja 1 - 2":{"address":"Jaunā māja 1 - 2","city":"Vecmiķeļi","zip":"LV-3711"},"jaunā māja 1 - 3":{"address":"Jaunā māja 1 - 3","city":"Vecmiķeļi","zip":"LV-3711"},"jaunā māja 1 - 4":{"address":"Jaunā māja 1 - 4","city":"Vecmiķeļi","zip":"LV-3711"},"jaunā māja 1 - 5":{"address":"Jaunā māja 1 - 5","city":"Vecmiķeļi","zip":"LV-3711"},"jaunā māja 1 - 6":{"address":"Jaunā māja 1 - 6","city":"Vecmiķeļi","zip":"LV-3711"},"jaunā māja 1 - 7":{"address":"Jaunā māja 1 - 7","city":"Vecmiķeļi","zip":"LV-3711"},"jaunā māja 1 - 8":{"address":"Jaunā māja 1 - 8","city":"Vecmiķeļi","zip":"LV-3711"},"jaunā māja 1 - 9":{"address":"Jaunā māja 1 - 9","city":"Vecmiķeļi","zip":"LV-3711"},"jaunā māja 1 - 10":{"address":"Jaunā māja 1 - 10","city":"Vecmiķeļi","zip":"LV-3711"},"jaunā māja 1 - 11":{"address":"Jaunā māja 1 - 11","city":"Vecmiķeļi","zip":"LV-3711"},"jaunā māja 1 - 12":{"address":"Jaunā māja 1 - 12","city":"Vecmiķeļi","zip":"LV-3711"},"jaunā māja 1 - 13":{"address":"Jaunā māja 1 - 13","city":"Vecmiķeļi","zip":"LV-3711"},"jaunā māja 1 - 14":{"address":"Jaunā māja 1 - 14","city":"Vecmiķeļi","zip":"LV-3711"},"jaunā māja 1 - 15":{"address":"Jaunā māja 1 - 15","city":"Vecmiķeļi","zip":"LV-3711"},"jaunā māja 1 - 16":{"address":"Jaunā māja 1 - 16","city":"Vecmiķeļi","zip":"LV-3711"},"jaunā māja 1 - 17":{"address":"Jaunā māja 1 - 17","city":"Vecmiķeļi","zip":"LV-3711"},"jaunā māja 1 - 18":{"address":"Jaunā māja 1 - 18","city":"Vecmiķeļi","zip":"LV-3711"},"dzelzceļa ēka 4 - 1":{"address":"Dzelzceļa ēka 4 - 1","city":"Bēne","zip":"LV-3711"},"dzelzceļa ēka 4 - 2":{"address":"Dzelzceļa ēka 4 - 2","city":"Bēne","zip":"LV-3711"},"dzelzceļa ēka 2 - 1":{"address":"Dzelzceļa ēka 2 - 1","city":"Bēne","zip":"LV-3711"},"dzelzceļa ēka 2 - 2":{"address":"Dzelzceļa ēka 2 - 2","city":"Bēne","zip":"LV-3711"},"dzelzceļa ēka 2 - 3":{"address":"Dzelzceļa ēka 2 - 3","city":"Bēne","zip":"LV-3711"},"dzelzceļa ēka 2 - 4":{"address":"Dzelzceļa ēka 2 - 4","city":"Bēne","zip":"LV-3711"},"dzelzceļa ēka 2 - 5":{"address":"Dzelzceļa ēka 2 - 5","city":"Bēne","zip":"LV-3711"},"dzelzceļa ēka 2 - 6":{"address":"Dzelzceļa ēka 2 - 6","city":"Bēne","zip":"LV-3711"},"dzelzceļa ēka 3 - 1":{"address":"Dzelzceļa ēka 3 - 1","city":"Bēne","zip":"LV-3711"},"dzelzceļa ēka 3 - 2":{"address":"Dzelzceļa ēka 3 - 2","city":"Bēne","zip":"LV-3711"},"dzelzceļa ēka 3 - 3":{"address":"Dzelzceļa ēka 3 - 3","city":"Bēne","zip":"LV-3711"},"dzelzceļa ēka 3 - 4":{"address":"Dzelzceļa ēka 3 - 4","city":"Bēne","zip":"LV-3711"},"dzelzceļa ēka 3 - 5":{"address":"Dzelzceļa ēka 3 - 5","city":"Bēne","zip":"LV-3711"}}