{"bērzkalni - 1":{"address":"Bērzkalni - 1","city":"Tiņģere","zip":"LV-3261"},"bērzkalni - 2":{"address":"Bērzkalni - 2","city":"Tiņģere","zip":"LV-3261"},"bērzkalni - 3":{"address":"Bērzkalni - 3","city":"Pļavas","zip":"LV-3285"},"bērzkalni 3 - 1":{"address":"Bērzkalni 3 - 1","city":"Spāre","zip":"LV-3298"},"bērzkalni 3 - 2":{"address":"Bērzkalni 3 - 2","city":"Spāre","zip":"LV-3298"},"bērzkalni 3 - 3":{"address":"Bērzkalni 3 - 3","city":"Spāre","zip":"LV-3298"},"bērzkalni 3 - 4":{"address":"Bērzkalni 3 - 4","city":"Spāre","zip":"LV-3298"},"bērzkalni 3 - 5":{"address":"Bērzkalni 3 - 5","city":"Spāre","zip":"LV-3298"},"bērzkalni 3 - 6":{"address":"Bērzkalni 3 - 6","city":"Spāre","zip":"LV-3298"},"bērzkalni 3 - 7":{"address":"Bērzkalni 3 - 7","city":"Spāre","zip":"LV-3298"},"bērzkalni 3 - 8":{"address":"Bērzkalni 3 - 8","city":"Spāre","zip":"LV-3298"},"bērzkalni 1 - 1":{"address":"Bērzkalni 1 - 1","city":"Kumpoti","zip":"LV-5460"},"bērzkalni 1 - 2":{"address":"Bērzkalni 1 - 2","city":"Kumpoti","zip":"LV-5460"},"bērzkalni 1 - 3":{"address":"Bērzkalni 1 - 3","city":"Kumpoti","zip":"LV-5460"},"bērzkalni 1 - 4":{"address":"Bērzkalni 1 - 4","city":"Spāre","zip":"LV-3298"},"bērzkalni 1 - 5":{"address":"Bērzkalni 1 - 5","city":"Spāre","zip":"LV-3298"},"bērzkalni 1 - 6":{"address":"Bērzkalni 1 - 6","city":"Spāre","zip":"LV-3298"},"bērzkalni 1 - 7":{"address":"Bērzkalni 1 - 7","city":"Spāre","zip":"LV-3298"},"bērzkalni 1 - 8":{"address":"Bērzkalni 1 - 8","city":"Spāre","zip":"LV-3298"},"bērzkalni 2 - 1":{"address":"Bērzkalni 2 - 1","city":"Spāre","zip":"LV-3298"},"bērzkalni 2 - 2":{"address":"Bērzkalni 2 - 2","city":"Spāre","zip":"LV-3298"},"bērzkalni 2 - 3":{"address":"Bērzkalni 2 - 3","city":"Spāre","zip":"LV-3298"},"bērzkalni 2 - 4":{"address":"Bērzkalni 2 - 4","city":"Spāre","zip":"LV-3298"},"bērzkalni 2 - 5":{"address":"Bērzkalni 2 - 5","city":"Spāre","zip":"LV-3298"},"bērzkalni 2 - 6":{"address":"Bērzkalni 2 - 6","city":"Spāre","zip":"LV-3298"},"bērzkalni 2 - 7":{"address":"Bērzkalni 2 - 7","city":"Spāre","zip":"LV-3298"},"bērzkalni 2 - 8":{"address":"Bērzkalni 2 - 8","city":"Spāre","zip":"LV-3298"},"bērzkalni - 4":{"address":"Bērzkalni - 4","city":"Pļavas","zip":"LV-3285"},"bērzkalni - 5":{"address":"Bērzkalni - 5","city":"Pļavas","zip":"LV-3285"},"bērzkalni - 6":{"address":"Bērzkalni - 6","city":"Pļavas","zip":"LV-3285"},"bērzkalni - 7":{"address":"Bērzkalni - 7","city":"Pļavas","zip":"LV-3285"},"bērzkalni - 8":{"address":"Bērzkalni - 8","city":"Pļavas","zip":"LV-3285"},"bērzkalni":{"address":"Bērzkalni","city":"Drusti","zip":"LV-4132"},"bērzkalniņi":{"address":"Bērzkalniņi","city":"Lēdurga","zip":"LV-4012"}}