{"bērzciema tilmaņi":{"address":"Bērzciema Tilmaņi","city":"Bērzciems","zip":"LV-3113"},"bērzciema vecpriedes":{"address":"Bērzciema Vecpriedes","city":"Bērzciems","zip":"LV-3113"},"bērzciema vītoliņi":{"address":"Bērzciema Vītoliņi","city":"Bērzciems","zip":"LV-3113"},"bērzciema medņi":{"address":"Bērzciema Medņi","city":"Bērzciems","zip":"LV-3113"},"bērzciema salnas":{"address":"Bērzciema Salnas","city":"Bērzciems","zip":"LV-3113"},"bērzciema saulītes":{"address":"Bērzciema Saulītes","city":"Bērzciems","zip":"LV-3113"},"bērzciema selgas":{"address":"Bērzciema Selgas","city":"Bērzciems","zip":"LV-3113"},"bērzciema strazdiņi":{"address":"Bērzciema Strazdiņi","city":"Bērzciems","zip":"LV-3113"},"bērzciema jaunpriedes":{"address":"Bērzciema Jaunpriedes","city":"Bērzciems","zip":"LV-3113"},"bērzciema kaijas":{"address":"Bērzciema Kaijas","city":"Bērzciems","zip":"LV-3113"},"bērzciema laši":{"address":"Bērzciema Laši","city":"Bērzciems","zip":"LV-3113"},"bērzciema bērziņi":{"address":"Bērzciema Bērziņi","city":"Bērzciems","zip":"LV-3113"},"bērzciema cehs":{"address":"Bērzciema cehs","city":"Bērzciems","zip":"LV-3113"},"bērzciema ūdenskrātuve":{"address":"Bērzciema ūdenskrātuve","city":"Jaunmārupe","zip":"LV-2166"},"bērzciema kordoni":{"address":"Bērzciema kordoni","city":"Bērzciems","zip":"LV-3113"},"bērzciema egles":{"address":"Bērzciema Egles","city":"Bērzciems","zip":"LV-3113"},"bērzciema bibliotēka":{"address":"Bērzciema bibliotēka","city":"Bērzciems","zip":"LV-3113"},"bērzciema šalkas":{"address":"Bērzciema Šalkas","city":"Bērzciems","zip":"LV-3113"}}