{"bērzi - 1":{"address":"Bērzi - 1","city":"Naukšēni","zip":"LV-4244"},"bērzi - 2":{"address":"Bērzi - 2","city":"Naukšēni","zip":"LV-4244"},"bērzi - 3":{"address":"Bērzi - 3","city":"Naukšēni","zip":"LV-4244"},"bērzi - 4":{"address":"Bērzi - 4","city":"Naukšēni","zip":"LV-4244"},"bērzi - 5":{"address":"Bērzi - 5","city":"Naukšēni","zip":"LV-4244"},"bērzi - 6":{"address":"Bērzi - 6","city":"Naukšēni","zip":"LV-4244"},"bērzi - 7":{"address":"Bērzi - 7","city":"Naukšēni","zip":"LV-4244"},"bērzi - 8":{"address":"Bērzi - 8","city":"Naukšēni","zip":"LV-4244"},"bērzi - 9":{"address":"Bērzi - 9","city":"Naukšēni","zip":"LV-4244"},"bērzi - 10":{"address":"Bērzi - 10","city":"Naukšēni","zip":"LV-4244"},"bērzi - 11":{"address":"Bērzi - 11","city":"Naukšēni","zip":"LV-4244"},"bērzi - 12":{"address":"Bērzi - 12","city":"Naukšēni","zip":"LV-4244"},"bērzi - 13":{"address":"Bērzi - 13","city":"Alsviķi","zip":"LV-4333"},"bērzi - 14":{"address":"Bērzi - 14","city":"Alsviķi","zip":"LV-4333"},"bērzi - 15":{"address":"Bērzi - 15","city":"Alsviķi","zip":"LV-4333"},"bērzi - 16":{"address":"Bērzi - 16","city":"Alsviķi","zip":"LV-4333"},"bērzi - 17":{"address":"Bērzi - 17","city":"Alsviķi","zip":"LV-4333"},"bērzi - 18":{"address":"Bērzi - 18","city":"Alsviķi","zip":"LV-4333"},"bērzi - 19":{"address":"Bērzi - 19","city":"Alsviķi","zip":"LV-4333"},"bērzi - 20":{"address":"Bērzi - 20","city":"Alsviķi","zip":"LV-4333"},"bērzi - 21":{"address":"Bērzi - 21","city":"Alsviķi","zip":"LV-4333"},"bērzi - 22":{"address":"Bērzi - 22","city":"Alsviķi","zip":"LV-4333"},"bērzi - 23":{"address":"Bērzi - 23","city":"Alsviķi","zip":"LV-4333"},"bērzi - 24":{"address":"Bērzi - 24","city":"Alsviķi","zip":"LV-4333"},"bērzi 1 - 1":{"address":"Bērzi 1 - 1","city":"Krīvi","zip":"LV-4136"},"bērzi 1 - 2":{"address":"Bērzi 1 - 2","city":"Krīvi","zip":"LV-4136"},"bērzi 1 - 3":{"address":"Bērzi 1 - 3","city":"Krīvi","zip":"LV-4136"},"bērzi 1 - 4":{"address":"Bērzi 1 - 4","city":"Krīvi","zip":"LV-4136"},"bērzi 1 - 5":{"address":"Bērzi 1 - 5","city":"Krīvi","zip":"LV-4136"},"bērzi 1 - 6":{"address":"Bērzi 1 - 6","city":"Krīvi","zip":"LV-4136"},"bērzi 1 - 7":{"address":"Bērzi 1 - 7","city":"Krīvi","zip":"LV-4136"},"bērzi 1 - 8":{"address":"Bērzi 1 - 8","city":"Krīvi","zip":"LV-4136"},"bērzi 3 - 1":{"address":"Bērzi 3 - 1","city":"Krīvi","zip":"LV-4136"},"bērzi 3 - 2":{"address":"Bērzi 3 - 2","city":"Krīvi","zip":"LV-4136"},"bērzi 3 - 3":{"address":"Bērzi 3 - 3","city":"Krīvi","zip":"LV-4136"},"bērzi 3 - 4":{"address":"Bērzi 3 - 4","city":"Krīvi","zip":"LV-4136"},"bērzi 3 - 5":{"address":"Bērzi 3 - 5","city":"Krīvi","zip":"LV-4136"},"bērzi 3 - 6":{"address":"Bērzi 3 - 6","city":"Krīvi","zip":"LV-4136"},"bērzi 3 - 7":{"address":"Bērzi 3 - 7","city":"Krīvi","zip":"LV-4136"},"bērzi 3 - 8":{"address":"Bērzi 3 - 8","city":"Krīvi","zip":"LV-4136"},"bērzi 3 - 9":{"address":"Bērzi 3 - 9","city":"Krīvi","zip":"LV-4136"},"bērzi 3 - 10":{"address":"Bērzi 3 - 10","city":"Krīvi","zip":"LV-4136"},"bērzi 3 - 11":{"address":"Bērzi 3 - 11","city":"Krīvi","zip":"LV-4136"},"bērzi 3 - 12":{"address":"Bērzi 3 - 12","city":"Krīvi","zip":"LV-4136"},"bērzi 3 - 13":{"address":"Bērzi 3 - 13","city":"Krīvi","zip":"LV-4136"},"bērzi 3 - 14":{"address":"Bērzi 3 - 14","city":"Krīvi","zip":"LV-4136"},"bērzi 3 - 15":{"address":"Bērzi 3 - 15","city":"Krīvi","zip":"LV-4136"},"bērzi 3 - 16":{"address":"Bērzi 3 - 16","city":"Krīvi","zip":"LV-4136"}}