{"bērzu iela 5 - 6":{"address":"Bērzu iela 5 - 6","city":"Benislava","zip":"LV-4577"},"bērzu iela 5 - 1":{"address":"Bērzu iela 5 - 1","city":"Benislava","zip":"LV-4577"},"bērzu iela 5 - 2":{"address":"Bērzu iela 5 - 2","city":"Benislava","zip":"LV-4577"},"bērzu iela 5 - 3":{"address":"Bērzu iela 5 - 3","city":"Benislava","zip":"LV-4577"},"bērzu iela 5 - 4":{"address":"Bērzu iela 5 - 4","city":"Benislava","zip":"LV-4577"},"bērzu iela 5 - 5":{"address":"Bērzu iela 5 - 5","city":"Benislava","zip":"LV-4577"},"bērzu iela 5 - 7":{"address":"Bērzu iela 5 - 7","city":"Benislava","zip":"LV-4577"},"bērzu iela 5 - 8":{"address":"Bērzu iela 5 - 8","city":"Benislava","zip":"LV-4577"},"bērzu iela 5 - 9":{"address":"Bērzu iela 5 - 9","city":"Benislava","zip":"LV-4577"},"bērzu iela 5 - 10":{"address":"Bērzu iela 5 - 10","city":"Benislava","zip":"LV-4577"},"bērzu iela 5 - 11":{"address":"Bērzu iela 5 - 11","city":"Benislava","zip":"LV-4577"},"bērzu iela 5 - 12":{"address":"Bērzu iela 5 - 12","city":"Benislava","zip":"LV-4577"},"bērzu iela 1 - 2":{"address":"Bērzu iela 1 - 2","city":"Benislava","zip":"LV-4577"},"bērzu iela 1 - 3":{"address":"Bērzu iela 1 - 3","city":"Benislava","zip":"LV-4577"},"bērzu iela 1 - 5":{"address":"Bērzu iela 1 - 5","city":"Benislava","zip":"LV-4577"},"bērzu iela 1 - 6":{"address":"Bērzu iela 1 - 6","city":"Benislava","zip":"LV-4577"},"bērzu iela 1 - 7":{"address":"Bērzu iela 1 - 7","city":"Benislava","zip":"LV-4577"},"bērzu iela 1 - 8":{"address":"Bērzu iela 1 - 8","city":"Benislava","zip":"LV-4577"},"bērzu iela 1 - 9":{"address":"Bērzu iela 1 - 9","city":"Benislava","zip":"LV-4577"},"bērzu iela 1 - 10":{"address":"Bērzu iela 1 - 10","city":"Benislava","zip":"LV-4577"},"bērzu iela 1 - 11":{"address":"Bērzu iela 1 - 11","city":"Benislava","zip":"LV-4577"},"bērzu iela 1 - 12":{"address":"Bērzu iela 1 - 12","city":"Benislava","zip":"LV-4577"},"bērzu iela 1 - 13":{"address":"Bērzu iela 1 - 13","city":"Benislava","zip":"LV-4577"},"bērzu iela 1 - 14":{"address":"Bērzu iela 1 - 14","city":"Benislava","zip":"LV-4577"},"bērzu iela 1 - 15":{"address":"Bērzu iela 1 - 15","city":"Benislava","zip":"LV-4577"},"bērzu iela 1 - 16":{"address":"Bērzu iela 1 - 16","city":"Benislava","zip":"LV-4577"},"bērzu iela 1 - 17":{"address":"Bērzu iela 1 - 17","city":"Benislava","zip":"LV-4577"},"bērzu iela 1 - 18":{"address":"Bērzu iela 1 - 18","city":"Benislava","zip":"LV-4577"},"bērzu iela 1 - 1":{"address":"Bērzu iela 1 - 1","city":"Benislava","zip":"LV-4577"},"bērzu iela 1 - 4":{"address":"Bērzu iela 1 - 4","city":"Benislava","zip":"LV-4577"},"bērzu iela 3 - 1":{"address":"Bērzu iela 3 - 1","city":"Benislava","zip":"LV-4577"},"bērzu iela 3 - 2":{"address":"Bērzu iela 3 - 2","city":"Benislava","zip":"LV-4577"},"bērzu iela 3 - 3":{"address":"Bērzu iela 3 - 3","city":"Benislava","zip":"LV-4577"},"bērzu iela 3 - 4":{"address":"Bērzu iela 3 - 4","city":"Benislava","zip":"LV-4577"},"bērzu iela 3 - 5":{"address":"Bērzu iela 3 - 5","city":"Benislava","zip":"LV-4577"},"bērzu iela 3 - 6":{"address":"Bērzu iela 3 - 6","city":"Benislava","zip":"LV-4577"},"bērzu iela 3 - 7":{"address":"Bērzu iela 3 - 7","city":"Benislava","zip":"LV-4577"},"bērzu iela 3 - 8":{"address":"Bērzu iela 3 - 8","city":"Benislava","zip":"LV-4577"},"bērzu iela 3 - 9":{"address":"Bērzu iela 3 - 9","city":"Benislava","zip":"LV-4577"},"bērzu iela 3 - 10":{"address":"Bērzu iela 3 - 10","city":"Benislava","zip":"LV-4577"},"bērzu iela 3 - 11":{"address":"Bērzu iela 3 - 11","city":"Benislava","zip":"LV-4577"},"bērzu iela 3 - 12":{"address":"Bērzu iela 3 - 12","city":"Benislava","zip":"LV-4577"},"bērzu iela 3 - 13":{"address":"Bērzu iela 3 - 13","city":"Benislava","zip":"LV-4577"},"bērzu iela 3 - 15":{"address":"Bērzu iela 3 - 15","city":"Benislava","zip":"LV-4577"},"bērzu iela 3 - 16":{"address":"Bērzu iela 3 - 16","city":"Benislava","zip":"LV-4577"},"bērzu iela 3 - 17":{"address":"Bērzu iela 3 - 17","city":"Benislava","zip":"LV-4577"},"bērzu iela 3 - 18":{"address":"Bērzu iela 3 - 18","city":"Benislava","zip":"LV-4577"},"bērzu iela 3 - 14":{"address":"Bērzu iela 3 - 14","city":"Benislava","zip":"LV-4577"},"bērzupīte - 1":{"address":"Bērzupīte - 1","city":"Silamuiža","zip":"LV-4576"},"bērzupīte - 2":{"address":"Bērzupīte - 2","city":"Silamuiža","zip":"LV-4576"},"bērzu iela 6 - 2":{"address":"Bērzu iela 6 - 2","city":"Letes","zip":"LV-4409"},"bērzu iela 6 - 3":{"address":"Bērzu iela 6 - 3","city":"Letes","zip":"LV-4409"},"bērzu iela 6 - 4":{"address":"Bērzu iela 6 - 4","city":"Letes","zip":"LV-4409"},"bērzu iela 6 - 5":{"address":"Bērzu iela 6 - 5","city":"Letes","zip":"LV-4409"},"bērzu iela 6 - 1":{"address":"Bērzu iela 6 - 1","city":"Letes","zip":"LV-4409"},"bērzu iela 6 - 6":{"address":"Bērzu iela 6 - 6","city":"Letes","zip":"LV-4409"},"bērzu iela 6 - 7":{"address":"Bērzu iela 6 - 7","city":"Letes","zip":"LV-4409"},"bērzu iela 6 - 8":{"address":"Bērzu iela 6 - 8","city":"Letes","zip":"LV-4409"},"bērzu iela 2 - 1":{"address":"Bērzu iela 2 - 1","city":"Letes","zip":"LV-4409"},"bērzu iela 2 - 3":{"address":"Bērzu iela 2 - 3","city":"Letes","zip":"LV-4409"},"bērzu iela 2 - 4":{"address":"Bērzu iela 2 - 4","city":"Letes","zip":"LV-4409"},"bērzu iela 2 - 5":{"address":"Bērzu iela 2 - 5","city":"Letes","zip":"LV-4409"},"bērzu iela 2 - 6":{"address":"Bērzu iela 2 - 6","city":"Letes","zip":"LV-4409"},"bērzu iela 2 - 8":{"address":"Bērzu iela 2 - 8","city":"Letes","zip":"LV-4409"},"bērzu iela 2 - 2":{"address":"Bērzu iela 2 - 2","city":"Letes","zip":"LV-4409"},"bērzu iela 2 - 7":{"address":"Bērzu iela 2 - 7","city":"Letes","zip":"LV-4409"},"bērzu iela 4 - 2":{"address":"Bērzu iela 4 - 2","city":"Letes","zip":"LV-4409"},"bērzu iela 4 - 7":{"address":"Bērzu iela 4 - 7","city":"Letes","zip":"LV-4409"},"bērzu iela 4 - 1":{"address":"Bērzu iela 4 - 1","city":"Letes","zip":"LV-4409"},"bērzu iela 4 - 3":{"address":"Bērzu iela 4 - 3","city":"Letes","zip":"LV-4409"},"bērzu iela 4 - 4":{"address":"Bērzu iela 4 - 4","city":"Letes","zip":"LV-4409"},"bērzu iela 4 - 5":{"address":"Bērzu iela 4 - 5","city":"Letes","zip":"LV-4409"},"bērzu iela 4 - 6":{"address":"Bērzu iela 4 - 6","city":"Letes","zip":"LV-4409"},"bērzu iela 4 - 8":{"address":"Bērzu iela 4 - 8","city":"Letes","zip":"LV-4409"},"bērzulejas - 1":{"address":"Bērzulejas - 1","city":"Mārkalne","zip":"LV-4351"},"bērzulejas - 2":{"address":"Bērzulejas - 2","city":"Mārkalne","zip":"LV-4351"},"bērzulejas - 3":{"address":"Bērzulejas - 3","city":"Mārkalne","zip":"LV-4351"},"bērzulejas - 4":{"address":"Bērzulejas - 4","city":"Mārkalne","zip":"LV-4351"},"bērzulejas - 5":{"address":"Bērzulejas - 5","city":"Mārkalne","zip":"LV-4351"},"bērzulejas - 6":{"address":"Bērzulejas - 6","city":"Mārkalne","zip":"LV-4351"}}