{"konservu cehs - 2":{"address":"Konservu cehs - 2","city":"Ģibuļi","zip":"LV-3297"},"konservu cehs - 1":{"address":"Konservu cehs - 1","city":"Ģibuļi","zip":"LV-3297"},"konservu cehs - 3":{"address":"Konservu cehs - 3","city":"Ģibuļi","zip":"LV-3297"},"zēmeru ražošanas cehs - jaunbūve":{"address":"Zēmeru Ražošanas cehs - jaunbūve","city":"Nīgrande","zip":"LV-3899"},"valtaiķu pārstrādes cehs":{"address":"Valtaiķu pārstrādes cehs","city":"Valtaiķi","zip":"LV-3330"},"konservu cehs":{"address":"Konservu cehs","city":"Vītoliņi","zip":"LV-3017"},"vandzenes cehs":{"address":"Vandzenes cehs","city":"Vandzene","zip":"LV-3281"},"upesgrīvas cehs":{"address":"Upesgrīvas cehs","city":"Upesgrīva","zip":"LV-3284"},"plieņciema cehs":{"address":"Plieņciema cehs","city":"Plieņciems","zip":"LV-3113"},"bērzciema cehs":{"address":"Bērzciema cehs","city":"Bērzciems","zip":"LV-3113"},"konfekšu cehs":{"address":"Konfekšu cehs","city":"Pērnciems","zip":"LV-2105"},"zivju pārstrādes cehs":{"address":"Zivju pārstrādes cehs","city":"Cēre","zip":"LV-3122"},"mārrutku cehs":{"address":"Mārrutku cehs","city":"Vītoliņi","zip":"LV-3017"},"mehāniskais cehs":{"address":"Mehāniskais cehs","city":"Stūnīši","zip":"LV-2127"},"ģipkas zivju apstrādes cehs":{"address":"Ģipkas zivju apstrādes cehs","city":"Ģipka","zip":"LV-3264"},"sēņu cehs":{"address":"Sēņu cehs","city":"Sērene","zip":"LV-5123"},"slēgtais cehs":{"address":"Slēgtais cehs","city":"Kaltene","zip":"LV-3264"},"ozolkroga kokapstrādes cehs":{"address":"Ozolkroga kokapstrādes cehs","city":"Augšlīgatne","zip":"LV-4108"},"cehs":{"address":"Cehs","city":"Gleizdova","zip":"LV-4652"},"kokapstrādes cehs ozoli":{"address":"Kokapstrādes cehs Ozoli","city":"Nīgrande","zip":"LV-3899"},"kolkas cehs":{"address":"Kolkas cehs","city":"Kolka","zip":"LV-3275"},"melnsila zivju apstrādes cehs":{"address":"Melnsila zivju apstrādes cehs","city":"Melnsils","zip":"LV-3264"},"spirta cehs":{"address":"Spirta cehs","city":"Brūzis","zip":"LV-3292"},"pārstrādes cehs":{"address":"Pārstrādes cehs","city":"Cūkine","zip":"LV-4585"},"alsviķu cehs":{"address":"Alsviķu cehs","city":"Alsviķi","zip":"LV-4333"},"kokapstrādes cehs":{"address":"Kokapstrādes cehs","city":"Beļauski","zip":"LV-4576"},"ražotāju cehs":{"address":"Ražotāju cehs","city":"Lizums","zip":"LV-4425"},"gaļas cehs":{"address":"Gaļas cehs","city":"Pilskalne","zip":"LV-5447"},"ģipša cehs":{"address":"Ģipša cehs","city":"Līksna","zip":"LV-5456"},"gaļas pārstrādes cehs":{"address":"Gaļas pārstrādes cehs","city":"Madliena","zip":"LV-5045"}}