{"mežmalas - 1":{"address":"Mežmalas - 1","city":"Centramuiža","zip":"LV-4501"},"mežmalas - 2":{"address":"Mežmalas - 2","city":"Centramuiža","zip":"LV-4501"},"mežmalas - 3":{"address":"Mežmalas - 3","city":"Centramuiža","zip":"LV-4501"},"mežmalas - 4":{"address":"Mežmalas - 4","city":"Centramuiža","zip":"LV-4501"},"mežmalas - 5":{"address":"Mežmalas - 5","city":"Centramuiža","zip":"LV-4501"},"mežmalas - 6":{"address":"Mežmalas - 6","city":"Centramuiža","zip":"LV-4501"},"mežmalas - 7":{"address":"Mežmalas - 7","city":"Centramuiža","zip":"LV-4501"},"mežmalas - 8":{"address":"Mežmalas - 8","city":"Centramuiža","zip":"LV-4501"},"muižas māja - 1":{"address":"Muižas māja - 1","city":"Centramuiža","zip":"LV-4501"},"muižas māja - 2":{"address":"Muižas māja - 2","city":"Centramuiža","zip":"LV-4501"},"piepilsēta - 1":{"address":"Piepilsēta - 1","city":"Centramuiža","zip":"LV-4501"},"piepilsēta - 2":{"address":"Piepilsēta - 2","city":"Centramuiža","zip":"LV-4501"},"centra iela 1 - 1":{"address":"Centra iela 1 - 1","city":"Vitrupe","zip":"LV-4050"},"centra iela 1 - 2":{"address":"Centra iela 1 - 2","city":"Vitrupe","zip":"LV-4050"},"centra iela 1 - 3":{"address":"Centra iela 1 - 3","city":"Vitrupe","zip":"LV-4050"},"centra iela 1 - 4":{"address":"Centra iela 1 - 4","city":"Vitrupe","zip":"LV-4050"},"centra iela 1 - 5":{"address":"Centra iela 1 - 5","city":"Vitrupe","zip":"LV-4050"},"centra iela 1 - 6":{"address":"Centra iela 1 - 6","city":"Vitrupe","zip":"LV-4050"},"centra iela 1 - 7":{"address":"Centra iela 1 - 7","city":"Vitrupe","zip":"LV-4050"},"centra iela 1 - 8":{"address":"Centra iela 1 - 8","city":"Vitrupe","zip":"LV-4050"},"centra iela 1 - 9":{"address":"Centra iela 1 - 9","city":"Jaunanna","zip":"LV-4340"},"centra iela 1 - 10":{"address":"Centra iela 1 - 10","city":"Jaunanna","zip":"LV-4340"},"centra iela 1 - 11":{"address":"Centra iela 1 - 11","city":"Jaunanna","zip":"LV-4340"},"centra iela 1 - 12":{"address":"Centra iela 1 - 12","city":"Jaunanna","zip":"LV-4340"},"centra iela 1 - 13":{"address":"Centra iela 1 - 13","city":"Jaunanna","zip":"LV-4340"},"centra iela 1 - 14":{"address":"Centra iela 1 - 14","city":"Jaunanna","zip":"LV-4340"},"centra iela 1 - 15":{"address":"Centra iela 1 - 15","city":"Jaunanna","zip":"LV-4340"},"centra iela 1 - 16":{"address":"Centra iela 1 - 16","city":"Jaunanna","zip":"LV-4340"},"centra iela 1 - 17":{"address":"Centra iela 1 - 17","city":"Jaunanna","zip":"LV-4340"},"centra iela 1 - 18":{"address":"Centra iela 1 - 18","city":"Jaunanna","zip":"LV-4340"},"centra iela 3 - 1":{"address":"Centra iela 3 - 1","city":"Vitrupe","zip":"LV-4050"},"centra iela 3 - 2":{"address":"Centra iela 3 - 2","city":"Vitrupe","zip":"LV-4050"},"centra iela 3 - 3":{"address":"Centra iela 3 - 3","city":"Vitrupe","zip":"LV-4050"},"centra iela 3 - 4":{"address":"Centra iela 3 - 4","city":"Vitrupe","zip":"LV-4050"},"centra iela 3 - 5":{"address":"Centra iela 3 - 5","city":"Jaunanna","zip":"LV-4340"},"centra iela 3 - 6":{"address":"Centra iela 3 - 6","city":"Jaunanna","zip":"LV-4340"},"centra iela 3 - 7":{"address":"Centra iela 3 - 7","city":"Jaunanna","zip":"LV-4340"},"centra iela 3 - 8":{"address":"Centra iela 3 - 8","city":"Jaunanna","zip":"LV-4340"},"centra iela 3 - 9":{"address":"Centra iela 3 - 9","city":"Jaunanna","zip":"LV-4340"},"centra iela 3 - 10":{"address":"Centra iela 3 - 10","city":"Jaunanna","zip":"LV-4340"},"centra iela 3 - 11":{"address":"Centra iela 3 - 11","city":"Jaunanna","zip":"LV-4340"},"centra iela 3 - 12":{"address":"Centra iela 3 - 12","city":"Jaunanna","zip":"LV-4340"},"centra iela 3 - 13":{"address":"Centra iela 3 - 13","city":"Jaunanna","zip":"LV-4340"},"centra iela 3 - 14":{"address":"Centra iela 3 - 14","city":"Jaunanna","zip":"LV-4340"},"centra iela 3 - 15":{"address":"Centra iela 3 - 15","city":"Jaunanna","zip":"LV-4340"},"centra iela 3 - 16":{"address":"Centra iela 3 - 16","city":"Jaunanna","zip":"LV-4340"},"centra iela 3 - 17":{"address":"Centra iela 3 - 17","city":"Jaunanna","zip":"LV-4340"},"centra iela 3 - 18":{"address":"Centra iela 3 - 18","city":"Jaunanna","zip":"LV-4340"},"centra iela 5 - 1":{"address":"Centra iela 5 - 1","city":"Vitrupe","zip":"LV-4050"},"centra iela 5 - 2":{"address":"Centra iela 5 - 2","city":"Vitrupe","zip":"LV-4050"},"centra iela 5 - 3":{"address":"Centra iela 5 - 3","city":"Vitrupe","zip":"LV-4050"},"centra iela 5 - 4":{"address":"Centra iela 5 - 4","city":"Vitrupe","zip":"LV-4050"},"centra iela salnas - 1":{"address":"Centra iela Salnas - 1","city":"Svitene","zip":"LV-3917"},"centra iela salnas - 2":{"address":"Centra iela Salnas - 2","city":"Svitene","zip":"LV-3917"},"centra iela salnas - 3":{"address":"Centra iela Salnas - 3","city":"Svitene","zip":"LV-3917"},"centra iela salnas - 4":{"address":"Centra iela Salnas - 4","city":"Svitene","zip":"LV-3917"},"centra iela salnas - 5":{"address":"Centra iela Salnas - 5","city":"Svitene","zip":"LV-3917"},"centra iela salnas - 6":{"address":"Centra iela Salnas - 6","city":"Svitene","zip":"LV-3917"},"centra iela salnas - 7":{"address":"Centra iela Salnas - 7","city":"Svitene","zip":"LV-3917"},"centra iela salnas - 8":{"address":"Centra iela Salnas - 8","city":"Svitene","zip":"LV-3917"},"centra iela salnas - 9":{"address":"Centra iela Salnas - 9","city":"Svitene","zip":"LV-3917"},"centra iela salnas - 10":{"address":"Centra iela Salnas - 10","city":"Svitene","zip":"LV-3917"},"centra iela salnas - 11":{"address":"Centra iela Salnas - 11","city":"Svitene","zip":"LV-3917"},"centra iela salnas - 12":{"address":"Centra iela Salnas - 12","city":"Svitene","zip":"LV-3917"},"centra iela salnas - 13":{"address":"Centra iela Salnas - 13","city":"Svitene","zip":"LV-3917"},"centra iela salnas - 14":{"address":"Centra iela Salnas - 14","city":"Svitene","zip":"LV-3917"},"centra iela salnas - 15":{"address":"Centra iela Salnas - 15","city":"Svitene","zip":"LV-3917"},"centra iela salnas - 16":{"address":"Centra iela Salnas - 16","city":"Svitene","zip":"LV-3917"},"centra iela salnas - 17":{"address":"Centra iela Salnas - 17","city":"Svitene","zip":"LV-3917"},"centra iela salnas - 18":{"address":"Centra iela Salnas - 18","city":"Svitene","zip":"LV-3917"},"centra iela salnas - 19":{"address":"Centra iela Salnas - 19","city":"Svitene","zip":"LV-3917"},"centra iela salnas - 20":{"address":"Centra iela Salnas - 20","city":"Svitene","zip":"LV-3917"},"centra iela salnas - 21":{"address":"Centra iela Salnas - 21","city":"Svitene","zip":"LV-3917"},"centra iela salnas - 22":{"address":"Centra iela Salnas - 22","city":"Svitene","zip":"LV-3917"},"centra iela salnas - 23":{"address":"Centra iela Salnas - 23","city":"Svitene","zip":"LV-3917"},"centra iela salnas - 24":{"address":"Centra iela Salnas - 24","city":"Svitene","zip":"LV-3917"},"centra iela salnas - 25":{"address":"Centra iela Salnas - 25","city":"Svitene","zip":"LV-3917"},"centra iela salnas - 26":{"address":"Centra iela Salnas - 26","city":"Svitene","zip":"LV-3917"},"centra iela salnas - 27":{"address":"Centra iela Salnas - 27","city":"Svitene","zip":"LV-3917"},"centra iela salnas - 28":{"address":"Centra iela Salnas - 28","city":"Svitene","zip":"LV-3917"},"centra iela salnas - 29":{"address":"Centra iela Salnas - 29","city":"Svitene","zip":"LV-3917"},"centra iela salnas - 30":{"address":"Centra iela Salnas - 30","city":"Svitene","zip":"LV-3917"},"centra iela salnas - 31":{"address":"Centra iela Salnas - 31","city":"Svitene","zip":"LV-3917"},"centra iela salnas - 32":{"address":"Centra iela Salnas - 32","city":"Svitene","zip":"LV-3917"},"centra iela salnas - 33":{"address":"Centra iela Salnas - 33","city":"Svitene","zip":"LV-3917"},"centra iela salnas - 34":{"address":"Centra iela Salnas - 34","city":"Svitene","zip":"LV-3917"},"centra iela salnas - 35":{"address":"Centra iela Salnas - 35","city":"Svitene","zip":"LV-3917"},"centra iela salnas - 36":{"address":"Centra iela Salnas - 36","city":"Svitene","zip":"LV-3917"}}