{"centrālais laukums 1 - 1":{"address":"Centrālais laukums 1 - 1","city":"Bēne","zip":"LV-3711"},"centrālais laukums 1 - 2":{"address":"Centrālais laukums 1 - 2","city":"Bēne","zip":"LV-3711"},"centrālais laukums 1 - 3":{"address":"Centrālais laukums 1 - 3","city":"Bēne","zip":"LV-3711"},"centrālais laukums 1 - 4":{"address":"Centrālais laukums 1 - 4","city":"Bēne","zip":"LV-3711"},"centrālais laukums 1 - 5":{"address":"Centrālais laukums 1 - 5","city":"Bēne","zip":"LV-3711"},"centrālais laukums 1 - 6":{"address":"Centrālais laukums 1 - 6","city":"Bēne","zip":"LV-3711"},"centrālais laukums 1 - 7":{"address":"Centrālais laukums 1 - 7","city":"Bēne","zip":"LV-3711"},"centrālais laukums 1 - 8":{"address":"Centrālais laukums 1 - 8","city":"Bēne","zip":"LV-3711"},"centrālais laukums 1 - 9":{"address":"Centrālais laukums 1 - 9","city":"Bēne","zip":"LV-3711"},"centrālais laukums 1 - 10":{"address":"Centrālais laukums 1 - 10","city":"Bēne","zip":"LV-3711"},"centrālais laukums 1 - 11":{"address":"Centrālais laukums 1 - 11","city":"Bēne","zip":"LV-3711"},"centrālais laukums 1 - 12":{"address":"Centrālais laukums 1 - 12","city":"Bēne","zip":"LV-3711"},"centrālais laukums 1 - 13":{"address":"Centrālais laukums 1 - 13","city":"Bēne","zip":"LV-3711"},"centrālais laukums 1 - 14":{"address":"Centrālais laukums 1 - 14","city":"Bēne","zip":"LV-3711"},"centrālais laukums 1 - 15":{"address":"Centrālais laukums 1 - 15","city":"Bēne","zip":"LV-3711"},"centrālais laukums 1 - 16":{"address":"Centrālais laukums 1 - 16","city":"Bēne","zip":"LV-3711"},"centrālais laukums 1 - 17":{"address":"Centrālais laukums 1 - 17","city":"Bēne","zip":"LV-3711"},"centrālais laukums 1 - 18":{"address":"Centrālais laukums 1 - 18","city":"Bēne","zip":"LV-3711"},"centrālais laukums 2 - 1":{"address":"Centrālais laukums 2 - 1","city":"Bēne","zip":"LV-3711"},"centrālais laukums 2 - 2":{"address":"Centrālais laukums 2 - 2","city":"Bēne","zip":"LV-3711"},"centrālais laukums 2 - 3":{"address":"Centrālais laukums 2 - 3","city":"Bēne","zip":"LV-3711"},"centrālais laukums 2 - 4":{"address":"Centrālais laukums 2 - 4","city":"Bēne","zip":"LV-3711"},"centrālais laukums 2 - 5":{"address":"Centrālais laukums 2 - 5","city":"Bēne","zip":"LV-3711"},"centrālais laukums 2 - 6":{"address":"Centrālais laukums 2 - 6","city":"Bēne","zip":"LV-3711"},"centrālais laukums 2 - 7":{"address":"Centrālais laukums 2 - 7","city":"Bēne","zip":"LV-3711"},"centrālais laukums 2 - 8":{"address":"Centrālais laukums 2 - 8","city":"Bēne","zip":"LV-3711"},"centrālais laukums 2 - 9":{"address":"Centrālais laukums 2 - 9","city":"Bēne","zip":"LV-3711"},"centrālais laukums 2 - 10":{"address":"Centrālais laukums 2 - 10","city":"Bēne","zip":"LV-3711"},"centrālais laukums 2 - 11":{"address":"Centrālais laukums 2 - 11","city":"Bēne","zip":"LV-3711"},"centrālais laukums 2":{"address":"Centrālais laukums 2","city":"Bēne","zip":"LV-3711"},"centrālais laukums 1":{"address":"Centrālais laukums 1","city":"Bēne","zip":"LV-3711"},"centrālais laukums 3e":{"address":"Centrālais laukums 3E","city":"Bēne","zip":"LV-3711"},"centrālais laukums 3":{"address":"Centrālais laukums 3","city":"Bēne","zip":"LV-3711"},"centrālā iela 23 - 2":{"address":"Centrālā iela 23 - 2","city":"Sprūževa","zip":"LV-4641"},"centrālā iela 24 - 1":{"address":"Centrālā iela 24 - 1","city":"Sprūževa","zip":"LV-4641"},"centrālā iela 24 - 2":{"address":"Centrālā iela 24 - 2","city":"Sprūževa","zip":"LV-4641"},"centrālā iela 24 - 3":{"address":"Centrālā iela 24 - 3","city":"Sprūževa","zip":"LV-4641"},"centrālā iela 24 - 4":{"address":"Centrālā iela 24 - 4","city":"Sprūževa","zip":"LV-4641"},"centrālā iela 24 - 5":{"address":"Centrālā iela 24 - 5","city":"Sprūževa","zip":"LV-4641"},"centrālā iela 24 - 6":{"address":"Centrālā iela 24 - 6","city":"Sprūževa","zip":"LV-4641"},"centrālā iela 24 - 7":{"address":"Centrālā iela 24 - 7","city":"Sprūževa","zip":"LV-4641"},"centrālā iela 24 - 8":{"address":"Centrālā iela 24 - 8","city":"Sprūževa","zip":"LV-4641"},"centrālā iela 24 - 9":{"address":"Centrālā iela 24 - 9","city":"Sprūževa","zip":"LV-4641"},"centrālā iela 24 - 10":{"address":"Centrālā iela 24 - 10","city":"Sprūževa","zip":"LV-4641"},"centrālā iela 24 - 11":{"address":"Centrālā iela 24 - 11","city":"Sprūževa","zip":"LV-4641"},"centrālā iela 24 - 12":{"address":"Centrālā iela 24 - 12","city":"Sprūževa","zip":"LV-4641"},"centrālā iela 25 - 1":{"address":"Centrālā iela 25 - 1","city":"Sprūževa","zip":"LV-4641"},"centrālā iela 25 - 2":{"address":"Centrālā iela 25 - 2","city":"Sprūževa","zip":"LV-4641"},"centrālā iela 25 - 3":{"address":"Centrālā iela 25 - 3","city":"Sprūževa","zip":"LV-4641"},"centrālā iela 25 - 4":{"address":"Centrālā iela 25 - 4","city":"Sprūževa","zip":"LV-4641"},"centrālā iela 25 - 5":{"address":"Centrālā iela 25 - 5","city":"Sprūževa","zip":"LV-4641"},"centrālā iela 25 - 6":{"address":"Centrālā iela 25 - 6","city":"Sprūževa","zip":"LV-4641"},"centrālā iela 25 - 7":{"address":"Centrālā iela 25 - 7","city":"Sprūževa","zip":"LV-4641"},"centrālā iela 25 - 8":{"address":"Centrālā iela 25 - 8","city":"Sprūževa","zip":"LV-4641"},"centrālā iela 25 - 9":{"address":"Centrālā iela 25 - 9","city":"Sprūževa","zip":"LV-4641"},"centrālā iela 25 - 10":{"address":"Centrālā iela 25 - 10","city":"Sprūževa","zip":"LV-4641"},"centrālā iela 25 - 11":{"address":"Centrālā iela 25 - 11","city":"Sprūževa","zip":"LV-4641"},"centrālā iela 25 - 12":{"address":"Centrālā iela 25 - 12","city":"Sprūževa","zip":"LV-4641"},"centrālā iela 25 - 13":{"address":"Centrālā iela 25 - 13","city":"Sprūževa","zip":"LV-4641"},"centrālā iela 25 - 14":{"address":"Centrālā iela 25 - 14","city":"Sprūževa","zip":"LV-4641"},"centrālā iela 25 - 15":{"address":"Centrālā iela 25 - 15","city":"Sprūževa","zip":"LV-4641"},"centrālā iela 25 - 16":{"address":"Centrālā iela 25 - 16","city":"Sprūževa","zip":"LV-4641"},"centrālā iela 25 - 17":{"address":"Centrālā iela 25 - 17","city":"Sprūževa","zip":"LV-4641"},"centrālā iela 25 - 18":{"address":"Centrālā iela 25 - 18","city":"Sprūževa","zip":"LV-4641"},"centrālā iela 25 - 19":{"address":"Centrālā iela 25 - 19","city":"Sprūževa","zip":"LV-4641"},"centrālā iela 25 - 20":{"address":"Centrālā iela 25 - 20","city":"Sprūževa","zip":"LV-4641"},"centrālā iela 25 - 21":{"address":"Centrālā iela 25 - 21","city":"Sprūževa","zip":"LV-4641"},"centrālā iela 25 - 22":{"address":"Centrālā iela 25 - 22","city":"Sprūževa","zip":"LV-4641"},"centrālā iela 25 - 23":{"address":"Centrālā iela 25 - 23","city":"Sprūževa","zip":"LV-4641"},"centrālā iela 25 - 24":{"address":"Centrālā iela 25 - 24","city":"Sprūževa","zip":"LV-4641"},"centrālā iela 25 - 25":{"address":"Centrālā iela 25 - 25","city":"Sprūževa","zip":"LV-4641"},"centrālā iela 25 - 26":{"address":"Centrālā iela 25 - 26","city":"Sprūževa","zip":"LV-4641"},"centrālā iela 25 - 27":{"address":"Centrālā iela 25 - 27","city":"Sprūževa","zip":"LV-4641"},"centrālā iela 25 - 28":{"address":"Centrālā iela 25 - 28","city":"Sprūževa","zip":"LV-4641"},"centrālā iela 25 - 29":{"address":"Centrālā iela 25 - 29","city":"Sprūževa","zip":"LV-4641"},"centrālā iela 25 - 30":{"address":"Centrālā iela 25 - 30","city":"Sprūževa","zip":"LV-4641"},"centrālā iela 25a - 1":{"address":"Centrālā iela 25A - 1","city":"Sprūževa","zip":"LV-4641"},"centrālā iela 25a - 2":{"address":"Centrālā iela 25A - 2","city":"Sprūževa","zip":"LV-4641"},"centrālā iela 25a - 3":{"address":"Centrālā iela 25A - 3","city":"Sprūževa","zip":"LV-4641"},"centrālā iela 25a - 4":{"address":"Centrālā iela 25A - 4","city":"Sprūževa","zip":"LV-4641"},"centrālā iela 25a - 5":{"address":"Centrālā iela 25A - 5","city":"Sprūževa","zip":"LV-4641"},"centrālā iela 25a - 6":{"address":"Centrālā iela 25A - 6","city":"Sprūževa","zip":"LV-4641"},"centrālā iela 25a - 7":{"address":"Centrālā iela 25A - 7","city":"Sprūževa","zip":"LV-4641"},"centrālā iela 25a - 8":{"address":"Centrālā iela 25A - 8","city":"Sprūževa","zip":"LV-4641"},"centrālā iela 25a - 9":{"address":"Centrālā iela 25A - 9","city":"Sprūževa","zip":"LV-4641"},"centrālā iela 25a - 10":{"address":"Centrālā iela 25A - 10","city":"Sprūževa","zip":"LV-4641"},"centrālā iela 25a - 11":{"address":"Centrālā iela 25A - 11","city":"Sprūževa","zip":"LV-4641"},"centrālā iela 25a - 12":{"address":"Centrālā iela 25A - 12","city":"Sprūževa","zip":"LV-4641"},"centrālā iela 25a - 13":{"address":"Centrālā iela 25A - 13","city":"Sprūževa","zip":"LV-4641"},"centrālā iela 25a - 14":{"address":"Centrālā iela 25A - 14","city":"Sprūževa","zip":"LV-4641"},"centrālā iela 25a - 15":{"address":"Centrālā iela 25A - 15","city":"Sprūževa","zip":"LV-4641"},"centrālā iela 25a - 16":{"address":"Centrālā iela 25A - 16","city":"Sprūževa","zip":"LV-4641"},"centrālā iela 25a - 17":{"address":"Centrālā iela 25A - 17","city":"Sprūževa","zip":"LV-4641"},"centrālā iela 25a - 18":{"address":"Centrālā iela 25A - 18","city":"Sprūževa","zip":"LV-4641"},"centrālā iela 25a - 19":{"address":"Centrālā iela 25A - 19","city":"Sprūževa","zip":"LV-4641"},"centrālā iela 25a - 20":{"address":"Centrālā iela 25A - 20","city":"Sprūževa","zip":"LV-4641"},"centrālā iela 25a - 21":{"address":"Centrālā iela 25A - 21","city":"Sprūževa","zip":"LV-4641"},"centrālā iela 25a - 22":{"address":"Centrālā iela 25A - 22","city":"Sprūževa","zip":"LV-4641"},"centrālā iela 25a - 23":{"address":"Centrālā iela 25A - 23","city":"Sprūževa","zip":"LV-4641"},"centrālā iela 25a - 24":{"address":"Centrālā iela 25A - 24","city":"Sprūževa","zip":"LV-4641"}}