{"centrs - 1":{"address":"Centrs - 1","city":"Dauguļi","zip":"LV-4223"},"centrs - 2":{"address":"Centrs - 2","city":"Dauguļi","zip":"LV-4223"},"centrs - 3":{"address":"Centrs - 3","city":"Druviena","zip":"LV-4426"},"sadzīves centrs - 1":{"address":"Sadzīves centrs - 1","city":"Brenguļi","zip":"LV-4245"},"sadzīves centrs - 2":{"address":"Sadzīves centrs - 2","city":"Brenguļi","zip":"LV-4245"},"sadzīves centrs - 3":{"address":"Sadzīves centrs - 3","city":"Brenguļi","zip":"LV-4245"},"kultūras centrs - 1":{"address":"Kultūras centrs - 1","city":"Vecate","zip":"LV-4211"},"kultūras centrs - 2":{"address":"Kultūras centrs - 2","city":"Vecate","zip":"LV-4211"},"rūpniecības centrs 1 - 1":{"address":"Rūpniecības centrs 1 - 1","city":"Puikule","zip":"LV-4063"},"rūpniecības centrs 1 - 2":{"address":"Rūpniecības centrs 1 - 2","city":"Puikule","zip":"LV-4063"},"rūpniecības centrs 1 - 3":{"address":"Rūpniecības centrs 1 - 3","city":"Puikule","zip":"LV-4063"},"rūpniecības centrs 1 - 4":{"address":"Rūpniecības centrs 1 - 4","city":"Puikule","zip":"LV-4063"},"rūpniecības centrs 1 - 5":{"address":"Rūpniecības centrs 1 - 5","city":"Puikule","zip":"LV-4063"},"rūpniecības centrs 1 - 6":{"address":"Rūpniecības centrs 1 - 6","city":"Puikule","zip":"LV-4063"},"rūpniecības centrs 1 - 7":{"address":"Rūpniecības centrs 1 - 7","city":"Puikule","zip":"LV-4063"},"rūpniecības centrs 2 - 1":{"address":"Rūpniecības centrs 2 - 1","city":"Puikule","zip":"LV-4063"},"rūpniecības centrs 2 - 2":{"address":"Rūpniecības centrs 2 - 2","city":"Puikule","zip":"LV-4063"},"rūpniecības centrs 2 - 3":{"address":"Rūpniecības centrs 2 - 3","city":"Puikule","zip":"LV-4063"},"centrs 16 - 1":{"address":"Centrs 16 - 1","city":"Pastališķi","zip":"LV-3914"},"centrs 16 - 2":{"address":"Centrs 16 - 2","city":"Pastališķi","zip":"LV-3914"},"centrs 16 - 3":{"address":"Centrs 16 - 3","city":"Pastališķi","zip":"LV-3914"},"centrs 16 - 4":{"address":"Centrs 16 - 4","city":"Pastališķi","zip":"LV-3914"},"centrs 16 - 5":{"address":"Centrs 16 - 5","city":"Pastališķi","zip":"LV-3914"},"centrs 16 - 6":{"address":"Centrs 16 - 6","city":"Pastališķi","zip":"LV-3914"},"centrs 16 - 7":{"address":"Centrs 16 - 7","city":"Pastališķi","zip":"LV-3914"},"centrs 16 - 8":{"address":"Centrs 16 - 8","city":"Pastališķi","zip":"LV-3914"},"centrs 16 - 9":{"address":"Centrs 16 - 9","city":"Pastališķi","zip":"LV-3914"},"centrs 16 - 10":{"address":"Centrs 16 - 10","city":"Pastališķi","zip":"LV-3914"},"centrs 16 - 11":{"address":"Centrs 16 - 11","city":"Pastališķi","zip":"LV-3914"},"centrs 16 - 12":{"address":"Centrs 16 - 12","city":"Pastališķi","zip":"LV-3914"},"centrs 16 - 13":{"address":"Centrs 16 - 13","city":"Pastališķi","zip":"LV-3914"},"centrs 16 - 14":{"address":"Centrs 16 - 14","city":"Pastališķi","zip":"LV-3914"},"centrs 16 - 15":{"address":"Centrs 16 - 15","city":"Pastališķi","zip":"LV-3914"},"centrs 16 - 16":{"address":"Centrs 16 - 16","city":"Pastališķi","zip":"LV-3914"},"centrs 16 - 17":{"address":"Centrs 16 - 17","city":"Pastališķi","zip":"LV-3914"},"centrs 16 - 18":{"address":"Centrs 16 - 18","city":"Pastališķi","zip":"LV-3914"},"centrs 15 - 1":{"address":"Centrs 15 - 1","city":"Pastališķi","zip":"LV-3914"},"centrs 15 - 2":{"address":"Centrs 15 - 2","city":"Pastališķi","zip":"LV-3914"},"centrs 15 - 3":{"address":"Centrs 15 - 3","city":"Pastališķi","zip":"LV-3914"},"centrs 15 - 4":{"address":"Centrs 15 - 4","city":"Pastališķi","zip":"LV-3914"},"centrs 15 - 5":{"address":"Centrs 15 - 5","city":"Pastališķi","zip":"LV-3914"},"centrs 15 - 6":{"address":"Centrs 15 - 6","city":"Pastališķi","zip":"LV-3914"},"centrs 15 - 7":{"address":"Centrs 15 - 7","city":"Pastališķi","zip":"LV-3914"},"centrs 15 - 8":{"address":"Centrs 15 - 8","city":"Pastališķi","zip":"LV-3914"},"centrs 15 - 9":{"address":"Centrs 15 - 9","city":"Pastališķi","zip":"LV-3914"},"centrs 15 - 10":{"address":"Centrs 15 - 10","city":"Pastališķi","zip":"LV-3914"},"centrs 15 - 11":{"address":"Centrs 15 - 11","city":"Pastališķi","zip":"LV-3914"},"centrs 15 - 12":{"address":"Centrs 15 - 12","city":"Pastališķi","zip":"LV-3914"},"centrs 11 - 1":{"address":"Centrs 11 - 1","city":"Pastališķi","zip":"LV-3914"},"centrs 11 - 2":{"address":"Centrs 11 - 2","city":"Pastališķi","zip":"LV-3914"},"centrs 11 - 3":{"address":"Centrs 11 - 3","city":"Pastališķi","zip":"LV-3914"},"centrs 11 - 4":{"address":"Centrs 11 - 4","city":"Pastališķi","zip":"LV-3914"},"centrs 11 - 5":{"address":"Centrs 11 - 5","city":"Pastališķi","zip":"LV-3914"},"centrs 11 - 6":{"address":"Centrs 11 - 6","city":"Pastališķi","zip":"LV-3914"},"centrs 11 - 7":{"address":"Centrs 11 - 7","city":"Pastališķi","zip":"LV-3914"},"centrs 11 - 8":{"address":"Centrs 11 - 8","city":"Pastališķi","zip":"LV-3914"},"centrs 13 - 1":{"address":"Centrs 13 - 1","city":"Pastališķi","zip":"LV-3914"},"centrs 13 - 2":{"address":"Centrs 13 - 2","city":"Pastališķi","zip":"LV-3914"},"centrs 13 - 3":{"address":"Centrs 13 - 3","city":"Pastališķi","zip":"LV-3914"},"centrs 13 - 4":{"address":"Centrs 13 - 4","city":"Pastališķi","zip":"LV-3914"},"centrs 13 - 5":{"address":"Centrs 13 - 5","city":"Pastališķi","zip":"LV-3914"},"centrs 13 - 6":{"address":"Centrs 13 - 6","city":"Pastališķi","zip":"LV-3914"},"centrs 13 - 7":{"address":"Centrs 13 - 7","city":"Pastališķi","zip":"LV-3914"},"centrs 13 - 8":{"address":"Centrs 13 - 8","city":"Pastališķi","zip":"LV-3914"},"centrs 17 - 1":{"address":"Centrs 17 - 1","city":"Pastališķi","zip":"LV-3914"},"centrs 17 - 2":{"address":"Centrs 17 - 2","city":"Pastališķi","zip":"LV-3914"},"centrs 17 - 3":{"address":"Centrs 17 - 3","city":"Pastališķi","zip":"LV-3914"},"centrs 17 - 4":{"address":"Centrs 17 - 4","city":"Pastališķi","zip":"LV-3914"},"centrs 17 - 5":{"address":"Centrs 17 - 5","city":"Pastališķi","zip":"LV-3914"},"centrs 17 - 6":{"address":"Centrs 17 - 6","city":"Pastališķi","zip":"LV-3914"},"centrs 17 - 7":{"address":"Centrs 17 - 7","city":"Pastališķi","zip":"LV-3914"},"centrs 17 - 8":{"address":"Centrs 17 - 8","city":"Pastališķi","zip":"LV-3914"},"centrs 17 - 9":{"address":"Centrs 17 - 9","city":"Pastališķi","zip":"LV-3914"},"centrs 17 - 10":{"address":"Centrs 17 - 10","city":"Pastališķi","zip":"LV-3914"},"centrs 17 - 11":{"address":"Centrs 17 - 11","city":"Pastališķi","zip":"LV-3914"},"centrs 17 - 12":{"address":"Centrs 17 - 12","city":"Pastališķi","zip":"LV-3914"},"centrs 17 - 13":{"address":"Centrs 17 - 13","city":"Pastališķi","zip":"LV-3914"},"centrs 17 - 14":{"address":"Centrs 17 - 14","city":"Pastališķi","zip":"LV-3914"},"centrs 17 - 15":{"address":"Centrs 17 - 15","city":"Pastališķi","zip":"LV-3914"},"centrs 17 - 16":{"address":"Centrs 17 - 16","city":"Pastališķi","zip":"LV-3914"},"centrs 17 - 17":{"address":"Centrs 17 - 17","city":"Pastališķi","zip":"LV-3914"},"centrs 17 - 18":{"address":"Centrs 17 - 18","city":"Pastališķi","zip":"LV-3914"},"centrs 17 - 19":{"address":"Centrs 17 - 19","city":"Pastališķi","zip":"LV-3914"},"centrs 17 - 20":{"address":"Centrs 17 - 20","city":"Pastališķi","zip":"LV-3914"},"centrs 17 - 21":{"address":"Centrs 17 - 21","city":"Pastališķi","zip":"LV-3914"},"centrs 17 - 22":{"address":"Centrs 17 - 22","city":"Pastališķi","zip":"LV-3914"},"centrs 17 - 23":{"address":"Centrs 17 - 23","city":"Pastališķi","zip":"LV-3914"},"centrs 17 - 24":{"address":"Centrs 17 - 24","city":"Pastališķi","zip":"LV-3914"},"centrs 1 - 1":{"address":"Centrs 1 - 1","city":"Īle","zip":"LV-3716"},"centrs 1 - 2":{"address":"Centrs 1 - 2","city":"Īle","zip":"LV-3716"},"centrs 1 - 3":{"address":"Centrs 1 - 3","city":"Īle","zip":"LV-3716"},"centrs 1 - 4":{"address":"Centrs 1 - 4","city":"Īle","zip":"LV-3716"},"centrs 1 - 5":{"address":"Centrs 1 - 5","city":"Īle","zip":"LV-3716"},"centrs 1 - 6":{"address":"Centrs 1 - 6","city":"Īle","zip":"LV-3716"},"centrs 1 - 7":{"address":"Centrs 1 - 7","city":"Īle","zip":"LV-3716"},"centrs 1 - 8":{"address":"Centrs 1 - 8","city":"Īle","zip":"LV-3716"},"centrs 1 - 9":{"address":"Centrs 1 - 9","city":"Īle","zip":"LV-3716"},"centrs 1 - 10":{"address":"Centrs 1 - 10","city":"Īle","zip":"LV-3716"}}