{"centrālais laukums 1 - 1":{"address":"Centrālais laukums 1 - 1","city":"Bēne","zip":"LV-3711"},"centrālais laukums 1 - 2":{"address":"Centrālais laukums 1 - 2","city":"Bēne","zip":"LV-3711"},"centrālais laukums 1 - 3":{"address":"Centrālais laukums 1 - 3","city":"Bēne","zip":"LV-3711"},"centrālais laukums 1 - 4":{"address":"Centrālais laukums 1 - 4","city":"Bēne","zip":"LV-3711"},"centrālais laukums 1 - 5":{"address":"Centrālais laukums 1 - 5","city":"Bēne","zip":"LV-3711"},"centrālais laukums 1 - 6":{"address":"Centrālais laukums 1 - 6","city":"Bēne","zip":"LV-3711"},"centrālais laukums 1 - 7":{"address":"Centrālais laukums 1 - 7","city":"Bēne","zip":"LV-3711"},"centrālais laukums 1 - 8":{"address":"Centrālais laukums 1 - 8","city":"Bēne","zip":"LV-3711"},"centrālais laukums 1 - 9":{"address":"Centrālais laukums 1 - 9","city":"Bēne","zip":"LV-3711"},"centrālais laukums 1 - 10":{"address":"Centrālais laukums 1 - 10","city":"Bēne","zip":"LV-3711"},"centrālais laukums 1 - 11":{"address":"Centrālais laukums 1 - 11","city":"Bēne","zip":"LV-3711"},"centrālais laukums 1 - 12":{"address":"Centrālais laukums 1 - 12","city":"Bēne","zip":"LV-3711"},"centrālais laukums 1 - 13":{"address":"Centrālais laukums 1 - 13","city":"Bēne","zip":"LV-3711"},"centrālais laukums 1 - 14":{"address":"Centrālais laukums 1 - 14","city":"Bēne","zip":"LV-3711"},"centrālais laukums 1 - 15":{"address":"Centrālais laukums 1 - 15","city":"Bēne","zip":"LV-3711"},"centrālais laukums 1 - 16":{"address":"Centrālais laukums 1 - 16","city":"Bēne","zip":"LV-3711"},"centrālais laukums 1 - 17":{"address":"Centrālais laukums 1 - 17","city":"Bēne","zip":"LV-3711"},"centrālais laukums 1 - 18":{"address":"Centrālais laukums 1 - 18","city":"Bēne","zip":"LV-3711"},"centrālais laukums 2 - 1":{"address":"Centrālais laukums 2 - 1","city":"Bēne","zip":"LV-3711"},"centrālais laukums 2 - 2":{"address":"Centrālais laukums 2 - 2","city":"Bēne","zip":"LV-3711"},"centrālais laukums 2 - 3":{"address":"Centrālais laukums 2 - 3","city":"Bēne","zip":"LV-3711"},"centrālais laukums 2 - 4":{"address":"Centrālais laukums 2 - 4","city":"Bēne","zip":"LV-3711"},"centrālais laukums 2 - 5":{"address":"Centrālais laukums 2 - 5","city":"Bēne","zip":"LV-3711"},"centrālais laukums 2 - 6":{"address":"Centrālais laukums 2 - 6","city":"Bēne","zip":"LV-3711"},"centrālais laukums 2 - 7":{"address":"Centrālais laukums 2 - 7","city":"Bēne","zip":"LV-3711"},"centrālais laukums 2 - 8":{"address":"Centrālais laukums 2 - 8","city":"Bēne","zip":"LV-3711"},"centrālais laukums 2 - 9":{"address":"Centrālais laukums 2 - 9","city":"Bēne","zip":"LV-3711"},"centrālais laukums 2 - 10":{"address":"Centrālais laukums 2 - 10","city":"Bēne","zip":"LV-3711"},"centrālais laukums 2 - 11":{"address":"Centrālais laukums 2 - 11","city":"Bēne","zip":"LV-3711"},"centrālais laukums 2":{"address":"Centrālais laukums 2","city":"Bēne","zip":"LV-3711"},"centrālais laukums 1":{"address":"Centrālais laukums 1","city":"Bēne","zip":"LV-3711"},"centrālais laukums 3e":{"address":"Centrālais laukums 3E","city":"Bēne","zip":"LV-3711"},"centrālais laukums 3":{"address":"Centrālais laukums 3","city":"Bēne","zip":"LV-3711"}}