{"ceplīši - 1":{"address":"Ceplīši - 1","city":"Druviena","zip":"LV-4426"},"ceplīši - 2":{"address":"Ceplīši - 2","city":"Druviena","zip":"LV-4426"},"cepļi 3 - 1":{"address":"Cepļi 3 - 1","city":"Putni","zip":"LV-3924"},"cepļi 3 - 2":{"address":"Cepļi 3 - 2","city":"Putni","zip":"LV-3924"},"cepļi 3 - 3":{"address":"Cepļi 3 - 3","city":"Putni","zip":"LV-3924"},"cepļi 3 - 4":{"address":"Cepļi 3 - 4","city":"Putni","zip":"LV-3924"},"cepļi 3 - 5":{"address":"Cepļi 3 - 5","city":"Putni","zip":"LV-3924"},"cepļi 3 - 6":{"address":"Cepļi 3 - 6","city":"Putni","zip":"LV-3924"},"ceplis 12 - 6":{"address":"Ceplis 12 - 6","city":"Ceplis","zip":"LV-3918"},"ceplis 12 - 7":{"address":"Ceplis 12 - 7","city":"Ceplis","zip":"LV-3918"},"ceplis 12 - 8":{"address":"Ceplis 12 - 8","city":"Ceplis","zip":"LV-3918"},"ceplis 12 - 1":{"address":"Ceplis 12 - 1","city":"Ceplis","zip":"LV-3918"},"ceplis 12 - 2":{"address":"Ceplis 12 - 2","city":"Ceplis","zip":"LV-3918"},"ceplis 12 - 3":{"address":"Ceplis 12 - 3","city":"Ceplis","zip":"LV-3918"},"ceplis 12 - 4":{"address":"Ceplis 12 - 4","city":"Ceplis","zip":"LV-3918"},"ceplis 13 - 2":{"address":"Ceplis 13 - 2","city":"Ceplis","zip":"LV-3918"},"ceplis 13 - 3":{"address":"Ceplis 13 - 3","city":"Ceplis","zip":"LV-3918"},"ceplis 13 - 4":{"address":"Ceplis 13 - 4","city":"Ceplis","zip":"LV-3918"},"ceplis 13 - 5":{"address":"Ceplis 13 - 5","city":"Ceplis","zip":"LV-3918"},"ceplis 13 - 6":{"address":"Ceplis 13 - 6","city":"Ceplis","zip":"LV-3918"},"ceplis 13 - 7":{"address":"Ceplis 13 - 7","city":"Ceplis","zip":"LV-3918"},"ceplis 7 - 1":{"address":"Ceplis 7 - 1","city":"Ceplis","zip":"LV-3918"},"ceplis 7 - 2":{"address":"Ceplis 7 - 2","city":"Ceplis","zip":"LV-3918"},"ceplis 7 - 3":{"address":"Ceplis 7 - 3","city":"Ceplis","zip":"LV-3918"},"ceplis 7 - 4":{"address":"Ceplis 7 - 4","city":"Ceplis","zip":"LV-3918"},"ceplis 7 - 5":{"address":"Ceplis 7 - 5","city":"Ceplis","zip":"LV-3918"},"ceplis 8 - 1":{"address":"Ceplis 8 - 1","city":"Ceplis","zip":"LV-3918"},"ceplis 8 - 2":{"address":"Ceplis 8 - 2","city":"Ceplis","zip":"LV-3918"},"ceplis 8 - 3":{"address":"Ceplis 8 - 3","city":"Ceplis","zip":"LV-3918"},"ceplis 10 - 1":{"address":"Ceplis 10 - 1","city":"Ceplis","zip":"LV-3918"},"ceplis 10 - 2":{"address":"Ceplis 10 - 2","city":"Ceplis","zip":"LV-3918"},"ceplis 10 - 3":{"address":"Ceplis 10 - 3","city":"Ceplis","zip":"LV-3918"},"ceplis 10 - 4":{"address":"Ceplis 10 - 4","city":"Ceplis","zip":"LV-3918"},"ceplis 2 - 1":{"address":"Ceplis 2 - 1","city":"Ceplis","zip":"LV-3918"},"ceplis 2 - 2":{"address":"Ceplis 2 - 2","city":"Ceplis","zip":"LV-3918"},"ceplis 1 - 1":{"address":"Ceplis 1 - 1","city":"Ceplis","zip":"LV-3918"},"ceplis 1 - 2":{"address":"Ceplis 1 - 2","city":"Ceplis","zip":"LV-3918"},"ceplis 1 - 3":{"address":"Ceplis 1 - 3","city":"Ceplis","zip":"LV-3918"},"ceplis 5 - 3":{"address":"Ceplis 5 - 3","city":"Ceplis","zip":"LV-3918"},"ceplis 5 - 2":{"address":"Ceplis 5 - 2","city":"Ceplis","zip":"LV-3918"},"ceplis 5 - 1":{"address":"Ceplis 5 - 1","city":"Ceplis","zip":"LV-3918"},"ceplis 5 - 4":{"address":"Ceplis 5 - 4","city":"Ceplis","zip":"LV-3918"},"ceplis 5 - 5":{"address":"Ceplis 5 - 5","city":"Ceplis","zip":"LV-3918"},"ceplis 5 - 6":{"address":"Ceplis 5 - 6","city":"Ceplis","zip":"LV-3918"},"ceplis 5 - 7":{"address":"Ceplis 5 - 7","city":"Ceplis","zip":"LV-3918"},"ceplis 5 - 8":{"address":"Ceplis 5 - 8","city":"Ceplis","zip":"LV-3918"},"ceplis 3 - 1":{"address":"Ceplis 3 - 1","city":"Ceplis","zip":"LV-3918"},"ceplis 3 - 2":{"address":"Ceplis 3 - 2","city":"Ceplis","zip":"LV-3918"},"ceplis 3 - 3":{"address":"Ceplis 3 - 3","city":"Ceplis","zip":"LV-3918"},"ceplis 3 - 4":{"address":"Ceplis 3 - 4","city":"Ceplis","zip":"LV-3918"},"ceplis 3 - 5":{"address":"Ceplis 3 - 5","city":"Ceplis","zip":"LV-3918"},"ceplis 3 - 6":{"address":"Ceplis 3 - 6","city":"Ceplis","zip":"LV-3918"},"ceplis 3 - 7":{"address":"Ceplis 3 - 7","city":"Ceplis","zip":"LV-3918"},"ceplis 3 - 8":{"address":"Ceplis 3 - 8","city":"Ceplis","zip":"LV-3918"},"ceplis 4 - 1":{"address":"Ceplis 4 - 1","city":"Ceplis","zip":"LV-3918"},"ceplis 4 - 2":{"address":"Ceplis 4 - 2","city":"Ceplis","zip":"LV-3918"},"ceplis 4 - 3":{"address":"Ceplis 4 - 3","city":"Ceplis","zip":"LV-3918"},"ceplis 4 - 4":{"address":"Ceplis 4 - 4","city":"Ceplis","zip":"LV-3918"},"ceplis 4 - 5":{"address":"Ceplis 4 - 5","city":"Ceplis","zip":"LV-3918"},"ceplis 4 - 6":{"address":"Ceplis 4 - 6","city":"Ceplis","zip":"LV-3918"},"ceplis 4 - 7":{"address":"Ceplis 4 - 7","city":"Ceplis","zip":"LV-3918"},"ceplis 4 - 8":{"address":"Ceplis 4 - 8","city":"Ceplis","zip":"LV-3918"},"cepļi - 1":{"address":"Cepļi - 1","city":"Vārve","zip":"LV-3623"},"cepļi - 2":{"address":"Cepļi - 2","city":"Vārve","zip":"LV-3623"}}