{"ceriņu iela 9 - 1":{"address":"Ceriņu iela 9 - 1","city":"Vecumnieki","zip":"LV-3933"},"ceriņu iela 9 - 2":{"address":"Ceriņu iela 9 - 2","city":"Vecumnieki","zip":"LV-3933"},"ceriņu mājas - 1":{"address":"Ceriņu mājas - 1","city":"Tutinava","zip":"LV-4501"},"ceriņu mājas - 2":{"address":"Ceriņu mājas - 2","city":"Tutinava","zip":"LV-4501"},"ceriņu mājas - 3":{"address":"Ceriņu mājas - 3","city":"Tutinava","zip":"LV-4501"},"ceriņu mājas - 4":{"address":"Ceriņu mājas - 4","city":"Tutinava","zip":"LV-4501"},"ceriņu iela 8 - 3":{"address":"Ceriņu iela 8 - 3","city":"Augšlīgatne","zip":"LV-4108"},"ceriņu iela 4 - 1":{"address":"Ceriņu iela 4 - 1","city":"Jelgavkrasti","zip":"LV-4023"},"ceriņu iela 4 - 2":{"address":"Ceriņu iela 4 - 2","city":"Jelgavkrasti","zip":"LV-4023"},"ceriņu iela 4 - 3":{"address":"Ceriņu iela 4 - 3","city":"Jelgavkrasti","zip":"LV-4023"},"ceriņu iela 4 - 4":{"address":"Ceriņu iela 4 - 4","city":"Jelgavkrasti","zip":"LV-4023"},"ceriņu iela 6 - 1":{"address":"Ceriņu iela 6 - 1","city":"Vecumnieki","zip":"LV-3933"},"ceriņu iela 6 - 2":{"address":"Ceriņu iela 6 - 2","city":"Vecumnieki","zip":"LV-3933"},"ceriņu iela 19 - 1":{"address":"Ceriņu iela 19 - 1","city":"Vecumnieki","zip":"LV-3933"},"ceriņu iela 19 - 2":{"address":"Ceriņu iela 19 - 2","city":"Vecumnieki","zip":"LV-3933"},"ceriņu iela 19 - 3":{"address":"Ceriņu iela 19 - 3","city":"Vecumnieki","zip":"LV-3933"},"ceriņu iela 19 - 4":{"address":"Ceriņu iela 19 - 4","city":"Vecumnieki","zip":"LV-3933"},"ceriņu iela 19 - 5":{"address":"Ceriņu iela 19 - 5","city":"Vecumnieki","zip":"LV-3933"},"ceriņu iela 19 - 6":{"address":"Ceriņu iela 19 - 6","city":"Vecumnieki","zip":"LV-3933"},"ceriņu iela 19 - 7":{"address":"Ceriņu iela 19 - 7","city":"Vecumnieki","zip":"LV-3933"},"ceriņu iela 19 - 8":{"address":"Ceriņu iela 19 - 8","city":"Vecumnieki","zip":"LV-3933"},"ceriņu iela 19 - 9":{"address":"Ceriņu iela 19 - 9","city":"Vecumnieki","zip":"LV-3933"},"ceriņu iela 19 - 10":{"address":"Ceriņu iela 19 - 10","city":"Vecumnieki","zip":"LV-3933"},"ceriņu iela 19 - 11":{"address":"Ceriņu iela 19 - 11","city":"Vecumnieki","zip":"LV-3933"},"ceriņu iela 19 - 12":{"address":"Ceriņu iela 19 - 12","city":"Vecumnieki","zip":"LV-3933"},"ceriņu iela 5 - 1":{"address":"Ceriņu iela 5 - 1","city":"Vecumnieki","zip":"LV-3933"},"ceriņu iela 5 - 2":{"address":"Ceriņu iela 5 - 2","city":"Vecumnieki","zip":"LV-3933"},"ceriņu iela 5 - 3":{"address":"Ceriņu iela 5 - 3","city":"Vecumnieki","zip":"LV-3933"},"ceriņu iela 5 - 4":{"address":"Ceriņu iela 5 - 4","city":"Vecumnieki","zip":"LV-3933"},"ceriņu iela 5 - 5":{"address":"Ceriņu iela 5 - 5","city":"Vecumnieki","zip":"LV-3933"},"ceriņu iela 5 - 6":{"address":"Ceriņu iela 5 - 6","city":"Vecumnieki","zip":"LV-3933"},"ceriņu iela 5 - 7":{"address":"Ceriņu iela 5 - 7","city":"Vecumnieki","zip":"LV-3933"},"ceriņu iela 5 - 8":{"address":"Ceriņu iela 5 - 8","city":"Vecumnieki","zip":"LV-3933"},"ceriņu iela 5 - 9":{"address":"Ceriņu iela 5 - 9","city":"Vecumnieki","zip":"LV-3933"},"ceriņu iela 5 - 10":{"address":"Ceriņu iela 5 - 10","city":"Vecumnieki","zip":"LV-3933"},"ceriņu iela 5 - 11":{"address":"Ceriņu iela 5 - 11","city":"Vecumnieki","zip":"LV-3933"},"ceriņu iela 5 - 12":{"address":"Ceriņu iela 5 - 12","city":"Vecumnieki","zip":"LV-3933"},"ceriņu iela 5 - 13":{"address":"Ceriņu iela 5 - 13","city":"Vecumnieki","zip":"LV-3933"},"ceriņu iela 5 - 14":{"address":"Ceriņu iela 5 - 14","city":"Vecumnieki","zip":"LV-3933"},"ceriņu iela 5 - 15":{"address":"Ceriņu iela 5 - 15","city":"Vecumnieki","zip":"LV-3933"},"ceriņu iela 5 - 16":{"address":"Ceriņu iela 5 - 16","city":"Vecumnieki","zip":"LV-3933"},"ceriņu iela 5 - 17":{"address":"Ceriņu iela 5 - 17","city":"Vecumnieki","zip":"LV-3933"},"ceriņu iela 5 - 18":{"address":"Ceriņu iela 5 - 18","city":"Vecumnieki","zip":"LV-3933"},"ceriņu iela 5 - 19":{"address":"Ceriņu iela 5 - 19","city":"Vecumnieki","zip":"LV-3933"},"ceriņu iela 5 - 20":{"address":"Ceriņu iela 5 - 20","city":"Vecumnieki","zip":"LV-3933"},"ceriņu iela 5 - 21":{"address":"Ceriņu iela 5 - 21","city":"Vecumnieki","zip":"LV-3933"},"ceriņu iela 5 - 22":{"address":"Ceriņu iela 5 - 22","city":"Vecumnieki","zip":"LV-3933"},"ceriņu iela 5 - 23":{"address":"Ceriņu iela 5 - 23","city":"Vecumnieki","zip":"LV-3933"},"ceriņu iela 5 - 24":{"address":"Ceriņu iela 5 - 24","city":"Vecumnieki","zip":"LV-3933"},"ceriņu iela 5 - 25":{"address":"Ceriņu iela 5 - 25","city":"Vecumnieki","zip":"LV-3933"},"ceriņu iela 5 - 26":{"address":"Ceriņu iela 5 - 26","city":"Vecumnieki","zip":"LV-3933"},"ceriņu iela 5 - 27":{"address":"Ceriņu iela 5 - 27","city":"Vecumnieki","zip":"LV-3933"},"ceriņu iela 5 - 28":{"address":"Ceriņu iela 5 - 28","city":"Vecumnieki","zip":"LV-3933"},"ceriņu iela 5 - 29":{"address":"Ceriņu iela 5 - 29","city":"Vecumnieki","zip":"LV-3933"},"ceriņu iela 5 - 30":{"address":"Ceriņu iela 5 - 30","city":"Vecumnieki","zip":"LV-3933"},"ceriņu iela 5 - 31":{"address":"Ceriņu iela 5 - 31","city":"Vecumnieki","zip":"LV-3933"},"ceriņu iela 5 - 32":{"address":"Ceriņu iela 5 - 32","city":"Vecumnieki","zip":"LV-3933"},"ceriņu iela 5 - 33":{"address":"Ceriņu iela 5 - 33","city":"Vecumnieki","zip":"LV-3933"},"ceriņu iela 5 - 34":{"address":"Ceriņu iela 5 - 34","city":"Vecumnieki","zip":"LV-3933"},"ceriņu iela 5 - 35":{"address":"Ceriņu iela 5 - 35","city":"Vecumnieki","zip":"LV-3933"},"ceriņu iela 5 - 36":{"address":"Ceriņu iela 5 - 36","city":"Vecumnieki","zip":"LV-3933"},"ceriņu iela 9 - 3":{"address":"Ceriņu iela 9 - 3","city":"Vecumnieki","zip":"LV-3933"},"ceriņu iela 9 - 4":{"address":"Ceriņu iela 9 - 4","city":"Vecumnieki","zip":"LV-3933"},"ceriņu iela 9 - 5":{"address":"Ceriņu iela 9 - 5","city":"Vecumnieki","zip":"LV-3933"},"ceriņu iela 9 - 6":{"address":"Ceriņu iela 9 - 6","city":"Vecumnieki","zip":"LV-3933"},"ceriņu iela 9 - 7":{"address":"Ceriņu iela 9 - 7","city":"Vecumnieki","zip":"LV-3933"},"ceriņu iela 9 - 8":{"address":"Ceriņu iela 9 - 8","city":"Vecumnieki","zip":"LV-3933"},"ceriņu iela 9a - 1":{"address":"Ceriņu iela 9A - 1","city":"Vecumnieki","zip":"LV-3933"},"ceriņu iela 9a - 2":{"address":"Ceriņu iela 9A - 2","city":"Vecumnieki","zip":"LV-3933"},"ceriņu iela 9a - 3":{"address":"Ceriņu iela 9A - 3","city":"Vecumnieki","zip":"LV-3933"},"ceriņu iela 9a - 4":{"address":"Ceriņu iela 9A - 4","city":"Vecumnieki","zip":"LV-3933"},"ceriņu iela 9a - 5":{"address":"Ceriņu iela 9A - 5","city":"Vecumnieki","zip":"LV-3933"},"ceriņu iela 9a - 6":{"address":"Ceriņu iela 9A - 6","city":"Vecumnieki","zip":"LV-3933"},"ceriņu iela 9a - 7":{"address":"Ceriņu iela 9A - 7","city":"Vecumnieki","zip":"LV-3933"},"ceriņu iela 9a - 8":{"address":"Ceriņu iela 9A - 8","city":"Vecumnieki","zip":"LV-3933"},"ceriņu iela 9a - 9":{"address":"Ceriņu iela 9A - 9","city":"Vecumnieki","zip":"LV-3933"},"ceriņu iela 9a - 10":{"address":"Ceriņu iela 9A - 10","city":"Vecumnieki","zip":"LV-3933"},"ceriņu iela 9a - 11":{"address":"Ceriņu iela 9A - 11","city":"Vecumnieki","zip":"LV-3933"},"ceriņu iela 9a - 12":{"address":"Ceriņu iela 9A - 12","city":"Vecumnieki","zip":"LV-3933"},"ceriņu iela 9a - 13":{"address":"Ceriņu iela 9A - 13","city":"Vecumnieki","zip":"LV-3933"},"ceriņu iela 9a - 14":{"address":"Ceriņu iela 9A - 14","city":"Vecumnieki","zip":"LV-3933"},"ceriņu iela 9a - 15":{"address":"Ceriņu iela 9A - 15","city":"Vecumnieki","zip":"LV-3933"},"ceriņu iela 9a - 16":{"address":"Ceriņu iela 9A - 16","city":"Vecumnieki","zip":"LV-3933"},"ceriņu iela 10 - 1":{"address":"Ceriņu iela 10 - 1","city":"Vecumnieki","zip":"LV-3933"},"ceriņu iela 10 - 2":{"address":"Ceriņu iela 10 - 2","city":"Vecumnieki","zip":"LV-3933"},"ceriņu iela 10 - 3":{"address":"Ceriņu iela 10 - 3","city":"Vecumnieki","zip":"LV-3933"},"ceriņu iela 10 - 4":{"address":"Ceriņu iela 10 - 4","city":"Vecumnieki","zip":"LV-3933"},"ceriņu iela 10 - 5":{"address":"Ceriņu iela 10 - 5","city":"Vecumnieki","zip":"LV-3933"},"ceriņu iela 10 - 6":{"address":"Ceriņu iela 10 - 6","city":"Vecumnieki","zip":"LV-3933"},"ceriņu iela 10 - 7":{"address":"Ceriņu iela 10 - 7","city":"Vecumnieki","zip":"LV-3933"},"ceriņu iela 10 - 8":{"address":"Ceriņu iela 10 - 8","city":"Vecumnieki","zip":"LV-3933"},"ceriņu iela 10 - 9":{"address":"Ceriņu iela 10 - 9","city":"Vecumnieki","zip":"LV-3933"},"ceriņu iela 10 - 10":{"address":"Ceriņu iela 10 - 10","city":"Vecumnieki","zip":"LV-3933"},"ceriņu iela 10 - 11":{"address":"Ceriņu iela 10 - 11","city":"Vecumnieki","zip":"LV-3933"}}