{"ceriņi - 1":{"address":"Ceriņi - 1","city":"Krievlauki","zip":"LV-3621"},"ceriņi - 2":{"address":"Ceriņi - 2","city":"Krievlauki","zip":"LV-3621"},"ceriņi - 3":{"address":"Ceriņi - 3","city":"Augšlīgatne","zip":"LV-4108"},"ceriņi - 4":{"address":"Ceriņi - 4","city":"Augšlīgatne","zip":"LV-4108"},"ceriņi - 5":{"address":"Ceriņi - 5","city":"Ramata","zip":"LV-4216"},"ceriņi - 6":{"address":"Ceriņi - 6","city":"Ramata","zip":"LV-4216"},"ceriņi - 7":{"address":"Ceriņi - 7","city":"Ramata","zip":"LV-4216"},"ceriņi - 8":{"address":"Ceriņi - 8","city":"Ramata","zip":"LV-4216"},"ceriņi - 9":{"address":"Ceriņi - 9","city":"Ramata","zip":"LV-4216"},"ceriņi - 10":{"address":"Ceriņi - 10","city":"Ramata","zip":"LV-4216"},"ceriņi - 11":{"address":"Ceriņi - 11","city":"Ramata","zip":"LV-4216"},"ceriņi - 12":{"address":"Ceriņi - 12","city":"Ramata","zip":"LV-4216"},"ceriņi - 13":{"address":"Ceriņi - 13","city":"Ramata","zip":"LV-4216"},"ceriņi - 14":{"address":"Ceriņi - 14","city":"Ramata","zip":"LV-4216"},"ceriņi - 15":{"address":"Ceriņi - 15","city":"Ramata","zip":"LV-4216"},"ceriņi - 16":{"address":"Ceriņi - 16","city":"Ramata","zip":"LV-4216"},"ceriņi - 17":{"address":"Ceriņi - 17","city":"Ramata","zip":"LV-4216"},"ceriņi - 18":{"address":"Ceriņi - 18","city":"Ramata","zip":"LV-4216"},"ceriņi - 19":{"address":"Ceriņi - 19","city":"Ramata","zip":"LV-4216"},"ceriņi - 20":{"address":"Ceriņi - 20","city":"Ramata","zip":"LV-4216"},"ceriņi - 21":{"address":"Ceriņi - 21","city":"Ramata","zip":"LV-4216"},"ceriņi - 22":{"address":"Ceriņi - 22","city":"Ramata","zip":"LV-4216"},"ceriņi - 23":{"address":"Ceriņi - 23","city":"Ramata","zip":"LV-4216"},"ceriņi - 24":{"address":"Ceriņi - 24","city":"Ramata","zip":"LV-4216"},"ceriņi - 25":{"address":"Ceriņi - 25","city":"Ramata","zip":"LV-4216"},"ceriņi - 26":{"address":"Ceriņi - 26","city":"Ramata","zip":"LV-4216"},"ceriņi - 27":{"address":"Ceriņi - 27","city":"Ramata","zip":"LV-4216"},"ceriņi - 28":{"address":"Ceriņi - 28","city":"Ramata","zip":"LV-4216"},"ceriņi - 29":{"address":"Ceriņi - 29","city":"Ramata","zip":"LV-4216"},"ceriņi - 30":{"address":"Ceriņi - 30","city":"Ramata","zip":"LV-4216"},"ceriņi - 31":{"address":"Ceriņi - 31","city":"Ramata","zip":"LV-4216"},"ceriņi - 32":{"address":"Ceriņi - 32","city":"Ramata","zip":"LV-4216"},"ceriņi - 33":{"address":"Ceriņi - 33","city":"Ramata","zip":"LV-4216"},"ceriņi - 34":{"address":"Ceriņi - 34","city":"Ramata","zip":"LV-4216"},"ceriņi - 35":{"address":"Ceriņi - 35","city":"Ramata","zip":"LV-4216"},"ceriņi - 36":{"address":"Ceriņi - 36","city":"Ramata","zip":"LV-4216"},"lejas ceriņi - 1":{"address":"Lejas Ceriņi - 1","city":"Vecpiebalga","zip":"LV-4122"},"lejas ceriņi - 2":{"address":"Lejas Ceriņi - 2","city":"Vecpiebalga","zip":"LV-4122"},"lejas ceriņi - 3":{"address":"Lejas Ceriņi - 3","city":"Vecpiebalga","zip":"LV-4122"},"pētera upīša iela 1 - 1":{"address":"Pētera Upīša iela 1 - 1","city":"Ceriņi","zip":"LV-3701"},"pētera upīša iela 1 - 2":{"address":"Pētera Upīša iela 1 - 2","city":"Ceriņi","zip":"LV-3701"},"pētera upīša iela 1 - 3":{"address":"Pētera Upīša iela 1 - 3","city":"Ceriņi","zip":"LV-3701"},"pētera upīša iela 1 - 4":{"address":"Pētera Upīša iela 1 - 4","city":"Ceriņi","zip":"LV-3701"},"pētera upīša iela 1 - 5":{"address":"Pētera Upīša iela 1 - 5","city":"Ceriņi","zip":"LV-3701"},"pētera upīša iela 1 - 6":{"address":"Pētera Upīša iela 1 - 6","city":"Ceriņi","zip":"LV-3701"},"pētera upīša iela 1 - 7":{"address":"Pētera Upīša iela 1 - 7","city":"Ceriņi","zip":"LV-3701"},"pētera upīša iela 1 - 8":{"address":"Pētera Upīša iela 1 - 8","city":"Ceriņi","zip":"LV-3701"},"pētera upīša iela 1 - 9":{"address":"Pētera Upīša iela 1 - 9","city":"Ceriņi","zip":"LV-3701"},"pētera upīša iela 1 - 10":{"address":"Pētera Upīša iela 1 - 10","city":"Ceriņi","zip":"LV-3701"},"pētera upīša iela 1 - 11":{"address":"Pētera Upīša iela 1 - 11","city":"Ceriņi","zip":"LV-3701"},"pētera upīša iela 1 - 12":{"address":"Pētera Upīša iela 1 - 12","city":"Ceriņi","zip":"LV-3701"},"pētera upīša iela 1 - 13":{"address":"Pētera Upīša iela 1 - 13","city":"Ceriņi","zip":"LV-3701"},"pētera upīša iela 1 - 14":{"address":"Pētera Upīša iela 1 - 14","city":"Ceriņi","zip":"LV-3701"},"pētera upīša iela 1 - 15":{"address":"Pētera Upīša iela 1 - 15","city":"Ceriņi","zip":"LV-3701"},"pētera upīša iela 1 - 16":{"address":"Pētera Upīša iela 1 - 16","city":"Ceriņi","zip":"LV-3701"},"pētera upīša iela 1 - 17":{"address":"Pētera Upīša iela 1 - 17","city":"Ceriņi","zip":"LV-3701"},"pētera upīša iela 1 - 18":{"address":"Pētera Upīša iela 1 - 18","city":"Ceriņi","zip":"LV-3701"},"graudu iela 3 - 1":{"address":"Graudu iela 3 - 1","city":"Ceriņi","zip":"LV-3701"},"graudu iela 3 - 2":{"address":"Graudu iela 3 - 2","city":"Ceriņi","zip":"LV-3701"},"graudu iela 3 - 3":{"address":"Graudu iela 3 - 3","city":"Ceriņi","zip":"LV-3701"},"graudu iela 3 - 4":{"address":"Graudu iela 3 - 4","city":"Ceriņi","zip":"LV-3701"},"graudu iela 3 - 5":{"address":"Graudu iela 3 - 5","city":"Ceriņi","zip":"LV-3701"},"graudu iela 3 - 6":{"address":"Graudu iela 3 - 6","city":"Ceriņi","zip":"LV-3701"},"graudu iela 3 - 7":{"address":"Graudu iela 3 - 7","city":"Ceriņi","zip":"LV-3701"},"graudu iela 3 - 8":{"address":"Graudu iela 3 - 8","city":"Ceriņi","zip":"LV-3701"},"lauciņi - 1":{"address":"Lauciņi - 1","city":"Ceriņi","zip":"LV-3701"},"lauciņi - 2":{"address":"Lauciņi - 2","city":"Ceriņi","zip":"LV-3701"},"lauciņi - 3":{"address":"Lauciņi - 3","city":"Ceriņi","zip":"LV-3701"},"lauciņi - 4":{"address":"Lauciņi - 4","city":"Ceriņi","zip":"LV-3701"}}