{"ceļarāji - 1":{"address":"Ceļarāji - 1","city":"Dunalka","zip":"LV-3452"},"ceļarāji - 2":{"address":"Ceļarāji - 2","city":"Dunalka","zip":"LV-3452"},"ceļarāji - 3":{"address":"Ceļarāji - 3","city":"Dunalka","zip":"LV-3452"},"efejas - 1":{"address":"Efejas - 1","city":"Ceļa Kurtiši","zip":"LV-5481"},"efejas - 2":{"address":"Efejas - 2","city":"Ceļa Kurtiši","zip":"LV-5481"},"ceļameistari - 1":{"address":"Ceļameistari - 1","city":"Ķeipene","zip":"LV-5062"},"ceļameistari - 2":{"address":"Ceļameistari - 2","city":"Ķeipene","zip":"LV-5062"},"ceļameistari - 3":{"address":"Ceļameistari - 3","city":"Ķeipene","zip":"LV-5062"},"ceļameistari - 4":{"address":"Ceļameistari - 4","city":"Ķeipene","zip":"LV-5062"},"ceļa saltupi":{"address":"Ceļa Saltupi","city":"Velēna","zip":"LV-4415"},"ceļarāji":{"address":"Ceļarāji","city":"Dunalka","zip":"LV-3452"},"cēlāji":{"address":"Cēlāji","city":"Glāžšķūnis","zip":"LV-5016"},"ceļa sargi":{"address":"Ceļa Sargi","city":"Dalbe","zip":"LV-3018"},"cēlāji 2":{"address":"Cēlāji 2","city":"Carnikava","zip":"LV-2163"},"cēlāju iela 1":{"address":"Cēlāju iela 1","city":"Carnikava","zip":"LV-2163"},"cēlāju iela 5":{"address":"Cēlāju iela 5","city":"Carnikava","zip":"LV-2163"},"cēlāju iela 3":{"address":"Cēlāju iela 3","city":"Carnikava","zip":"LV-2163"},"cēlāju iela 4":{"address":"Cēlāju iela 4","city":"Carnikava","zip":"LV-2163"},"ceļavējš":{"address":"Ceļavējš","city":"Babīte","zip":"LV-2101"},"cēlāju iela 6":{"address":"Cēlāju iela 6","city":"Carnikava","zip":"LV-2163"},"cēlāju iela 2":{"address":"Cēlāju iela 2","city":"Carnikava","zip":"LV-2163"},"ceļa ēka 1":{"address":"Ceļa ēka 1","city":"Pārolaine","zip":"LV-2127"},"ceļa ēka":{"address":"Ceļa ēka","city":"Pārolaine","zip":"LV-2127"},"ceļāres 2a":{"address":"Ceļāres 2A","city":"Spilve","zip":"LV-2101"},"ceļa mājas":{"address":"Ceļa mājas","city":"Blūzmi","zip":"LV-4650"},"ceļāres 2b":{"address":"Ceļāres 2B","city":"Spilve","zip":"LV-2101"},"vojažs":{"address":"Vojažs","city":"Ceļa Onckuļi","zip":"LV-5334"},"cēlāju iela 10":{"address":"Cēlāju iela 10","city":"Carnikava","zip":"LV-2163"},"ceļa martinovi":{"address":"Ceļa Martinovi","city":"Kūkas","zip":"LV-5316"},"cēlāju iela 2a":{"address":"Cēlāju iela 2A","city":"Carnikava","zip":"LV-2163"},"ceļaine":{"address":"Ceļaine","city":"Kliškovas","zip":"LV-5318"},"ceļatekas":{"address":"Ceļatekas","city":"Lielā Puderova","zip":"LV-4611"},"dzirksteles":{"address":"Dzirksteles","city":"Ceļa Kurtiši","zip":"LV-5481"},"ceļastrauti":{"address":"Ceļastrauti","city":"Strautiņi","zip":"LV-4333"},"ceļa liepas":{"address":"Ceļa Liepas","city":"Šmeiļi","zip":"LV-4630"},"vecie ušacki":{"address":"Vecie Ušacki","city":"Ceļa Onckuļi","zip":"LV-5334"},"ušacki":{"address":"Ušacki","city":"Ceļa Onckuļi","zip":"LV-5334"}}