{"ceļmalas - 1":{"address":"Ceļmalas - 1","city":"Cīrava","zip":"LV-3453"},"ceļmalas - 2":{"address":"Ceļmalas - 2","city":"Cīrava","zip":"LV-3453"},"ceļmalas 2 - 1":{"address":"Ceļmalas 2 - 1","city":"Ceļmalas","zip":"LV-4417"},"ceļmalas 2 - 2":{"address":"Ceļmalas 2 - 2","city":"Ceļmalas","zip":"LV-4417"},"ceļmalas 2 - 3":{"address":"Ceļmalas 2 - 3","city":"Ceļmalas","zip":"LV-4417"},"ceļmalas 2 - 4":{"address":"Ceļmalas 2 - 4","city":"Ceļmalas","zip":"LV-4417"},"ceļmalas 2 - 10":{"address":"Ceļmalas 2 - 10","city":"Ceļmalas","zip":"LV-4417"},"ceļmalas 2 - 11":{"address":"Ceļmalas 2 - 11","city":"Ceļmalas","zip":"LV-4417"},"ceļmalas 2 - 12":{"address":"Ceļmalas 2 - 12","city":"Ceļmalas","zip":"LV-4417"},"ceļmalas 2 - 13":{"address":"Ceļmalas 2 - 13","city":"Ceļmalas","zip":"LV-4417"},"ceļmalas 2 - 5":{"address":"Ceļmalas 2 - 5","city":"Ceļmalas","zip":"LV-4417"},"ceļmalas 2 - 6":{"address":"Ceļmalas 2 - 6","city":"Ceļmalas","zip":"LV-4417"},"ceļmalas 2 - 7":{"address":"Ceļmalas 2 - 7","city":"Ceļmalas","zip":"LV-4417"},"ceļmalas 2 - 8":{"address":"Ceļmalas 2 - 8","city":"Ceļmalas","zip":"LV-4417"},"ceļmalas 2 - 9":{"address":"Ceļmalas 2 - 9","city":"Ceļmalas","zip":"LV-4417"},"ceļmalas 1 - 14":{"address":"Ceļmalas 1 - 14","city":"Ceļmalas","zip":"LV-4417"},"ceļmalas 1 - 17":{"address":"Ceļmalas 1 - 17","city":"Ceļmalas","zip":"LV-4417"},"ceļmalas 1 - 15":{"address":"Ceļmalas 1 - 15","city":"Ceļmalas","zip":"LV-4417"},"ceļmalas 1 - 18":{"address":"Ceļmalas 1 - 18","city":"Ceļmalas","zip":"LV-4417"},"ceļmalas 1 - 19":{"address":"Ceļmalas 1 - 19","city":"Ceļmalas","zip":"LV-4417"},"ceļmalas 1 - 20":{"address":"Ceļmalas 1 - 20","city":"Ceļmalas","zip":"LV-4417"},"ceļmalas 1 - 21":{"address":"Ceļmalas 1 - 21","city":"Ceļmalas","zip":"LV-4417"},"ceļmalas 1 - 16":{"address":"Ceļmalas 1 - 16","city":"Ceļmalas","zip":"LV-4417"},"ceļmalas 3 - 1":{"address":"Ceļmalas 3 - 1","city":"Ceļmalas","zip":"LV-4417"},"ceļmalas 3 - 2":{"address":"Ceļmalas 3 - 2","city":"Ceļmalas","zip":"LV-4417"},"ceļmalas 3 - 3":{"address":"Ceļmalas 3 - 3","city":"Ceļmalas","zip":"LV-4417"},"ceļmalas 3 - 4":{"address":"Ceļmalas 3 - 4","city":"Ceļmalas","zip":"LV-4417"},"ceļmalas 3 - 5":{"address":"Ceļmalas 3 - 5","city":"Ceļmalas","zip":"LV-4417"},"ceļmalas 3 - 6":{"address":"Ceļmalas 3 - 6","city":"Ceļmalas","zip":"LV-4417"},"ceļmalas 3 - 7":{"address":"Ceļmalas 3 - 7","city":"Ceļmalas","zip":"LV-4417"},"ceļmalas 3 - 8":{"address":"Ceļmalas 3 - 8","city":"Ceļmalas","zip":"LV-4417"},"ceļmalas 3 - 9":{"address":"Ceļmalas 3 - 9","city":"Ceļmalas","zip":"LV-4417"},"ceļmalas 3 - 10":{"address":"Ceļmalas 3 - 10","city":"Ceļmalas","zip":"LV-4417"},"ceļmalas 3 - 11":{"address":"Ceļmalas 3 - 11","city":"Ceļmalas","zip":"LV-4417"},"ceļmalas 3 - 12":{"address":"Ceļmalas 3 - 12","city":"Ceļmalas","zip":"LV-4417"},"ceļmalas 3 - 13":{"address":"Ceļmalas 3 - 13","city":"Ceļmalas","zip":"LV-4417"},"ceļmalas 3 - 14":{"address":"Ceļmalas 3 - 14","city":"Ceļmalas","zip":"LV-4417"},"ceļmalas 3 - 15":{"address":"Ceļmalas 3 - 15","city":"Ceļmalas","zip":"LV-4417"},"ceļmalas 3 - 16":{"address":"Ceļmalas 3 - 16","city":"Ceļmalas","zip":"LV-4417"},"ceļmalas 3 - 17":{"address":"Ceļmalas 3 - 17","city":"Ceļmalas","zip":"LV-4417"},"ceļmalas 3 - 18":{"address":"Ceļmalas 3 - 18","city":"Ceļmalas","zip":"LV-4417"},"ceļmalas 3 - 19":{"address":"Ceļmalas 3 - 19","city":"Ceļmalas","zip":"LV-4417"},"ceļmalas 3 - 20":{"address":"Ceļmalas 3 - 20","city":"Ceļmalas","zip":"LV-4417"},"ceļmalas 3 - 21":{"address":"Ceļmalas 3 - 21","city":"Ceļmalas","zip":"LV-4417"},"ceļmalas 3 - 22":{"address":"Ceļmalas 3 - 22","city":"Ceļmalas","zip":"LV-4417"},"ceļmalas 3 - 23":{"address":"Ceļmalas 3 - 23","city":"Ceļmalas","zip":"LV-4417"},"ceļmalas 3 - 24":{"address":"Ceļmalas 3 - 24","city":"Ceļmalas","zip":"LV-4417"},"ceļmalas 2 - 14":{"address":"Ceļmalas 2 - 14","city":"Ceļmalas","zip":"LV-4417"},"ceļmalas 2 - 15":{"address":"Ceļmalas 2 - 15","city":"Ceļmalas","zip":"LV-4417"},"ceļmalas 2 - 16":{"address":"Ceļmalas 2 - 16","city":"Ceļmalas","zip":"LV-4417"},"ceļmalas - 3":{"address":"Ceļmalas - 3","city":"Cīrava","zip":"LV-3453"},"ceļmalas - 4":{"address":"Ceļmalas - 4","city":"Penkule","zip":"LV-3725"},"ceļmalas - 5":{"address":"Ceļmalas - 5","city":"Gravas","zip":"LV-4013"},"ceļmalas - 6":{"address":"Ceļmalas - 6","city":"Litene","zip":"LV-4405"},"ceļmalas - 7":{"address":"Ceļmalas - 7","city":"Litene","zip":"LV-4405"},"ceļmalas - 8":{"address":"Ceļmalas - 8","city":"Litene","zip":"LV-4405"},"ceļmalas - 9":{"address":"Ceļmalas - 9","city":"Litene","zip":"LV-4405"},"ceļmalas - 10":{"address":"Ceļmalas - 10","city":"Litene","zip":"LV-4405"},"ceļmalas - 11":{"address":"Ceļmalas - 11","city":"Litene","zip":"LV-4405"},"ceļmalas - 12":{"address":"Ceļmalas - 12","city":"Litene","zip":"LV-4405"},"ceļmalas - 13":{"address":"Ceļmalas - 13","city":"Ozolkalns","zip":"LV-4410"},"ceļmalas 1 - 1":{"address":"Ceļmalas 1 - 1","city":"Gravas","zip":"LV-4013"},"ceļmalas 1 - 2":{"address":"Ceļmalas 1 - 2","city":"Gravas","zip":"LV-4013"}}