{"milleru ceļš 6 - 1":{"address":"Milleru ceļš 6 - 1","city":"Zaļenieki","zip":"LV-3011"},"milleru ceļš 6 - 2":{"address":"Milleru ceļš 6 - 2","city":"Zaļenieki","zip":"LV-3011"},"milleru ceļš 6 - 3":{"address":"Milleru ceļš 6 - 3","city":"Zaļenieki","zip":"LV-3011"},"milleru ceļš 6 - 4":{"address":"Milleru ceļš 6 - 4","city":"Zaļenieki","zip":"LV-3011"},"milleru ceļš 6 - 5":{"address":"Milleru ceļš 6 - 5","city":"Zaļenieki","zip":"LV-3011"},"milleru ceļš 6 - 6":{"address":"Milleru ceļš 6 - 6","city":"Zaļenieki","zip":"LV-3011"},"milleru ceļš 6 - 7":{"address":"Milleru ceļš 6 - 7","city":"Zaļenieki","zip":"LV-3011"},"milleru ceļš 6 - 8":{"address":"Milleru ceļš 6 - 8","city":"Zaļenieki","zip":"LV-3011"},"milleru ceļš 6 - 9":{"address":"Milleru ceļš 6 - 9","city":"Zaļenieki","zip":"LV-3011"},"milleru ceļš 6 - 10":{"address":"Milleru ceļš 6 - 10","city":"Zaļenieki","zip":"LV-3011"},"milleru ceļš 6 - 11":{"address":"Milleru ceļš 6 - 11","city":"Zaļenieki","zip":"LV-3011"},"milleru ceļš 6 - 12":{"address":"Milleru ceļš 6 - 12","city":"Zaļenieki","zip":"LV-3011"},"milleru ceļš 6 - 13":{"address":"Milleru ceļš 6 - 13","city":"Zaļenieki","zip":"LV-3011"},"milleru ceļš 6 - 14":{"address":"Milleru ceļš 6 - 14","city":"Zaļenieki","zip":"LV-3011"},"milleru ceļš 6 - 15":{"address":"Milleru ceļš 6 - 15","city":"Zaļenieki","zip":"LV-3011"},"milleru ceļš 6 - 16":{"address":"Milleru ceļš 6 - 16","city":"Zaļenieki","zip":"LV-3011"},"milleru ceļš 6 - 17":{"address":"Milleru ceļš 6 - 17","city":"Zaļenieki","zip":"LV-3011"},"milleru ceļš 6 - 18":{"address":"Milleru ceļš 6 - 18","city":"Zaļenieki","zip":"LV-3011"},"milleru ceļš 6 - 19":{"address":"Milleru ceļš 6 - 19","city":"Zaļenieki","zip":"LV-3011"},"milleru ceļš 6 - 20":{"address":"Milleru ceļš 6 - 20","city":"Zaļenieki","zip":"LV-3011"},"milleru ceļš 6 - 21":{"address":"Milleru ceļš 6 - 21","city":"Zaļenieki","zip":"LV-3011"},"milleru ceļš 6 - 22":{"address":"Milleru ceļš 6 - 22","city":"Zaļenieki","zip":"LV-3011"},"milleru ceļš 6 - 23":{"address":"Milleru ceļš 6 - 23","city":"Zaļenieki","zip":"LV-3011"},"milleru ceļš 6 - 24":{"address":"Milleru ceļš 6 - 24","city":"Zaļenieki","zip":"LV-3011"},"milleru ceļš 6 - 25":{"address":"Milleru ceļš 6 - 25","city":"Zaļenieki","zip":"LV-3011"},"milleru ceļš 6 - 26":{"address":"Milleru ceļš 6 - 26","city":"Zaļenieki","zip":"LV-3011"},"milleru ceļš 2 - 1":{"address":"Milleru ceļš 2 - 1","city":"Zaļenieki","zip":"LV-3011"},"milleru ceļš 2 - 2":{"address":"Milleru ceļš 2 - 2","city":"Zaļenieki","zip":"LV-3011"},"milleru ceļš 2 - 3":{"address":"Milleru ceļš 2 - 3","city":"Zaļenieki","zip":"LV-3011"},"milleru ceļš 2 - 4":{"address":"Milleru ceļš 2 - 4","city":"Zaļenieki","zip":"LV-3011"},"milleru ceļš 2 - 5":{"address":"Milleru ceļš 2 - 5","city":"Zaļenieki","zip":"LV-3011"},"milleru ceļš 2 - 6":{"address":"Milleru ceļš 2 - 6","city":"Zaļenieki","zip":"LV-3011"},"milleru ceļš 2 - 7":{"address":"Milleru ceļš 2 - 7","city":"Zaļenieki","zip":"LV-3011"},"milleru ceļš 2 - 8":{"address":"Milleru ceļš 2 - 8","city":"Zaļenieki","zip":"LV-3011"},"milleru ceļš 2 - 9":{"address":"Milleru ceļš 2 - 9","city":"Zaļenieki","zip":"LV-3011"},"milleru ceļš 2 - 10":{"address":"Milleru ceļš 2 - 10","city":"Zaļenieki","zip":"LV-3011"},"milleru ceļš 2 - 11":{"address":"Milleru ceļš 2 - 11","city":"Zaļenieki","zip":"LV-3011"},"milleru ceļš 2 - 12":{"address":"Milleru ceļš 2 - 12","city":"Zaļenieki","zip":"LV-3011"},"milleru ceļš 2 - 13":{"address":"Milleru ceļš 2 - 13","city":"Zaļenieki","zip":"LV-3011"},"milleru ceļš 2 - 14":{"address":"Milleru ceļš 2 - 14","city":"Zaļenieki","zip":"LV-3011"},"milleru ceļš 2 - 15":{"address":"Milleru ceļš 2 - 15","city":"Zaļenieki","zip":"LV-3011"},"milleru ceļš 2 - 16":{"address":"Milleru ceļš 2 - 16","city":"Zaļenieki","zip":"LV-3011"},"milleru ceļš 2 - 17":{"address":"Milleru ceļš 2 - 17","city":"Zaļenieki","zip":"LV-3011"},"milleru ceļš 2 - 18":{"address":"Milleru ceļš 2 - 18","city":"Zaļenieki","zip":"LV-3011"},"milleru ceļš 2 - 19":{"address":"Milleru ceļš 2 - 19","city":"Zaļenieki","zip":"LV-3011"},"milleru ceļš 2 - 20":{"address":"Milleru ceļš 2 - 20","city":"Zaļenieki","zip":"LV-3011"},"milleru ceļš 2 - 21":{"address":"Milleru ceļš 2 - 21","city":"Zaļenieki","zip":"LV-3011"},"milleru ceļš 2 - 22":{"address":"Milleru ceļš 2 - 22","city":"Zaļenieki","zip":"LV-3011"},"milleru ceļš 2 - 23":{"address":"Milleru ceļš 2 - 23","city":"Zaļenieki","zip":"LV-3011"},"milleru ceļš 2 - 24":{"address":"Milleru ceļš 2 - 24","city":"Zaļenieki","zip":"LV-3011"},"milleru ceļš 2 - 25":{"address":"Milleru ceļš 2 - 25","city":"Zaļenieki","zip":"LV-3011"},"milleru ceļš 2 - 26":{"address":"Milleru ceļš 2 - 26","city":"Zaļenieki","zip":"LV-3011"},"milleru ceļš 2 - 27":{"address":"Milleru ceļš 2 - 27","city":"Zaļenieki","zip":"LV-3011"},"kastaņu ceļš 15 - 9":{"address":"Kastaņu ceļš 15 - 9","city":"Zaļenieki","zip":"LV-3011"},"kastaņu ceļš 15 - 8":{"address":"Kastaņu ceļš 15 - 8","city":"Zaļenieki","zip":"LV-3011"},"kastaņu ceļš 15 - 7":{"address":"Kastaņu ceļš 15 - 7","city":"Zaļenieki","zip":"LV-3011"},"kastaņu ceļš 15 - 12":{"address":"Kastaņu ceļš 15 - 12","city":"Zaļenieki","zip":"LV-3011"},"kastaņu ceļš 15 - 11":{"address":"Kastaņu ceļš 15 - 11","city":"Zaļenieki","zip":"LV-3011"},"kastaņu ceļš 15 - 10":{"address":"Kastaņu ceļš 15 - 10","city":"Zaļenieki","zip":"LV-3011"},"kastaņu ceļš 15 - 3":{"address":"Kastaņu ceļš 15 - 3","city":"Zaļenieki","zip":"LV-3011"},"kastaņu ceļš 15 - 2":{"address":"Kastaņu ceļš 15 - 2","city":"Zaļenieki","zip":"LV-3011"},"kastaņu ceļš 15 - 1":{"address":"Kastaņu ceļš 15 - 1","city":"Zaļenieki","zip":"LV-3011"},"kastaņu ceļš 15 - 6":{"address":"Kastaņu ceļš 15 - 6","city":"Zaļenieki","zip":"LV-3011"},"kastaņu ceļš 15 - 5":{"address":"Kastaņu ceļš 15 - 5","city":"Zaļenieki","zip":"LV-3011"},"kastaņu ceļš 15 - 4":{"address":"Kastaņu ceļš 15 - 4","city":"Zaļenieki","zip":"LV-3011"},"milleru ceļš 5 - 1":{"address":"Milleru ceļš 5 - 1","city":"Zaļenieki","zip":"LV-3011"},"milleru ceļš 5 - 2":{"address":"Milleru ceļš 5 - 2","city":"Zaļenieki","zip":"LV-3011"},"milleru ceļš 5 - 3":{"address":"Milleru ceļš 5 - 3","city":"Zaļenieki","zip":"LV-3011"},"milleru ceļš 5 - 4":{"address":"Milleru ceļš 5 - 4","city":"Zaļenieki","zip":"LV-3011"},"milleru ceļš 5 - 5":{"address":"Milleru ceļš 5 - 5","city":"Zaļenieki","zip":"LV-3011"},"milleru ceļš 5 - 6":{"address":"Milleru ceļš 5 - 6","city":"Zaļenieki","zip":"LV-3011"},"milleru ceļš 5 - 7":{"address":"Milleru ceļš 5 - 7","city":"Zaļenieki","zip":"LV-3011"},"milleru ceļš 5 - 8":{"address":"Milleru ceļš 5 - 8","city":"Zaļenieki","zip":"LV-3011"}}