{"dūži - 1":{"address":"Dūži - 1","city":"Kalnsētas","zip":"LV-3851"},"dūži - 2":{"address":"Dūži - 2","city":"Kalnsētas","zip":"LV-3851"},"dūži - 3":{"address":"Dūži - 3","city":"Kalnsētas","zip":"LV-3851"},"dūži - 4":{"address":"Dūži - 4","city":"Kalnsētas","zip":"LV-3851"},"laktiņas - 1":{"address":"Laktiņas - 1","city":"Emburga","zip":"LV-3851"},"laktiņas - 2":{"address":"Laktiņas - 2","city":"Emburga","zip":"LV-3851"},"laktiņas - 3":{"address":"Laktiņas - 3","city":"Emburga","zip":"LV-3851"},"dzirnavas - 1":{"address":"Dzirnavas - 1","city":"Kalnsētas","zip":"LV-3851"},"dzirnavas - 2":{"address":"Dzirnavas - 2","city":"Kalnsētas","zip":"LV-3851"},"dzirnavas - 3":{"address":"Dzirnavas - 3","city":"Kalnsētas","zip":"LV-3851"},"seski - 1":{"address":"Seski - 1","city":"Oškalni","zip":"LV-3851"},"seski - 2":{"address":"Seski - 2","city":"Oškalni","zip":"LV-3851"},"seski - 3":{"address":"Seski - 3","city":"Oškalni","zip":"LV-3851"},"seski - 4":{"address":"Seski - 4","city":"Oškalni","zip":"LV-3851"},"seski - 5":{"address":"Seski - 5","city":"Oškalni","zip":"LV-3851"},"seski - 6":{"address":"Seski - 6","city":"Oškalni","zip":"LV-3851"},"seski - 7":{"address":"Seski - 7","city":"Oškalni","zip":"LV-3851"},"seski - 8":{"address":"Seski - 8","city":"Oškalni","zip":"LV-3851"},"seski - 9":{"address":"Seski - 9","city":"Oškalni","zip":"LV-3851"},"seski - 10":{"address":"Seski - 10","city":"Oškalni","zip":"LV-3851"},"seski - 11":{"address":"Seski - 11","city":"Oškalni","zip":"LV-3851"},"mērnieki - 1":{"address":"Mērnieki - 1","city":"Oškalni","zip":"LV-3851"},"mērnieki - 2":{"address":"Mērnieki - 2","city":"Oškalni","zip":"LV-3851"},"ziediņi - 1":{"address":"Ziediņi - 1","city":"Oškalni","zip":"LV-3851"},"ziediņi - 2":{"address":"Ziediņi - 2","city":"Oškalni","zip":"LV-3851"},"cieceres dzirnavas - 1":{"address":"Cieceres dzirnavas - 1","city":"Kalnsētas","zip":"LV-3851"},"cieceres dzirnavas - 2":{"address":"Cieceres dzirnavas - 2","city":"Kalnsētas","zip":"LV-3851"},"cieceres dzirnavas - 3":{"address":"Cieceres dzirnavas - 3","city":"Kalnsētas","zip":"LV-3851"},"deģi 1 - 1":{"address":"Deģi 1 - 1","city":"Emburga","zip":"LV-3851"},"deģi 1 - 2":{"address":"Deģi 1 - 2","city":"Emburga","zip":"LV-3851"},"deģi 1 - 3":{"address":"Deģi 1 - 3","city":"Emburga","zip":"LV-3851"},"deģi 1 - 4":{"address":"Deģi 1 - 4","city":"Emburga","zip":"LV-3851"},"deģi 2 - 1":{"address":"Deģi 2 - 1","city":"Emburga","zip":"LV-3851"},"deģi 2 - 2":{"address":"Deģi 2 - 2","city":"Emburga","zip":"LV-3851"},"deģi 2 - 3":{"address":"Deģi 2 - 3","city":"Emburga","zip":"LV-3851"},"deģi 2 - 4":{"address":"Deģi 2 - 4","city":"Emburga","zip":"LV-3851"},"deģi 2 - 5":{"address":"Deģi 2 - 5","city":"Emburga","zip":"LV-3851"},"pilskalna iela 19 - 1":{"address":"Pilskalna iela 19 - 1","city":"Oškalni","zip":"LV-3851"},"pilskalna iela 19 - 2":{"address":"Pilskalna iela 19 - 2","city":"Oškalni","zip":"LV-3851"},"oškalni - 1":{"address":"Oškalni - 1","city":"Oškalni","zip":"LV-3851"},"oškalni - 2":{"address":"Oškalni - 2","city":"Oškalni","zip":"LV-3851"},"oškalni - 3":{"address":"Oškalni - 3","city":"Oškalni","zip":"LV-3851"},"oškalni - 4":{"address":"Oškalni - 4","city":"Oškalni","zip":"LV-3851"},"oškalni - 8":{"address":"Oškalni - 8","city":"Oškalni","zip":"LV-3851"},"oškalni - 5":{"address":"Oškalni - 5","city":"Oškalni","zip":"LV-3851"},"oškalni - 6":{"address":"Oškalni - 6","city":"Oškalni","zip":"LV-3851"},"oškalni - 7":{"address":"Oškalni - 7","city":"Oškalni","zip":"LV-3851"},"raiņa iela 1 - 1":{"address":"Raiņa iela 1 - 1","city":"Lielciecere","zip":"LV-3851"},"raiņa iela 1 - 2":{"address":"Raiņa iela 1 - 2","city":"Lielciecere","zip":"LV-3851"},"raiņa iela 1 - 3":{"address":"Raiņa iela 1 - 3","city":"Lielciecere","zip":"LV-3851"},"raiņa iela 1 - 5":{"address":"Raiņa iela 1 - 5","city":"Lielciecere","zip":"LV-3851"},"raiņa iela 1 - 6":{"address":"Raiņa iela 1 - 6","city":"Lielciecere","zip":"LV-3851"},"raiņa iela 1 - 7":{"address":"Raiņa iela 1 - 7","city":"Lielciecere","zip":"LV-3851"},"raiņa iela 1 - 8":{"address":"Raiņa iela 1 - 8","city":"Lielciecere","zip":"LV-3851"},"raiņa iela 1 - 4":{"address":"Raiņa iela 1 - 4","city":"Lielciecere","zip":"LV-3851"},"raiņa iela 3 - 1":{"address":"Raiņa iela 3 - 1","city":"Lielciecere","zip":"LV-3851"},"raiņa iela 3 - 2":{"address":"Raiņa iela 3 - 2","city":"Lielciecere","zip":"LV-3851"},"raiņa iela 3 - 3":{"address":"Raiņa iela 3 - 3","city":"Lielciecere","zip":"LV-3851"},"raiņa iela 3 - 4":{"address":"Raiņa iela 3 - 4","city":"Lielciecere","zip":"LV-3851"},"raiņa iela 3 - 5":{"address":"Raiņa iela 3 - 5","city":"Lielciecere","zip":"LV-3851"},"raiņa iela 3 - 6":{"address":"Raiņa iela 3 - 6","city":"Lielciecere","zip":"LV-3851"},"raiņa iela 3 - 7":{"address":"Raiņa iela 3 - 7","city":"Lielciecere","zip":"LV-3851"},"raiņa iela 3 - 8":{"address":"Raiņa iela 3 - 8","city":"Lielciecere","zip":"LV-3851"},"raiņa iela 3 - 9":{"address":"Raiņa iela 3 - 9","city":"Lielciecere","zip":"LV-3851"},"raiņa iela 3 - 10":{"address":"Raiņa iela 3 - 10","city":"Lielciecere","zip":"LV-3851"},"raiņa iela 3 - 11":{"address":"Raiņa iela 3 - 11","city":"Lielciecere","zip":"LV-3851"},"raiņa iela 3 - 12":{"address":"Raiņa iela 3 - 12","city":"Lielciecere","zip":"LV-3851"},"cieceres iela 1 - 1":{"address":"Cieceres iela 1 - 1","city":"Emburga","zip":"LV-3851"},"cieceres iela 1 - 2":{"address":"Cieceres iela 1 - 2","city":"Emburga","zip":"LV-3851"},"cieceres iela 1 - 3":{"address":"Cieceres iela 1 - 3","city":"Emburga","zip":"LV-3851"},"cieceres iela 1 - 4":{"address":"Cieceres iela 1 - 4","city":"Emburga","zip":"LV-3851"},"cieceres iela 1 - 5":{"address":"Cieceres iela 1 - 5","city":"Emburga","zip":"LV-3851"},"cieceres iela 1 - 6":{"address":"Cieceres iela 1 - 6","city":"Emburga","zip":"LV-3851"},"cieceres iela 1 - 7":{"address":"Cieceres iela 1 - 7","city":"Emburga","zip":"LV-3851"},"cieceres iela 1 - 8":{"address":"Cieceres iela 1 - 8","city":"Emburga","zip":"LV-3851"},"cieceres iela 2 - 1":{"address":"Cieceres iela 2 - 1","city":"Emburga","zip":"LV-3851"},"cieceres iela 2 - 2":{"address":"Cieceres iela 2 - 2","city":"Emburga","zip":"LV-3851"},"cieceres iela 2 - 3":{"address":"Cieceres iela 2 - 3","city":"Emburga","zip":"LV-3851"},"cieceres iela 2 - 4":{"address":"Cieceres iela 2 - 4","city":"Emburga","zip":"LV-3851"},"cieceres iela 2 - 5":{"address":"Cieceres iela 2 - 5","city":"Emburga","zip":"LV-3851"},"cieceres iela 2 - 6":{"address":"Cieceres iela 2 - 6","city":"Emburga","zip":"LV-3851"},"cieceres iela 2 - 7":{"address":"Cieceres iela 2 - 7","city":"Emburga","zip":"LV-3851"},"cieceres iela 2 - 8":{"address":"Cieceres iela 2 - 8","city":"Emburga","zip":"LV-3851"},"vārpu iela 3 - 1":{"address":"Vārpu iela 3 - 1","city":"Emburga","zip":"LV-3851"},"vārpu iela 3 - 2":{"address":"Vārpu iela 3 - 2","city":"Emburga","zip":"LV-3851"},"vārpu iela 3 - 3":{"address":"Vārpu iela 3 - 3","city":"Emburga","zip":"LV-3851"},"vārpu iela 3 - 4":{"address":"Vārpu iela 3 - 4","city":"Emburga","zip":"LV-3851"},"vārpu iela 3 - 5":{"address":"Vārpu iela 3 - 5","city":"Emburga","zip":"LV-3851"},"vārpu iela 3 - 6":{"address":"Vārpu iela 3 - 6","city":"Emburga","zip":"LV-3851"},"vārpu iela 3 - 7":{"address":"Vārpu iela 3 - 7","city":"Emburga","zip":"LV-3851"},"vārpu iela 3 - 8":{"address":"Vārpu iela 3 - 8","city":"Emburga","zip":"LV-3851"},"vārpu iela 3 - 9":{"address":"Vārpu iela 3 - 9","city":"Emburga","zip":"LV-3851"},"vārpu iela 3 - 10":{"address":"Vārpu iela 3 - 10","city":"Emburga","zip":"LV-3851"},"vārpu iela 3 - 11":{"address":"Vārpu iela 3 - 11","city":"Emburga","zip":"LV-3851"},"vārpu iela 3 - 12":{"address":"Vārpu iela 3 - 12","city":"Emburga","zip":"LV-3851"},"vārpu iela 3 - 13":{"address":"Vārpu iela 3 - 13","city":"Emburga","zip":"LV-3851"},"vārpu iela 3 - 14":{"address":"Vārpu iela 3 - 14","city":"Emburga","zip":"LV-3851"},"vārpu iela 3 - 15":{"address":"Vārpu iela 3 - 15","city":"Emburga","zip":"LV-3851"}}