{"ciedru iela 2 - 1":{"address":"Ciedru iela 2 - 1","city":"Mežciems","zip":"LV-3001"},"ciedru iela 2 - 2":{"address":"Ciedru iela 2 - 2","city":"Mežciems","zip":"LV-3001"},"ciedru iela 2 - 3":{"address":"Ciedru iela 2 - 3","city":"Mežciems","zip":"LV-3001"},"ciedru iela 2 - 4":{"address":"Ciedru iela 2 - 4","city":"Mežciems","zip":"LV-3001"},"ciedru iela 2 - 5":{"address":"Ciedru iela 2 - 5","city":"Mežciems","zip":"LV-3001"},"ciedru iela 2 - 6":{"address":"Ciedru iela 2 - 6","city":"Mežciems","zip":"LV-3001"},"ciedru iela 2 - 7":{"address":"Ciedru iela 2 - 7","city":"Mežciems","zip":"LV-3001"},"ciedru iela 2 - 8":{"address":"Ciedru iela 2 - 8","city":"Mežciems","zip":"LV-3001"},"ciedru iela 2 - 9":{"address":"Ciedru iela 2 - 9","city":"Mežciems","zip":"LV-3001"},"ciedru iela 2 - 10":{"address":"Ciedru iela 2 - 10","city":"Mežciems","zip":"LV-3001"},"ciedru iela 2 - 11":{"address":"Ciedru iela 2 - 11","city":"Mežciems","zip":"LV-3001"},"ciedru iela 2 - 12":{"address":"Ciedru iela 2 - 12","city":"Mežciems","zip":"LV-3001"},"ciedru iela 2 - 1n":{"address":"Ciedru iela 2 - 1N","city":"Mežciems","zip":"LV-3001"},"ciedru iela 2 - 2n":{"address":"Ciedru iela 2 - 2N","city":"Mežciems","zip":"LV-3001"},"ciedru iela 12 - 1":{"address":"Ciedru iela 12 - 1","city":"Mežciems","zip":"LV-3001"},"ciedru iela 12 - 2":{"address":"Ciedru iela 12 - 2","city":"Mežciems","zip":"LV-3001"},"ciedru iela 12 - 3":{"address":"Ciedru iela 12 - 3","city":"Mežciems","zip":"LV-3001"},"ciedru iela 12 - 4":{"address":"Ciedru iela 12 - 4","city":"Mežciems","zip":"LV-3001"},"ciedru iela 12 - 5":{"address":"Ciedru iela 12 - 5","city":"Mežciems","zip":"LV-3001"},"ciedru iela 12 - 6":{"address":"Ciedru iela 12 - 6","city":"Mežciems","zip":"LV-3001"},"ciedru iela 14 - 21":{"address":"Ciedru iela 14 - 21","city":"Mežciems","zip":"LV-3001"},"ciedru iela 14 - 1":{"address":"Ciedru iela 14 - 1","city":"Mežciems","zip":"LV-3001"},"ciedru iela 14 - 2":{"address":"Ciedru iela 14 - 2","city":"Mežciems","zip":"LV-3001"},"ciedru iela 14 - 3":{"address":"Ciedru iela 14 - 3","city":"Mežciems","zip":"LV-3001"},"ciedru iela 14 - 4":{"address":"Ciedru iela 14 - 4","city":"Mežciems","zip":"LV-3001"},"ciedru iela 14 - 5":{"address":"Ciedru iela 14 - 5","city":"Mežciems","zip":"LV-3001"},"ciedru iela 14 - 6":{"address":"Ciedru iela 14 - 6","city":"Mežciems","zip":"LV-3001"},"ciedru iela 14 - 7":{"address":"Ciedru iela 14 - 7","city":"Mežciems","zip":"LV-3001"},"ciedru iela 14 - 8":{"address":"Ciedru iela 14 - 8","city":"Mežciems","zip":"LV-3001"},"ciedru iela 14 - 9":{"address":"Ciedru iela 14 - 9","city":"Mežciems","zip":"LV-3001"},"ciedru iela 14 - 10":{"address":"Ciedru iela 14 - 10","city":"Mežciems","zip":"LV-3001"},"ciedru iela 14 - 11":{"address":"Ciedru iela 14 - 11","city":"Mežciems","zip":"LV-3001"},"ciedru iela 14 - 12":{"address":"Ciedru iela 14 - 12","city":"Mežciems","zip":"LV-3001"},"ciedru iela 14 - 13":{"address":"Ciedru iela 14 - 13","city":"Mežciems","zip":"LV-3001"},"ciedru iela 14 - 14":{"address":"Ciedru iela 14 - 14","city":"Mežciems","zip":"LV-3001"},"ciedru iela 14 - 15":{"address":"Ciedru iela 14 - 15","city":"Mežciems","zip":"LV-3001"},"ciedru iela 14 - 16":{"address":"Ciedru iela 14 - 16","city":"Mežciems","zip":"LV-3001"},"ciedru iela 14 - 17":{"address":"Ciedru iela 14 - 17","city":"Mežciems","zip":"LV-3001"},"ciedru iela 14 - 18":{"address":"Ciedru iela 14 - 18","city":"Mežciems","zip":"LV-3001"},"ciedru iela 14 - 19":{"address":"Ciedru iela 14 - 19","city":"Mežciems","zip":"LV-3001"},"ciedru iela 14 - 20":{"address":"Ciedru iela 14 - 20","city":"Mežciems","zip":"LV-3001"},"ciedru iela 14 - 22":{"address":"Ciedru iela 14 - 22","city":"Mežciems","zip":"LV-3001"},"ciedru iela 14 - 23":{"address":"Ciedru iela 14 - 23","city":"Mežciems","zip":"LV-3001"},"ciedru iela 14 - 24":{"address":"Ciedru iela 14 - 24","city":"Mežciems","zip":"LV-3001"},"ciedru iela 4 - 1":{"address":"Ciedru iela 4 - 1","city":"Mežciems","zip":"LV-3001"},"ciedru iela 4 - 2":{"address":"Ciedru iela 4 - 2","city":"Mežciems","zip":"LV-3001"},"ciedru iela 4 - 3":{"address":"Ciedru iela 4 - 3","city":"Mežciems","zip":"LV-3001"},"ciedru iela 4 - 4":{"address":"Ciedru iela 4 - 4","city":"Mežciems","zip":"LV-3001"},"ciedru iela 4 - 5":{"address":"Ciedru iela 4 - 5","city":"Mežciems","zip":"LV-3001"},"ciedru iela 4 - 6":{"address":"Ciedru iela 4 - 6","city":"Mežciems","zip":"LV-3001"},"ciedru iela 4 - 7":{"address":"Ciedru iela 4 - 7","city":"Mežciems","zip":"LV-3001"},"ciedru iela 4 - 8":{"address":"Ciedru iela 4 - 8","city":"Mežciems","zip":"LV-3001"},"ciedru iela 6 - 14":{"address":"Ciedru iela 6 - 14","city":"Mežciems","zip":"LV-3001"},"ciedru iela 6 - 15":{"address":"Ciedru iela 6 - 15","city":"Mežciems","zip":"LV-3001"},"ciedru iela 6 - 16":{"address":"Ciedru iela 6 - 16","city":"Mežciems","zip":"LV-3001"},"ciedru iela 6 - 17":{"address":"Ciedru iela 6 - 17","city":"Mežciems","zip":"LV-3001"},"ciedru iela 6 - 18":{"address":"Ciedru iela 6 - 18","city":"Mežciems","zip":"LV-3001"},"ciedru iela 6 - 1":{"address":"Ciedru iela 6 - 1","city":"Mežciems","zip":"LV-3001"},"ciedru iela 6 - 2":{"address":"Ciedru iela 6 - 2","city":"Mežciems","zip":"LV-3001"},"ciedru iela 6 - 3":{"address":"Ciedru iela 6 - 3","city":"Mežciems","zip":"LV-3001"},"ciedru iela 6 - 4":{"address":"Ciedru iela 6 - 4","city":"Mežciems","zip":"LV-3001"},"ciedru iela 6 - 5":{"address":"Ciedru iela 6 - 5","city":"Mežciems","zip":"LV-3001"},"ciedru iela 6 - 6":{"address":"Ciedru iela 6 - 6","city":"Mežciems","zip":"LV-3001"},"ciedru iela 6 - 7":{"address":"Ciedru iela 6 - 7","city":"Mežciems","zip":"LV-3001"},"ciedru iela 6 - 8":{"address":"Ciedru iela 6 - 8","city":"Mežciems","zip":"LV-3001"},"ciedru iela 6 - 9":{"address":"Ciedru iela 6 - 9","city":"Mežciems","zip":"LV-3001"},"ciedru iela 6 - 10":{"address":"Ciedru iela 6 - 10","city":"Mežciems","zip":"LV-3001"},"ciedru iela 6 - 11":{"address":"Ciedru iela 6 - 11","city":"Mežciems","zip":"LV-3001"},"ciedru iela 6 - 12":{"address":"Ciedru iela 6 - 12","city":"Mežciems","zip":"LV-3001"},"ciedru iela 6 - 13":{"address":"Ciedru iela 6 - 13","city":"Mežciems","zip":"LV-3001"},"ciedrukalns":{"address":"Ciedrukalns","city":"Sinole","zip":"LV-4412"},"ciedru iela 2":{"address":"Ciedru iela 2","city":"Mežciems","zip":"LV-3001"}}