{"ciemiņi - 1":{"address":"Ciemiņi - 1","city":"Šķaune","zip":"LV-5695"},"ciemiņi - 2":{"address":"Ciemiņi - 2","city":"Šķaune","zip":"LV-5695"},"ciemiņi - 3":{"address":"Ciemiņi - 3","city":"Šķaune","zip":"LV-5695"},"ciemiņi - 4":{"address":"Ciemiņi - 4","city":"Šķaune","zip":"LV-5695"},"ciemiņi - 5":{"address":"Ciemiņi - 5","city":"Šķaune","zip":"LV-5695"},"ciemiņi - 6":{"address":"Ciemiņi - 6","city":"Šķaune","zip":"LV-5695"},"ciemiņi - 7":{"address":"Ciemiņi - 7","city":"Šķaune","zip":"LV-5695"},"ciemiņi - 8":{"address":"Ciemiņi - 8","city":"Šķaune","zip":"LV-5695"},"ciemiņi - 1a":{"address":"Ciemiņi - 1A","city":"Spāre","zip":"LV-3298"},"ciemiņi - 9":{"address":"Ciemiņi - 9","city":"Šķaune","zip":"LV-5695"},"ciemiņi - 10":{"address":"Ciemiņi - 10","city":"Šķaune","zip":"LV-5695"},"ciemiņi - 11":{"address":"Ciemiņi - 11","city":"Šķaune","zip":"LV-5695"},"ciemiņi - 12":{"address":"Ciemiņi - 12","city":"Šķaune","zip":"LV-5695"},"ciemiņi":{"address":"Ciemiņi","city":"Būmaņi","zip":"LV-5328"}}