{"cīrulīši - 1":{"address":"Cīrulīši - 1","city":"Rokasbirze","zip":"LV-3456"},"cīrulīši - 2":{"address":"Cīrulīši - 2","city":"Rokasbirze","zip":"LV-3456"},"cīrulīši - 3":{"address":"Cīrulīši - 3","city":"Rokasbirze","zip":"LV-3456"},"cīrulīši - 4":{"address":"Cīrulīši - 4","city":"Rokasbirze","zip":"LV-3456"},"cīrulīši - 5":{"address":"Cīrulīši - 5","city":"Rokasbirze","zip":"LV-3456"},"cīrulīši - 6":{"address":"Cīrulīši - 6","city":"Rokasbirze","zip":"LV-3456"},"cīrulīši - 7":{"address":"Cīrulīši - 7","city":"Vilpulka","zip":"LV-4241"},"cīrulīši - 8":{"address":"Cīrulīši - 8","city":"Vilpulka","zip":"LV-4241"},"cīrulīši - 9":{"address":"Cīrulīši - 9","city":"Vilpulka","zip":"LV-4241"},"cīrulīši - 10":{"address":"Cīrulīši - 10","city":"Vilpulka","zip":"LV-4241"},"cīrulīši - 11":{"address":"Cīrulīši - 11","city":"Vilpulka","zip":"LV-4241"},"cīrulīši - 12":{"address":"Cīrulīši - 12","city":"Vilpulka","zip":"LV-4241"},"cīrulīši - 13":{"address":"Cīrulīši - 13","city":"Vilpulka","zip":"LV-4241"},"cīrulīši - 14":{"address":"Cīrulīši - 14","city":"Vilpulka","zip":"LV-4241"},"cīrulīši - 15":{"address":"Cīrulīši - 15","city":"Vilpulka","zip":"LV-4241"},"cīrulīši - 16":{"address":"Cīrulīši - 16","city":"Vilpulka","zip":"LV-4241"},"cīrulīši - 17":{"address":"Cīrulīši - 17","city":"Vilpulka","zip":"LV-4241"},"cīrulīši - 18":{"address":"Cīrulīši - 18","city":"Vilpulka","zip":"LV-4241"},"cīrulīši - 19":{"address":"Cīrulīši - 19","city":"Vilpulka","zip":"LV-4241"},"cīrulīši - 20":{"address":"Cīrulīši - 20","city":"Vilpulka","zip":"LV-4241"},"cīrulīši - 21":{"address":"Cīrulīši - 21","city":"Vilpulka","zip":"LV-4241"},"cīrulīši - 22":{"address":"Cīrulīši - 22","city":"Vilpulka","zip":"LV-4241"},"cīrulīši - 23":{"address":"Cīrulīši - 23","city":"Vilpulka","zip":"LV-4241"},"cīrulīši - 24":{"address":"Cīrulīši - 24","city":"Vilpulka","zip":"LV-4241"},"cīruļi - 1":{"address":"Cīruļi - 1","city":"Ugāle","zip":"LV-3615"},"cīruļi - 2":{"address":"Cīruļi - 2","city":"Ugāle","zip":"LV-3615"},"zaļais krogs - 1":{"address":"Zaļais Krogs - 1","city":"Cīruļi","zip":"LV-3253"},"zaļais krogs - 2":{"address":"Zaļais Krogs - 2","city":"Cīruļi","zip":"LV-3253"},"bandzeri - 1":{"address":"Bandzeri - 1","city":"Cīruļi","zip":"LV-3253"},"bandzeri - 2":{"address":"Bandzeri - 2","city":"Cīruļi","zip":"LV-3253"},"āres - 1":{"address":"Āres - 1","city":"Cīruļi","zip":"LV-3253"},"āres - 2":{"address":"Āres - 2","city":"Cīruļi","zip":"LV-3253"},"āres - 3":{"address":"Āres - 3","city":"Cīruļi","zip":"LV-3253"},"āres - 4":{"address":"Āres - 4","city":"Cīruļi","zip":"LV-3253"},"audzes - 1":{"address":"Audzes - 1","city":"Cīruļi","zip":"LV-3253"},"audzes - 2":{"address":"Audzes - 2","city":"Cīruļi","zip":"LV-3253"},"audzes - 3":{"address":"Audzes - 3","city":"Cīruļi","zip":"LV-3253"},"audzes - 4":{"address":"Audzes - 4","city":"Cīruļi","zip":"LV-3253"},"cīruļu veikals - 2":{"address":"Cīruļu veikals - 2","city":"Cīruļi","zip":"LV-3253"},"cīruļkalēji - 1":{"address":"Cīruļkalēji - 1","city":"Cīruļi","zip":"LV-3253"},"cīruļkalēji - 2":{"address":"Cīruļkalēji - 2","city":"Cīruļi","zip":"LV-3253"},"alejas - 1":{"address":"Alejas - 1","city":"Cīruļi","zip":"LV-3253"},"alejas - 2":{"address":"Alejas - 2","city":"Cīruļi","zip":"LV-3253"},"alejas - 3":{"address":"Alejas - 3","city":"Cīruļi","zip":"LV-3253"}}