{"cīruļu mājas - 1":{"address":"Cīruļu mājas - 1","city":"Pleikšņi","zip":"LV-4601"},"cīruļu mājas - 2":{"address":"Cīruļu mājas - 2","city":"Pleikšņi","zip":"LV-4601"},"cīruļu iela 5 - 1":{"address":"Cīruļu iela 5 - 1","city":"Vecumnieki","zip":"LV-3933"},"cīruļu iela 5 - 2":{"address":"Cīruļu iela 5 - 2","city":"Vecumnieki","zip":"LV-3933"},"cīruļu iela 5 - 3":{"address":"Cīruļu iela 5 - 3","city":"Vecumnieki","zip":"LV-3933"},"cīruļu iela 5 - 4":{"address":"Cīruļu iela 5 - 4","city":"Vecumnieki","zip":"LV-3933"},"cīruļu iela 5 - 5":{"address":"Cīruļu iela 5 - 5","city":"Vecumnieki","zip":"LV-3933"},"cīruļu iela 5 - 6":{"address":"Cīruļu iela 5 - 6","city":"Vecumnieki","zip":"LV-3933"},"cīruļu iela 5 - 7":{"address":"Cīruļu iela 5 - 7","city":"Vecumnieki","zip":"LV-3933"},"cīruļu iela 5 - 8":{"address":"Cīruļu iela 5 - 8","city":"Vecumnieki","zip":"LV-3933"},"cīruļu iela 5 - 9":{"address":"Cīruļu iela 5 - 9","city":"Vecumnieki","zip":"LV-3933"},"cīruļu iela 5 - 10":{"address":"Cīruļu iela 5 - 10","city":"Vecumnieki","zip":"LV-3933"},"cīruļu iela 5 - 11":{"address":"Cīruļu iela 5 - 11","city":"Vecumnieki","zip":"LV-3933"},"cīruļu iela 5 - 12":{"address":"Cīruļu iela 5 - 12","city":"Vecumnieki","zip":"LV-3933"},"cīruļu iela 5 - 13":{"address":"Cīruļu iela 5 - 13","city":"Vecumnieki","zip":"LV-3933"},"cīruļu iela 5 - 14":{"address":"Cīruļu iela 5 - 14","city":"Vecumnieki","zip":"LV-3933"},"cīruļu iela 5 - 15":{"address":"Cīruļu iela 5 - 15","city":"Vecumnieki","zip":"LV-3933"},"cīruļu iela 5 - 17":{"address":"Cīruļu iela 5 - 17","city":"Vecumnieki","zip":"LV-3933"},"cīruļu iela 5 - 18":{"address":"Cīruļu iela 5 - 18","city":"Vecumnieki","zip":"LV-3933"},"cīruļu iela 5 - 16":{"address":"Cīruļu iela 5 - 16","city":"Vecumnieki","zip":"LV-3933"},"cīruļu veikals - 2":{"address":"Cīruļu veikals - 2","city":"Cīruļi","zip":"LV-3253"},"cīruļu iela 4 - 1":{"address":"Cīruļu iela 4 - 1","city":"Vētras","zip":"LV-2167"},"cīruļu iela 4 - 2":{"address":"Cīruļu iela 4 - 2","city":"Vētras","zip":"LV-2167"},"cīruļu iela 7 - 1":{"address":"Cīruļu iela 7 - 1","city":"Vētras","zip":"LV-2167"},"cīruļu iela 7 - 2":{"address":"Cīruļu iela 7 - 2","city":"Vētras","zip":"LV-2167"},"cīruļu iela 2 - 1":{"address":"Cīruļu iela 2 - 1","city":"Vētras","zip":"LV-2167"},"cīruļu iela 2 - 2":{"address":"Cīruļu iela 2 - 2","city":"Vētras","zip":"LV-2167"},"cīruļu iela 1 - 1":{"address":"Cīruļu iela 1 - 1","city":"Inčukalns","zip":"LV-2141"},"cīruļu iela 1 - 2":{"address":"Cīruļu iela 1 - 2","city":"Inčukalns","zip":"LV-2141"},"cīruļu iela 30 - 1":{"address":"Cīruļu iela 30 - 1","city":"Kalngale","zip":"LV-2163"},"cīruļu iela 30 - 2":{"address":"Cīruļu iela 30 - 2","city":"Kalngale","zip":"LV-2163"},"cīruļu iela 35 - 3":{"address":"Cīruļu iela 35 - 3","city":"Kalngale","zip":"LV-2163"},"cīruļu iela 35 - 6":{"address":"Cīruļu iela 35 - 6","city":"Kalngale","zip":"LV-2163"},"cīruļu iela 35 - 5":{"address":"Cīruļu iela 35 - 5","city":"Kalngale","zip":"LV-2163"},"cīruļu iela 35 - 2":{"address":"Cīruļu iela 35 - 2","city":"Kalngale","zip":"LV-2163"},"cīruļu iela 35 - 12":{"address":"Cīruļu iela 35 - 12","city":"Kalngale","zip":"LV-2163"},"cīruļu iela 35 - 11":{"address":"Cīruļu iela 35 - 11","city":"Kalngale","zip":"LV-2163"},"cīruļu iela 35 - 10":{"address":"Cīruļu iela 35 - 10","city":"Kalngale","zip":"LV-2163"},"cīruļu iela 35 - 1":{"address":"Cīruļu iela 35 - 1","city":"Kalngale","zip":"LV-2163"},"cīruļu iela 35 - 4":{"address":"Cīruļu iela 35 - 4","city":"Kalngale","zip":"LV-2163"},"cīruļu iela 35 - 7":{"address":"Cīruļu iela 35 - 7","city":"Kalngale","zip":"LV-2163"},"cīruļu iela 35 - 8":{"address":"Cīruļu iela 35 - 8","city":"Kalngale","zip":"LV-2163"},"cīruļu iela 35 - 9":{"address":"Cīruļu iela 35 - 9","city":"Kalngale","zip":"LV-2163"},"cīruļu iela 33 - 1":{"address":"Cīruļu iela 33 - 1","city":"Kalngale","zip":"LV-2163"},"cīruļu iela 33 - 2":{"address":"Cīruļu iela 33 - 2","city":"Kalngale","zip":"LV-2163"},"cīruļu iela 33 - 3":{"address":"Cīruļu iela 33 - 3","city":"Kalngale","zip":"LV-2163"},"cīruļu iela 33 - 4":{"address":"Cīruļu iela 33 - 4","city":"Kalngale","zip":"LV-2163"},"cīruļu iela 33 - 5":{"address":"Cīruļu iela 33 - 5","city":"Kalngale","zip":"LV-2163"},"cīruļu iela 33 - 6":{"address":"Cīruļu iela 33 - 6","city":"Kalngale","zip":"LV-2163"},"cīruļu iela 33 - 7":{"address":"Cīruļu iela 33 - 7","city":"Kalngale","zip":"LV-2163"},"cīruļu iela 33 - 8":{"address":"Cīruļu iela 33 - 8","city":"Kalngale","zip":"LV-2163"},"cīruļu iela 33 - 9":{"address":"Cīruļu iela 33 - 9","city":"Kalngale","zip":"LV-2163"},"cīruļu iela 33 - 10":{"address":"Cīruļu iela 33 - 10","city":"Kalngale","zip":"LV-2163"},"cīruļu iela 33 - 11":{"address":"Cīruļu iela 33 - 11","city":"Kalngale","zip":"LV-2163"},"cīruļu iela 33 - 12":{"address":"Cīruļu iela 33 - 12","city":"Kalngale","zip":"LV-2163"},"cīruļu iela 33 - 13":{"address":"Cīruļu iela 33 - 13","city":"Kalngale","zip":"LV-2163"},"cīruļu iela 33 - 14":{"address":"Cīruļu iela 33 - 14","city":"Kalngale","zip":"LV-2163"},"cīruļu iela 33 - 15":{"address":"Cīruļu iela 33 - 15","city":"Kalngale","zip":"LV-2163"},"cīruļu iela 33 - 16":{"address":"Cīruļu iela 33 - 16","city":"Kalngale","zip":"LV-2163"},"cīruļu iela 24 - 1":{"address":"Cīruļu iela 24 - 1","city":"Kadaga","zip":"LV-2103"},"cīruļu iela 24 - 2":{"address":"Cīruļu iela 24 - 2","city":"Kadaga","zip":"LV-2103"},"cīruļu iela 34 - 1":{"address":"Cīruļu iela 34 - 1","city":"Kadaga","zip":"LV-2103"},"cīruļu iela 34 - 2":{"address":"Cīruļu iela 34 - 2","city":"Kadaga","zip":"LV-2103"},"cīruļu iela 42 - 1":{"address":"Cīruļu iela 42 - 1","city":"Kadaga","zip":"LV-2103"},"cīruļu iela 42 - 2":{"address":"Cīruļu iela 42 - 2","city":"Kadaga","zip":"LV-2103"},"cīruļu iela 44 - 1":{"address":"Cīruļu iela 44 - 1","city":"Kadaga","zip":"LV-2103"},"cīruļu iela 44 - 2":{"address":"Cīruļu iela 44 - 2","city":"Kadaga","zip":"LV-2103"},"cīruļu mājas":{"address":"Cīruļu mājas","city":"Pleikšņi","zip":"LV-4601"},"cīruļu iela 5":{"address":"Cīruļu iela 5","city":"Vecumnieki","zip":"LV-3933"},"cīruļu iela 6":{"address":"Cīruļu iela 6","city":"Vecumnieki","zip":"LV-3933"},"cīruļu iela 7":{"address":"Cīruļu iela 7","city":"Vecumnieki","zip":"LV-3933"}}