{"cīrulīši - 1":{"address":"Cīrulīši - 1","city":"Jaunlazdona","zip":"LV-4801"},"cīrulīši - 2":{"address":"Cīrulīši - 2","city":"Jaunlazdona","zip":"LV-4801"},"cīrulīši - 3":{"address":"Cīrulīši - 3","city":"Jaunlazdona","zip":"LV-4801"},"cīrulīši - 4":{"address":"Cīrulīši - 4","city":"Jaunlazdona","zip":"LV-4801"},"cīrulīši - 5":{"address":"Cīrulīši - 5","city":"Jaunlazdona","zip":"LV-4801"},"cīrulīši - 6":{"address":"Cīrulīši - 6","city":"Jaunlazdona","zip":"LV-4801"},"cīrulīši - 7":{"address":"Cīrulīši - 7","city":"Jaunlazdona","zip":"LV-4801"},"cīrulīši - 8":{"address":"Cīrulīši - 8","city":"Jaunlazdona","zip":"LV-4801"},"cīrulīši - 9":{"address":"Cīrulīši - 9","city":"Jaunlazdona","zip":"LV-4801"},"cīrulīši - 10":{"address":"Cīrulīši - 10","city":"Jaunlazdona","zip":"LV-4801"},"cīrulīši - 11":{"address":"Cīrulīši - 11","city":"Jaunlazdona","zip":"LV-4801"},"cīrulīši - 12":{"address":"Cīrulīši - 12","city":"Bebrene","zip":"LV-5439"},"cīrulīši - 13":{"address":"Cīrulīši - 13","city":"Bebrene","zip":"LV-5439"},"cīrulīši - 14":{"address":"Cīrulīši - 14","city":"Bebrene","zip":"LV-5439"},"cīrulīši - 15":{"address":"Cīrulīši - 15","city":"Bebrene","zip":"LV-5439"},"cīrulīši - 16":{"address":"Cīrulīši - 16","city":"Bebrene","zip":"LV-5439"},"cīrulīši - 17":{"address":"Cīrulīši - 17","city":"Bebrene","zip":"LV-5439"},"cīrulīši - 18":{"address":"Cīrulīši - 18","city":"Bebrene","zip":"LV-5439"},"cīrulīši - 19":{"address":"Cīrulīši - 19","city":"Vilpulka","zip":"LV-4241"},"cīrulīši - 20":{"address":"Cīrulīši - 20","city":"Vilpulka","zip":"LV-4241"},"cīrulīši - 21":{"address":"Cīrulīši - 21","city":"Vilpulka","zip":"LV-4241"},"cīrulīši - 22":{"address":"Cīrulīši - 22","city":"Vilpulka","zip":"LV-4241"},"cīrulīši - 23":{"address":"Cīrulīši - 23","city":"Vilpulka","zip":"LV-4241"},"cīrulīši - 24":{"address":"Cīrulīši - 24","city":"Vilpulka","zip":"LV-4241"},"cīrulīši":{"address":"Cīrulīši","city":"Greiškāni","zip":"LV-4641"}}