{"dainas - 1":{"address":"Dainas - 1","city":"Pienava","zip":"LV-3147"},"dainas - 2":{"address":"Dainas - 2","city":"Pienava","zip":"LV-3147"},"dainas - 3":{"address":"Dainas - 3","city":"Pienava","zip":"LV-3147"},"dainas - 4":{"address":"Dainas - 4","city":"Pienava","zip":"LV-3147"},"dainas - 5":{"address":"Dainas - 5","city":"Pienava","zip":"LV-3147"},"dainas - 6":{"address":"Dainas - 6","city":"Pienava","zip":"LV-3147"},"dainas - 7":{"address":"Dainas - 7","city":"Pienava","zip":"LV-3147"},"dainas - 8":{"address":"Dainas - 8","city":"Pienava","zip":"LV-3147"},"dainas - 9":{"address":"Dainas - 9","city":"Pienava","zip":"LV-3147"},"dainas - 10":{"address":"Dainas - 10","city":"Pienava","zip":"LV-3147"},"dainas - 11":{"address":"Dainas - 11","city":"Pienava","zip":"LV-3147"},"dainas - 12":{"address":"Dainas - 12","city":"Pienava","zip":"LV-3147"},"dainas - 13":{"address":"Dainas - 13","city":"Gavieze","zip":"LV-3431"},"dainas - 14":{"address":"Dainas - 14","city":"Gavieze","zip":"LV-3431"},"dainas - 15":{"address":"Dainas - 15","city":"Gavieze","zip":"LV-3431"},"dainas - 16":{"address":"Dainas - 16","city":"Gavieze","zip":"LV-3431"},"dainas - 17":{"address":"Dainas - 17","city":"Gavieze","zip":"LV-3431"},"dainas - 18":{"address":"Dainas - 18","city":"Gavieze","zip":"LV-3431"},"dainas - 19":{"address":"Dainas - 19","city":"Gavieze","zip":"LV-3431"},"dainas - 20":{"address":"Dainas - 20","city":"Gavieze","zip":"LV-3431"},"dainas - 21":{"address":"Dainas - 21","city":"Gavieze","zip":"LV-3431"},"dainas - 22":{"address":"Dainas - 22","city":"Gavieze","zip":"LV-3431"},"dainas - 23":{"address":"Dainas - 23","city":"Gavieze","zip":"LV-3431"},"dainas - 24":{"address":"Dainas - 24","city":"Gavieze","zip":"LV-3431"},"cērkstes dainas - 1":{"address":"Cērkstes Dainas - 1","city":"Cērkste","zip":"LV-3129"},"cērkstes dainas - 2":{"address":"Cērkstes Dainas - 2","city":"Cērkste","zip":"LV-3129"}}