{"dekšņi - 1":{"address":"Dekšņi - 1","city":"Markova","zip":"LV-5462"},"dekšņi - 2":{"address":"Dekšņi - 2","city":"Markova","zip":"LV-5462"},"gundari":{"address":"Gundari","city":"Dekšņi","zip":"LV-4501"},"smaidu mājas":{"address":"Smaidu mājas","city":"Dekšņi","zip":"LV-4501"},"vecdekšņi":{"address":"Vecdekšņi","city":"Dekšņi","zip":"LV-4501"},"viesu māja dekšņi":{"address":"Viesu māja Dekšņi","city":"Topciems","zip":"LV-3614"},"dekšņi":{"address":"Dekšņi","city":"Stabļova","zip":"LV-4587"},"dekšņi 1":{"address":"Dekšņi 1","city":"Lielkursīši","zip":"LV-5335"},"dubnas dekšņi":{"address":"Dubnas Dekšņi","city":"Mazkursīši","zip":"LV-5335"},"deksnīši":{"address":"Deksnīši","city":"Mežavepri","zip":"LV-5701"},"zelmeņi 1":{"address":"Zelmeņi 1","city":"Dekšņi","zip":"LV-4625"},"apses":{"address":"Apses","city":"Dekšņi","zip":"LV-4625"},"bobri":{"address":"Bobri","city":"Dekšņi","zip":"LV-5440"},"egles":{"address":"Egles","city":"Dekšņi","zip":"LV-5440"},"jevgenija":{"address":"Jevgenija","city":"Dekšņi","zip":"LV-5440"},"ļesnoje":{"address":"Ļesnoje","city":"Dekšņi","zip":"LV-5440"},"zaļumi":{"address":"Zaļumi","city":"Dekšņi","zip":"LV-5440"},"korkleņi":{"address":"Korkleņi","city":"Dekšņi","zip":"LV-4625"},"pureņi":{"address":"Pureņi","city":"Dekšņi","zip":"LV-4625"},"ratnīki":{"address":"Ratnīki","city":"Dekšņi","zip":"LV-4625"},"deksnis":{"address":"Deksnis","city":"Stabļova","zip":"LV-4587"}}