{"deģi 1 - 1":{"address":"Deģi 1 - 1","city":"Emburga","zip":"LV-3851"},"deģi 1 - 2":{"address":"Deģi 1 - 2","city":"Emburga","zip":"LV-3851"},"deģi 1 - 3":{"address":"Deģi 1 - 3","city":"Emburga","zip":"LV-3851"},"deģi 1 - 4":{"address":"Deģi 1 - 4","city":"Emburga","zip":"LV-3851"},"deģi 2 - 1":{"address":"Deģi 2 - 1","city":"Emburga","zip":"LV-3851"},"deģi 2 - 2":{"address":"Deģi 2 - 2","city":"Emburga","zip":"LV-3851"},"deģi 2 - 3":{"address":"Deģi 2 - 3","city":"Emburga","zip":"LV-3851"},"deģi 2 - 4":{"address":"Deģi 2 - 4","city":"Emburga","zip":"LV-3851"},"deģi 2 - 5":{"address":"Deģi 2 - 5","city":"Emburga","zip":"LV-3851"},"deģi":{"address":"Deģi","city":"Vecgaiķi","zip":"LV-3873"},"deģi 2":{"address":"Deģi 2","city":"Emburga","zip":"LV-3851"},"deģi 1":{"address":"Deģi 1","city":"Emburga","zip":"LV-3851"},"deginas":{"address":"Deginas","city":"Katlakalns","zip":"LV-2111"},"degini 1":{"address":"Degini 1","city":"Degini","zip":"LV-5745"},"mauriņi":{"address":"Mauriņi","city":"Degini","zip":"LV-5745"}}