{"dimanti - 1":{"address":"Dimanti - 1","city":"Kabile","zip":"LV-3314"},"dimanti - 2":{"address":"Dimanti - 2","city":"Kabile","zip":"LV-3314"},"dimanti - 3":{"address":"Dimanti - 3","city":"Kabile","zip":"LV-3314"},"dimanti - 4":{"address":"Dimanti - 4","city":"Kabile","zip":"LV-3314"},"dimanti - 5":{"address":"Dimanti - 5","city":"Kabile","zip":"LV-3314"},"dimanti - 6":{"address":"Dimanti - 6","city":"Kabile","zip":"LV-3314"},"dimanti - 7":{"address":"Dimanti - 7","city":"Usma","zip":"LV-3619"},"dimanti - 8":{"address":"Dimanti - 8","city":"Usma","zip":"LV-3619"},"dimanti - 9":{"address":"Dimanti - 9","city":"Usma","zip":"LV-3619"},"dimanti - 10":{"address":"Dimanti - 10","city":"Usma","zip":"LV-3619"},"dimanti - 11":{"address":"Dimanti - 11","city":"Usma","zip":"LV-3619"},"dimanti - 12":{"address":"Dimanti - 12","city":"Usma","zip":"LV-3619"},"dimanti - 13":{"address":"Dimanti - 13","city":"Usma","zip":"LV-3619"},"dimanti - 14":{"address":"Dimanti - 14","city":"Usma","zip":"LV-3619"},"dimanti - 15":{"address":"Dimanti - 15","city":"Usma","zip":"LV-3619"},"dimanti - 16":{"address":"Dimanti - 16","city":"Usma","zip":"LV-3619"},"dimanti - 17":{"address":"Dimanti - 17","city":"Usma","zip":"LV-3619"},"dimanti - 18":{"address":"Dimanti - 18","city":"Usma","zip":"LV-3619"},"dimanti - 19":{"address":"Dimanti - 19","city":"Vadakste","zip":"LV-3895"},"dimanti - 20":{"address":"Dimanti - 20","city":"Vadakste","zip":"LV-3895"},"dimanti - 21":{"address":"Dimanti - 21","city":"Vadakste","zip":"LV-3895"},"dimanti - 22":{"address":"Dimanti - 22","city":"Vadakste","zip":"LV-3895"},"dimanti - 23":{"address":"Dimanti - 23","city":"Vadakste","zip":"LV-3895"},"dimanti - 24":{"address":"Dimanti - 24","city":"Vadakste","zip":"LV-3895"},"kalnišķu dimanti - 1":{"address":"Kalnišķu Dimanti - 1","city":"Kalnišķi","zip":"LV-3476"},"kalnišķu dimanti - 2":{"address":"Kalnišķu Dimanti - 2","city":"Kalnišķi","zip":"LV-3476"},"kalnišķu dimanti - 3":{"address":"Kalnišķu Dimanti - 3","city":"Kalnišķi","zip":"LV-3476"},"kalnišķu dimanti - 4":{"address":"Kalnišķu Dimanti - 4","city":"Kalnišķi","zip":"LV-3476"},"kalnišķu dimanti - 5":{"address":"Kalnišķu Dimanti - 5","city":"Kalnišķi","zip":"LV-3476"},"kalnišķu dimanti - 6":{"address":"Kalnišķu Dimanti - 6","city":"Kalnišķi","zip":"LV-3476"},"kalnišķu dimanti - 7":{"address":"Kalnišķu Dimanti - 7","city":"Kalnišķi","zip":"LV-3476"},"kalnišķu dimanti - 8":{"address":"Kalnišķu Dimanti - 8","city":"Kalnišķi","zip":"LV-3476"},"kalnišķu dimanti - 9":{"address":"Kalnišķu Dimanti - 9","city":"Kalnišķi","zip":"LV-3476"},"kalnišķu dimanti - 10":{"address":"Kalnišķu Dimanti - 10","city":"Kalnišķi","zip":"LV-3476"},"kalnišķu dimanti - 11":{"address":"Kalnišķu Dimanti - 11","city":"Kalnišķi","zip":"LV-3476"},"kalnišķu dimanti - 12":{"address":"Kalnišķu Dimanti - 12","city":"Kalnišķi","zip":"LV-3476"},"dimanti 1 - 1":{"address":"Dimanti 1 - 1","city":"Valgale","zip":"LV-3294"},"dimanti 1 - 2":{"address":"Dimanti 1 - 2","city":"Valgale","zip":"LV-3294"},"dimanti 1 - 3":{"address":"Dimanti 1 - 3","city":"Valgale","zip":"LV-3294"},"dimanti 1 - 4":{"address":"Dimanti 1 - 4","city":"Valgale","zip":"LV-3294"},"dimanti 1 - 5":{"address":"Dimanti 1 - 5","city":"Valgale","zip":"LV-3294"},"dimanti 1 - 6":{"address":"Dimanti 1 - 6","city":"Valgale","zip":"LV-3294"},"dimanti 1 - 7":{"address":"Dimanti 1 - 7","city":"Valgale","zip":"LV-3294"},"dimanti 1 - 8":{"address":"Dimanti 1 - 8","city":"Valgale","zip":"LV-3294"}}