{"dimdiņi 1 - 1":{"address":"Dimdiņi 1 - 1","city":"Tartaks","zip":"LV-5651"},"dimdiņi 1 - 2":{"address":"Dimdiņi 1 - 2","city":"Tartaks","zip":"LV-5651"},"dimdiņi 1 - 3":{"address":"Dimdiņi 1 - 3","city":"Tartaks","zip":"LV-5651"},"dimdiņi 1 - 4":{"address":"Dimdiņi 1 - 4","city":"Tartaks","zip":"LV-5651"},"dimdiņi 1 - 5":{"address":"Dimdiņi 1 - 5","city":"Tartaks","zip":"LV-5651"},"dimdiņi 1 - 6":{"address":"Dimdiņi 1 - 6","city":"Tartaks","zip":"LV-5651"},"dimdiņi 1 - 7":{"address":"Dimdiņi 1 - 7","city":"Tartaks","zip":"LV-5651"},"dimdiņi 1 - 8":{"address":"Dimdiņi 1 - 8","city":"Tartaks","zip":"LV-5651"},"dimdiņi - 1":{"address":"Dimdiņi - 1","city":"Tartaks","zip":"LV-5651"},"dimdiņi - 2":{"address":"Dimdiņi - 2","city":"Tartaks","zip":"LV-5651"},"dimdiņi - 3":{"address":"Dimdiņi - 3","city":"Tartaks","zip":"LV-5651"},"dimdiņi - 4":{"address":"Dimdiņi - 4","city":"Tartaks","zip":"LV-5651"},"dimdiņi - 5":{"address":"Dimdiņi - 5","city":"Tartaks","zip":"LV-5651"},"dimdiņi - 6":{"address":"Dimdiņi - 6","city":"Tartaks","zip":"LV-5651"},"dimdiņi - 7":{"address":"Dimdiņi - 7","city":"Tartaks","zip":"LV-5651"},"dimdiņi - 8":{"address":"Dimdiņi - 8","city":"Tartaks","zip":"LV-5651"},"dimdiņi - 9":{"address":"Dimdiņi - 9","city":"Tartaks","zip":"LV-5651"},"dimdiņi - 10":{"address":"Dimdiņi - 10","city":"Tartaks","zip":"LV-5651"},"dimdiņi - 11":{"address":"Dimdiņi - 11","city":"Tartaks","zip":"LV-5651"},"dimdiņi - 12":{"address":"Dimdiņi - 12","city":"Tartaks","zip":"LV-5651"},"dimdiņi - 13":{"address":"Dimdiņi - 13","city":"Tartaks","zip":"LV-5651"},"dimdiņi - 14":{"address":"Dimdiņi - 14","city":"Tartaks","zip":"LV-5651"},"dimdiņi - 15":{"address":"Dimdiņi - 15","city":"Tartaks","zip":"LV-5651"},"dimdiņi - 16":{"address":"Dimdiņi - 16","city":"Tartaks","zip":"LV-5651"},"dimdiņi - 17":{"address":"Dimdiņi - 17","city":"Tartaks","zip":"LV-5651"},"dimdiņi - 18":{"address":"Dimdiņi - 18","city":"Tartaks","zip":"LV-5651"},"dimdiņi - 19":{"address":"Dimdiņi - 19","city":"Tartaks","zip":"LV-5651"},"dimdiņi - 20":{"address":"Dimdiņi - 20","city":"Tartaks","zip":"LV-5651"},"dimdiņi - 21":{"address":"Dimdiņi - 21","city":"Tartaks","zip":"LV-5651"},"dimdiņi - 22":{"address":"Dimdiņi - 22","city":"Tartaks","zip":"LV-5651"},"dimdiņi - 23":{"address":"Dimdiņi - 23","city":"Tartaks","zip":"LV-5651"},"dimdiņi - 24":{"address":"Dimdiņi - 24","city":"Tartaks","zip":"LV-5651"},"dimdiņi - 25":{"address":"Dimdiņi - 25","city":"Tartaks","zip":"LV-5651"},"dimdiņi - 26":{"address":"Dimdiņi - 26","city":"Tartaks","zip":"LV-5651"},"dimdiņi - 27":{"address":"Dimdiņi - 27","city":"Tartaks","zip":"LV-5651"},"dimdiņi - 28":{"address":"Dimdiņi - 28","city":"Tartaks","zip":"LV-5651"},"majori dimdiņi":{"address":"Majori Dimdiņi","city":"Ranka","zip":"LV-4416"},"dimdiņi":{"address":"Dimdiņi","city":"Tartaks","zip":"LV-5651"},"dimdiņi 1":{"address":"Dimdiņi 1","city":"Tartaks","zip":"LV-5651"}}