{"dimzas iela 4 - 1":{"address":"Dimzas iela 4 - 1","city":"Krogsils","zip":"LV-2111"},"dimzas iela 4 - 2":{"address":"Dimzas iela 4 - 2","city":"Krogsils","zip":"LV-2111"},"dimzas iela 3 - 1":{"address":"Dimzas iela 3 - 1","city":"Krogsils","zip":"LV-2111"},"dimzas iela 3 - 2":{"address":"Dimzas iela 3 - 2","city":"Krogsils","zip":"LV-2111"},"dimzas iela 1 - 1":{"address":"Dimzas iela 1 - 1","city":"Krogsils","zip":"LV-2111"},"dimzas iela 1 - 2":{"address":"Dimzas iela 1 - 2","city":"Krogsils","zip":"LV-2111"},"dimzas":{"address":"Dimzas","city":"Balbiši","zip":"LV-4633"},"kalna dimzas":{"address":"Kalna Dimzas","city":"Dimzukalns","zip":"LV-3913"},"dimzas iela 5":{"address":"Dimzas iela 5","city":"Krogsils","zip":"LV-2111"},"dimzas iela 10":{"address":"Dimzas iela 10","city":"Krogsils","zip":"LV-2111"},"dimzas iela 7":{"address":"Dimzas iela 7","city":"Krogsils","zip":"LV-2111"},"dimzas iela 4":{"address":"Dimzas iela 4","city":"Krogsils","zip":"LV-2111"},"meža dimzas":{"address":"Meža Dimzas","city":"Dimzukalns","zip":"LV-3913"},"dimzas iela 3":{"address":"Dimzas iela 3","city":"Krogsils","zip":"LV-2111"},"dimzas iela 1":{"address":"Dimzas iela 1","city":"Krogsils","zip":"LV-2111"},"dimzas iela 2":{"address":"Dimzas iela 2","city":"Krogsils","zip":"LV-2111"},"dimzas iela 9":{"address":"Dimzas iela 9","city":"Krogsils","zip":"LV-2111"},"dimzas iela 6":{"address":"Dimzas iela 6","city":"Krogsils","zip":"LV-2111"},"dimzas iela 8":{"address":"Dimzas iela 8","city":"Krogsils","zip":"LV-2111"}}