{"divdesmit astotā iela 36":{"address":"Divdesmit astotā iela 36","city":"Šķēde","zip":"LV-3461"},"divdesmit astotā iela 34":{"address":"Divdesmit astotā iela 34","city":"Šķēde","zip":"LV-3461"},"divdesmit astotā iela 19":{"address":"Divdesmit astotā iela 19","city":"Šķēde","zip":"LV-3461"},"divdesmit astotā iela 32":{"address":"Divdesmit astotā iela 32","city":"Šķēde","zip":"LV-3461"},"divdesmit astotā iela 16":{"address":"Divdesmit astotā iela 16","city":"Šķēde","zip":"LV-3461"},"divdesmit astotā iela 17":{"address":"Divdesmit astotā iela 17","city":"Šķēde","zip":"LV-3461"},"divdesmit astotā iela 26":{"address":"Divdesmit astotā iela 26","city":"Šķēde","zip":"LV-3461"},"divdesmit astotā iela 27":{"address":"Divdesmit astotā iela 27","city":"Šķēde","zip":"LV-3461"},"divdesmit astotā iela 28":{"address":"Divdesmit astotā iela 28","city":"Šķēde","zip":"LV-3461"},"divdesmit astotā iela 3":{"address":"Divdesmit astotā iela 3","city":"Šķēde","zip":"LV-3461"},"divdesmit astotā iela 4":{"address":"Divdesmit astotā iela 4","city":"Šķēde","zip":"LV-3461"},"divdesmit astotā iela 5":{"address":"Divdesmit astotā iela 5","city":"Šķēde","zip":"LV-3461"},"divdesmit astotā iela 6":{"address":"Divdesmit astotā iela 6","city":"Šķēde","zip":"LV-3461"},"divdesmit astotā iela 7":{"address":"Divdesmit astotā iela 7","city":"Šķēde","zip":"LV-3461"},"divdesmit astotā iela 8":{"address":"Divdesmit astotā iela 8","city":"Šķēde","zip":"LV-3461"},"divdesmit astotā iela 9":{"address":"Divdesmit astotā iela 9","city":"Šķēde","zip":"LV-3461"},"divdesmit astotā iela 10":{"address":"Divdesmit astotā iela 10","city":"Šķēde","zip":"LV-3461"},"divdesmit astotā iela 11":{"address":"Divdesmit astotā iela 11","city":"Šķēde","zip":"LV-3461"},"divdesmit ceturtā iela 44":{"address":"Divdesmit ceturtā iela 44","city":"Šķēde","zip":"LV-3461"},"divdesmit ceturtā iela 41":{"address":"Divdesmit ceturtā iela 41","city":"Šķēde","zip":"LV-3461"},"divdesmit ceturtā iela 37":{"address":"Divdesmit ceturtā iela 37","city":"Šķēde","zip":"LV-3461"},"divdesmit ceturtā iela 34":{"address":"Divdesmit ceturtā iela 34","city":"Šķēde","zip":"LV-3461"},"divdesmit ceturtā iela 35":{"address":"Divdesmit ceturtā iela 35","city":"Šķēde","zip":"LV-3461"},"divdesmit ceturtā iela 31":{"address":"Divdesmit ceturtā iela 31","city":"Šķēde","zip":"LV-3461"},"divdesmit ceturtā iela 14":{"address":"Divdesmit ceturtā iela 14","city":"Šķēde","zip":"LV-3461"},"divdesmit ceturtā iela 16":{"address":"Divdesmit ceturtā iela 16","city":"Šķēde","zip":"LV-3461"},"divdesmit ceturtā iela 17":{"address":"Divdesmit ceturtā iela 17","city":"Šķēde","zip":"LV-3461"},"divdesmit ceturtā iela 18":{"address":"Divdesmit ceturtā iela 18","city":"Šķēde","zip":"LV-3461"},"divdesmit ceturtā iela 19":{"address":"Divdesmit ceturtā iela 19","city":"Šķēde","zip":"LV-3461"},"divdesmit ceturtā iela 20":{"address":"Divdesmit ceturtā iela 20","city":"Šķēde","zip":"LV-3461"},"divdesmit ceturtā iela 21":{"address":"Divdesmit ceturtā iela 21","city":"Šķēde","zip":"LV-3461"},"divdesmit ceturtā iela 22":{"address":"Divdesmit ceturtā iela 22","city":"Šķēde","zip":"LV-3461"},"divdesmit ceturtā iela 23":{"address":"Divdesmit ceturtā iela 23","city":"Šķēde","zip":"LV-3461"},"divdesmit ceturtā iela 24":{"address":"Divdesmit ceturtā iela 24","city":"Šķēde","zip":"LV-3461"},"divdesmit ceturtā iela 25":{"address":"Divdesmit ceturtā iela 25","city":"Šķēde","zip":"LV-3461"},"divdesmit ceturtā iela 26":{"address":"Divdesmit ceturtā iela 26","city":"Šķēde","zip":"LV-3461"},"divdesmit ceturtā iela 27":{"address":"Divdesmit ceturtā iela 27","city":"Šķēde","zip":"LV-3461"},"divdesmit ceturtā iela 12":{"address":"Divdesmit ceturtā iela 12","city":"Šķēde","zip":"LV-3461"},"divdesmit ceturtā iela 7":{"address":"Divdesmit ceturtā iela 7","city":"Šķēde","zip":"LV-3461"},"divdesmit ceturtā iela 8":{"address":"Divdesmit ceturtā iela 8","city":"Šķēde","zip":"LV-3461"},"divdesmit ceturtā iela 9":{"address":"Divdesmit ceturtā iela 9","city":"Šķēde","zip":"LV-3461"},"divdesmit ceturtā iela 10":{"address":"Divdesmit ceturtā iela 10","city":"Šķēde","zip":"LV-3461"},"divdesmit ceturtā iela 1":{"address":"Divdesmit ceturtā iela 1","city":"Šķēde","zip":"LV-3461"},"divdesmit ceturtā iela 2":{"address":"Divdesmit ceturtā iela 2","city":"Šķēde","zip":"LV-3461"},"divdesmit ceturtā iela 3":{"address":"Divdesmit ceturtā iela 3","city":"Šķēde","zip":"LV-3461"},"divdesmit ceturtā iela 4":{"address":"Divdesmit ceturtā iela 4","city":"Šķēde","zip":"LV-3461"},"divdesmit ceturtā iela 5":{"address":"Divdesmit ceturtā iela 5","city":"Šķēde","zip":"LV-3461"},"divdesmit devītā iela 6":{"address":"Divdesmit devītā iela 6","city":"Šķēde","zip":"LV-3461"},"divdesmit devītā iela 8":{"address":"Divdesmit devītā iela 8","city":"Šķēde","zip":"LV-3461"},"divdesmit devītā iela 9":{"address":"Divdesmit devītā iela 9","city":"Šķēde","zip":"LV-3461"},"divdesmit devītā iela 10":{"address":"Divdesmit devītā iela 10","city":"Šķēde","zip":"LV-3461"},"divdesmit devītā iela 3":{"address":"Divdesmit devītā iela 3","city":"Šķēde","zip":"LV-3461"},"divdesmit devītā iela 4":{"address":"Divdesmit devītā iela 4","city":"Šķēde","zip":"LV-3461"},"divdesmit devītā iela 13":{"address":"Divdesmit devītā iela 13","city":"Šķēde","zip":"LV-3461"},"divdesmit devītā iela 14":{"address":"Divdesmit devītā iela 14","city":"Šķēde","zip":"LV-3461"},"divdesmit devītā iela 15":{"address":"Divdesmit devītā iela 15","city":"Šķēde","zip":"LV-3461"},"divdesmit devītā iela 16":{"address":"Divdesmit devītā iela 16","city":"Šķēde","zip":"LV-3461"},"divdesmit devītā iela 17":{"address":"Divdesmit devītā iela 17","city":"Šķēde","zip":"LV-3461"},"divdesmit devītā iela 18":{"address":"Divdesmit devītā iela 18","city":"Šķēde","zip":"LV-3461"},"divdesmit devītā iela 19":{"address":"Divdesmit devītā iela 19","city":"Šķēde","zip":"LV-3461"},"divdesmit devītā iela 20":{"address":"Divdesmit devītā iela 20","city":"Šķēde","zip":"LV-3461"},"divdesmit devītā iela 21":{"address":"Divdesmit devītā iela 21","city":"Šķēde","zip":"LV-3461"},"divdesmit devītā iela 22":{"address":"Divdesmit devītā iela 22","city":"Šķēde","zip":"LV-3461"},"divdesmit otrā iela 21":{"address":"Divdesmit otrā iela 21","city":"Pabaži","zip":"LV-2160"},"divdesmit otrā iela 19":{"address":"Divdesmit otrā iela 19","city":"Pabaži","zip":"LV-2160"},"divdesmit otrā iela 25":{"address":"Divdesmit otrā iela 25","city":"Šķēde","zip":"LV-3461"},"divdesmit otrā iela 26":{"address":"Divdesmit otrā iela 26","city":"Šķēde","zip":"LV-3461"},"divdesmit otrā iela 27":{"address":"Divdesmit otrā iela 27","city":"Šķēde","zip":"LV-3461"},"divdesmit otrā iela 28":{"address":"Divdesmit otrā iela 28","city":"Šķēde","zip":"LV-3461"},"divdesmit otrā iela 29":{"address":"Divdesmit otrā iela 29","city":"Šķēde","zip":"LV-3461"},"divdesmit otrā iela 30":{"address":"Divdesmit otrā iela 30","city":"Šķēde","zip":"LV-3461"},"divdesmit otrā iela 17":{"address":"Divdesmit otrā iela 17","city":"Pabaži","zip":"LV-2160"},"divdesmit otrā iela 10":{"address":"Divdesmit otrā iela 10","city":"Pabaži","zip":"LV-2160"},"divdesmit otrā iela 11":{"address":"Divdesmit otrā iela 11","city":"Šķēde","zip":"LV-3461"},"divdesmit otrā iela 12":{"address":"Divdesmit otrā iela 12","city":"Pabaži","zip":"LV-2160"},"divdesmit otrā iela 13":{"address":"Divdesmit otrā iela 13","city":"Pabaži","zip":"LV-2160"},"divdesmit otrā iela 14":{"address":"Divdesmit otrā iela 14","city":"Pabaži","zip":"LV-2160"},"divdesmit otrā iela 15":{"address":"Divdesmit otrā iela 15","city":"Pabaži","zip":"LV-2160"},"divdesmit otrā iela 1":{"address":"Divdesmit otrā iela 1","city":"Pabaži","zip":"LV-2160"},"divdesmit otrā iela 2":{"address":"Divdesmit otrā iela 2","city":"Pabaži","zip":"LV-2160"},"divdesmit otrā iela 3":{"address":"Divdesmit otrā iela 3","city":"Šķēde","zip":"LV-3461"},"divdesmit otrā iela 4":{"address":"Divdesmit otrā iela 4","city":"Šķēde","zip":"LV-3461"},"divdesmit otrā iela 5":{"address":"Divdesmit otrā iela 5","city":"Šķēde","zip":"LV-3461"},"divdesmit otrā iela 6":{"address":"Divdesmit otrā iela 6","city":"Pabaži","zip":"LV-2160"},"divdesmit otrā iela 7":{"address":"Divdesmit otrā iela 7","city":"Pabaži","zip":"LV-2160"},"divdesmit otrā iela 19a":{"address":"Divdesmit otrā iela 19A","city":"Pabaži","zip":"LV-2160"},"divdesmit otrā iela 16":{"address":"Divdesmit otrā iela 16","city":"Pabaži","zip":"LV-2160"},"divdesmit otrā iela 20":{"address":"Divdesmit otrā iela 20","city":"Pabaži","zip":"LV-2160"}}