{"draudzesskola - 1":{"address":"Draudzesskola - 1","city":"Tirza","zip":"LV-4424"},"draudzesskola - 2":{"address":"Draudzesskola - 2","city":"Tirza","zip":"LV-4424"},"draudzes - 1":{"address":"Draudzes - 1","city":"Vecstāmeriena","zip":"LV-4406"},"draudzes - 2":{"address":"Draudzes - 2","city":"Vecstāmeriena","zip":"LV-4406"},"draudzes - 3":{"address":"Draudzes - 3","city":"Vecstāmeriena","zip":"LV-4406"},"draudzes - 4":{"address":"Draudzes - 4","city":"Vecstāmeriena","zip":"LV-4406"},"draudzes - 5":{"address":"Draudzes - 5","city":"Vecstāmeriena","zip":"LV-4406"},"lamiņu baznīcas draudzes māja - 1":{"address":"Lamiņu baznīcas draudzes māja - 1","city":"Lamiņi","zip":"LV-3124"},"lamiņu baznīcas draudzes māja - 2":{"address":"Lamiņu baznīcas draudzes māja - 2","city":"Lamiņi","zip":"LV-3124"},"lamiņu baznīcas draudzes māja - 3":{"address":"Lamiņu baznīcas draudzes māja - 3","city":"Lamiņi","zip":"LV-3124"},"lamiņu baznīcas draudzes māja - 4":{"address":"Lamiņu baznīcas draudzes māja - 4","city":"Lamiņi","zip":"LV-3124"},"lamiņu baznīcas draudzes māja - 5":{"address":"Lamiņu baznīcas draudzes māja - 5","city":"Lamiņi","zip":"LV-3124"},"lamiņu baznīcas draudzes māja - 6":{"address":"Lamiņu baznīcas draudzes māja - 6","city":"Lamiņi","zip":"LV-3124"},"lamiņu baznīcas draudzes māja - 7":{"address":"Lamiņu baznīcas draudzes māja - 7","city":"Lamiņi","zip":"LV-3124"},"salnavas romas katoļu draudze - 1":{"address":"Salnavas Romas katoļu draudze - 1","city":"Salnava","zip":"LV-5740"},"salnavas romas katoļu draudze - 2":{"address":"Salnavas Romas katoļu draudze - 2","city":"Salnava","zip":"LV-5740"},"feimaņu katoļu draudze - 1":{"address":"Feimaņu katoļu draudze - 1","city":"Feimaņi","zip":"LV-4623"},"feimaņu katoļu draudze - 2":{"address":"Feimaņu katoļu draudze - 2","city":"Feimaņi","zip":"LV-4623"},"kupravas katoļu draudze":{"address":"Kupravas katoļu draudze","city":"Kuprava","zip":"LV-4582"},"draudzesskola":{"address":"Draudzesskola","city":"Tirza","zip":"LV-4424"},"draudzes":{"address":"Draudzes","city":"Vecstāmeriena","zip":"LV-4406"},"draudzes māja":{"address":"Draudzes māja","city":"Renda","zip":"LV-3319"},"ķempju luterāņu draudze":{"address":"Ķempju luterāņu draudze","city":"Ķempji","zip":"LV-4108"},"baptistu draudzes lūgšanu nams":{"address":"Baptistu draudzes lūgšanu nams","city":"Jūrmalciems","zip":"LV-3473"},"baptistu draudzes māja":{"address":"Baptistu Draudzes Māja","city":"Cīruļi","zip":"LV-3253"},"lamiņu baznīcas draudzes māja":{"address":"Lamiņu baznīcas draudzes māja","city":"Lamiņi","zip":"LV-3124"},"apšuciema baptistu draudze":{"address":"Apšuciema baptistu draudze","city":"Apšuciems","zip":"LV-3113"},"makarovkas vecticībnieku draudze":{"address":"Makarovkas Vecticībnieku draudze","city":"Makarovka","zip":"LV-5311"},"ismeru vecticībnieku draudze":{"address":"Ismeru vecticībnieku draudze","city":"Ismeri","zip":"LV-4627"},"rušonas romas katoļu draudze":{"address":"Rušonas Romas katoļu draudze","city":"Rušona","zip":"LV-5329"},"bližņevas vecticībnieku draudze":{"address":"Bližņevas vecticībnieku draudze","city":"Bļižņeva","zip":"LV-5739"},"paramonovkas vecticībnieku draudze":{"address":"Paramonovkas vecticībnieku draudze","city":"Paramonovka","zip":"LV-4636"},"nagļu romas katoļu draudze":{"address":"Nagļu Romas katoļu draudze","city":"Nagļi","zip":"LV-4631"},"draudze":{"address":"Draudze","city":"Jaunsaimnieki","zip":"LV-5301"},"tišinas vecticībnieku draudze":{"address":"Tišinas Vecticībnieku draudze","city":"Tiša","zip":"LV-5329"},"kostigu vecticībnieku draudze":{"address":"Kostigu Vecticībnieku draudze","city":"Kostigi","zip":"LV-5330"},"vecticībnieku draudzes baznīca":{"address":"Vecticībnieku draudzes baznīca","city":"Vilciņi","zip":"LV-5333"},"puderovas vecticībnieku draudze":{"address":"Puderovas vecticībnieku draudze","city":"Lielā Puderova","zip":"LV-4611"},"jaunslobodas pareizticīgo draudze":{"address":"Jaunslobodas pareizticīgo draudze","city":"Jaunā Slobodka","zip":"LV-5707"},"salnavas romas katoļu draudze":{"address":"Salnavas Romas katoļu draudze","city":"Salnava","zip":"LV-5740"},"demenes romas katoļu draudze":{"address":"Demenes Romas katoļu draudze","city":"Demene","zip":"LV-5442"},"romas katoļu draudze":{"address":"Romas katoļu draudze","city":"Tilža","zip":"LV-4572"},"daniševkas vecticībnieku draudze":{"address":"Daniševkas vecticībnieku draudze","city":"Daniševka","zip":"LV-5481"},"katoļu draudze":{"address":"Katoļu draudze","city":"Čornaja","zip":"LV-4617"},"maskovskajas pareizticīgo draudze":{"address":"Maskovskajas pareizticīgo draudze","city":"Maskovskaja","zip":"LV-5481"},"daniševkas pareizticīgo draudze":{"address":"Daniševkas pareizticīgo draudze","city":"Daniševka","zip":"LV-5481"},"romas katoļu draudzes baznīca":{"address":"Romas katoļu draudzes baznīca","city":"Rikava","zip":"LV-4648"},"pļuskovas vecticībnieku draudze":{"address":"Pļuskovas vecticībnieku draudze","city":"Pļuskova","zip":"LV-4634"},"vecticībnieku draudze":{"address":"Vecticībnieku draudze","city":"Rečeņi","zip":"LV-4617"},"krivanu vecticībnieku draudze":{"address":"Krivanu vecticībnieku draudze","city":"Krivāni","zip":"LV-5450"},"moskvinas vecticībnieku draudze":{"address":"Moskvinas vecticībnieku draudze","city":"Moskvina","zip":"LV-5301"},"salgales draudze":{"address":"Salgales draudze","city":"Emburga","zip":"LV-3045"},"tilžas baptistu draudze":{"address":"Tilžas baptistu draudze","city":"Tilža","zip":"LV-4572"},"elkšņu evanģēliski luteriskā draudze":{"address":"Elkšņu evanģēliski luteriskā draudze","city":"Elkšņi","zip":"LV-5217"},"jumpravas ev.lut. draudze baznīca":{"address":"Jumpravas ev.lut. draudze baznīca","city":"Dzelmes","zip":"LV-5022"},"feimaņu katoļu draudze":{"address":"Feimaņu katoļu draudze","city":"Feimaņi","zip":"LV-4623"}}