{"aptiekas - 4":{"address":"Aptiekas - 4","city":"Druviena","zip":"LV-4426"},"aptiekas - 3":{"address":"Aptiekas - 3","city":"Druviena","zip":"LV-4426"},"aptiekas - 2":{"address":"Aptiekas - 2","city":"Druviena","zip":"LV-4426"},"aptiekas - 1":{"address":"Aptiekas - 1","city":"Druviena","zip":"LV-4426"},"aptiekas - 1a":{"address":"Aptiekas - 1A","city":"Druviena","zip":"LV-4426"},"centrs - 1":{"address":"Centrs - 1","city":"Druviena","zip":"LV-4426"},"centrs - 2":{"address":"Centrs - 2","city":"Druviena","zip":"LV-4426"},"centrs - 3":{"address":"Centrs - 3","city":"Druviena","zip":"LV-4426"},"ceplīši - 1":{"address":"Ceplīši - 1","city":"Druviena","zip":"LV-4426"},"ceplīši - 2":{"address":"Ceplīši - 2","city":"Druviena","zip":"LV-4426"},"gatves - 1":{"address":"Gatves - 1","city":"Druviena","zip":"LV-4426"},"gatves - 2":{"address":"Gatves - 2","city":"Druviena","zip":"LV-4426"},"gatves - 3":{"address":"Gatves - 3","city":"Druviena","zip":"LV-4426"},"gatves - 4":{"address":"Gatves - 4","city":"Druviena","zip":"LV-4426"},"gatves - 5":{"address":"Gatves - 5","city":"Druviena","zip":"LV-4426"},"gatves - 6":{"address":"Gatves - 6","city":"Druviena","zip":"LV-4426"},"gatves - 7":{"address":"Gatves - 7","city":"Druviena","zip":"LV-4426"},"gatves - 8":{"address":"Gatves - 8","city":"Druviena","zip":"LV-4426"},"gatves - 9":{"address":"Gatves - 9","city":"Druviena","zip":"LV-4426"},"gatves - 10":{"address":"Gatves - 10","city":"Druviena","zip":"LV-4426"},"gatves - 11":{"address":"Gatves - 11","city":"Druviena","zip":"LV-4426"},"gatves - 12":{"address":"Gatves - 12","city":"Druviena","zip":"LV-4426"},"gatves - 13":{"address":"Gatves - 13","city":"Druviena","zip":"LV-4426"},"gatves - 14":{"address":"Gatves - 14","city":"Druviena","zip":"LV-4426"},"gatves - 15":{"address":"Gatves - 15","city":"Druviena","zip":"LV-4426"},"gatves - 16":{"address":"Gatves - 16","city":"Druviena","zip":"LV-4426"},"gatves - 17":{"address":"Gatves - 17","city":"Druviena","zip":"LV-4426"},"gatves - 18":{"address":"Gatves - 18","city":"Druviena","zip":"LV-4426"},"liepas - 1":{"address":"Liepas - 1","city":"Druviena","zip":"LV-4426"},"liepas - 2":{"address":"Liepas - 2","city":"Druviena","zip":"LV-4426"},"dambji - 1":{"address":"Dambji - 1","city":"Druviena","zip":"LV-4426"},"dambji - 2":{"address":"Dambji - 2","city":"Druviena","zip":"LV-4426"},"jaunauziņas - 1":{"address":"Jaunauziņas - 1","city":"Druviena","zip":"LV-4426"},"jaunauziņas - 2":{"address":"Jaunauziņas - 2","city":"Druviena","zip":"LV-4426"},"jaunauziņas - 3":{"address":"Jaunauziņas - 3","city":"Druviena","zip":"LV-4426"},"jaunauziņas - 4":{"address":"Jaunauziņas - 4","city":"Druviena","zip":"LV-4426"},"strautmaļi - 1":{"address":"Strautmaļi - 1","city":"Druviena","zip":"LV-4426"},"strautmaļi - 2":{"address":"Strautmaļi - 2","city":"Druviena","zip":"LV-4426"},"strautmaļi - 3":{"address":"Strautmaļi - 3","city":"Druviena","zip":"LV-4426"},"strautmaļi - 4":{"address":"Strautmaļi - 4","city":"Druviena","zip":"LV-4426"},"krejotava - 1":{"address":"Krejotava - 1","city":"Druviena","zip":"LV-4426"},"krejotava - 2":{"address":"Krejotava - 2","city":"Druviena","zip":"LV-4426"},"krejotava - 3":{"address":"Krejotava - 3","city":"Druviena","zip":"LV-4426"}}