{"druvas - 1":{"address":"Druvas - 1","city":"Bērzkrogs","zip":"LV-4116"},"druvas - 2":{"address":"Druvas - 2","city":"Bērzkrogs","zip":"LV-4116"},"druvas - 3":{"address":"Druvas - 3","city":"Bērzkrogs","zip":"LV-4116"},"druvas - 4":{"address":"Druvas - 4","city":"Bērzkrogs","zip":"LV-4116"},"druvas - 5":{"address":"Druvas - 5","city":"Bērzkrogs","zip":"LV-4116"},"druvas - 6":{"address":"Druvas - 6","city":"Bērzkrogs","zip":"LV-4116"},"druvas - 7":{"address":"Druvas - 7","city":"Bērzkrogs","zip":"LV-4116"},"druvas - 8":{"address":"Druvas - 8","city":"Bērzkrogs","zip":"LV-4116"},"druvas - 9":{"address":"Druvas - 9","city":"Sēļi","zip":"LV-4213"},"druvas - 10":{"address":"Druvas - 10","city":"Sēļi","zip":"LV-4213"},"druvas - 11":{"address":"Druvas - 11","city":"Sēļi","zip":"LV-4213"},"druvas - 12":{"address":"Druvas - 12","city":"Sēļi","zip":"LV-4213"},"druvas - 13":{"address":"Druvas - 13","city":"Sēļi","zip":"LV-4213"},"druvas - 14":{"address":"Druvas - 14","city":"Sēļi","zip":"LV-4213"},"druvas - 15":{"address":"Druvas - 15","city":"Sēļi","zip":"LV-4213"},"druvas - 16":{"address":"Druvas - 16","city":"Sēļi","zip":"LV-4213"},"druvas - 17":{"address":"Druvas - 17","city":"Sēļi","zip":"LV-4213"},"druvas - 18":{"address":"Druvas - 18","city":"Sēļi","zip":"LV-4213"},"druvas 2 - 1":{"address":"Druvas 2 - 1","city":"Bērzkrogs","zip":"LV-4116"},"druvas 2 - 2":{"address":"Druvas 2 - 2","city":"Bērzkrogs","zip":"LV-4116"},"druvas 2 - 3":{"address":"Druvas 2 - 3","city":"Bērzkrogs","zip":"LV-4116"},"druvas 2 - 4":{"address":"Druvas 2 - 4","city":"Bērzkrogs","zip":"LV-4116"},"druvas 2 - 5":{"address":"Druvas 2 - 5","city":"Bērzkrogs","zip":"LV-4116"},"druvas 2 - 6":{"address":"Druvas 2 - 6","city":"Bērzkrogs","zip":"LV-4116"},"druvas 2 - 7":{"address":"Druvas 2 - 7","city":"Bērzkrogs","zip":"LV-4116"}}