{"dubulti - 1":{"address":"Dubulti - 1","city":"Kraujas","zip":"LV-3297"},"dubulti - 2":{"address":"Dubulti - 2","city":"Kraujas","zip":"LV-3297"},"salnas - 1":{"address":"Salnas - 1","city":"Dubulti","zip":"LV-5220"},"salnas - 2":{"address":"Salnas - 2","city":"Dubulti","zip":"LV-5220"},"salnas - 3":{"address":"Salnas - 3","city":"Dubulti","zip":"LV-5220"},"salnas - 4":{"address":"Salnas - 4","city":"Dubulti","zip":"LV-5220"},"salnas - 5":{"address":"Salnas - 5","city":"Dubulti","zip":"LV-5220"},"salnas - 6":{"address":"Salnas - 6","city":"Dubulti","zip":"LV-5220"},"salnas - 7":{"address":"Salnas - 7","city":"Dubulti","zip":"LV-5220"},"salnas - 8":{"address":"Salnas - 8","city":"Dubulti","zip":"LV-5220"},"salnas - 9":{"address":"Salnas - 9","city":"Dubulti","zip":"LV-5220"},"salnas - 10":{"address":"Salnas - 10","city":"Dubulti","zip":"LV-5220"},"salnas - 11":{"address":"Salnas - 11","city":"Dubulti","zip":"LV-5220"},"salnas - 12":{"address":"Salnas - 12","city":"Dubulti","zip":"LV-5220"},"salnas - 13":{"address":"Salnas - 13","city":"Dubulti","zip":"LV-5220"},"salnas - 14":{"address":"Salnas - 14","city":"Dubulti","zip":"LV-5220"},"salnas - 15":{"address":"Salnas - 15","city":"Dubulti","zip":"LV-5220"},"salnas - 16":{"address":"Salnas - 16","city":"Dubulti","zip":"LV-5220"},"salnas - 17":{"address":"Salnas - 17","city":"Dubulti","zip":"LV-5220"},"salnas - 18":{"address":"Salnas - 18","city":"Dubulti","zip":"LV-5220"},"vaivari - 1":{"address":"Vaivari - 1","city":"Dubulti","zip":"LV-5220"},"vaivari - 2":{"address":"Vaivari - 2","city":"Dubulti","zip":"LV-5220"},"vaivari - 3":{"address":"Vaivari - 3","city":"Dubulti","zip":"LV-5220"},"vaivari - 4":{"address":"Vaivari - 4","city":"Dubulti","zip":"LV-5220"},"vaivari - 5":{"address":"Vaivari - 5","city":"Dubulti","zip":"LV-5220"},"vaivari - 6":{"address":"Vaivari - 6","city":"Dubulti","zip":"LV-5220"},"vaivari - 7":{"address":"Vaivari - 7","city":"Dubulti","zip":"LV-5220"},"vaivari - 8":{"address":"Vaivari - 8","city":"Dubulti","zip":"LV-5220"},"vaivari - 9":{"address":"Vaivari - 9","city":"Dubulti","zip":"LV-5220"},"vaivari - 10":{"address":"Vaivari - 10","city":"Dubulti","zip":"LV-5220"},"vaivari - 11":{"address":"Vaivari - 11","city":"Dubulti","zip":"LV-5220"},"vaivari - 12":{"address":"Vaivari - 12","city":"Dubulti","zip":"LV-5220"},"vaivari - 13":{"address":"Vaivari - 13","city":"Dubulti","zip":"LV-5220"},"vaivari - 14":{"address":"Vaivari - 14","city":"Dubulti","zip":"LV-5220"},"vaivari - 15":{"address":"Vaivari - 15","city":"Dubulti","zip":"LV-5220"},"vaivari - 16":{"address":"Vaivari - 16","city":"Dubulti","zip":"LV-5220"},"vaivari - 17":{"address":"Vaivari - 17","city":"Dubulti","zip":"LV-5220"},"vaivari - 18":{"address":"Vaivari - 18","city":"Dubulti","zip":"LV-5220"},"vēsmas - 1":{"address":"Vēsmas - 1","city":"Dubulti","zip":"LV-5220"},"vēsmas - 2":{"address":"Vēsmas - 2","city":"Dubulti","zip":"LV-5220"},"vēsmas - 3":{"address":"Vēsmas - 3","city":"Dubulti","zip":"LV-5220"},"vēsmas - 4":{"address":"Vēsmas - 4","city":"Dubulti","zip":"LV-5220"},"vēsmas - 5":{"address":"Vēsmas - 5","city":"Dubulti","zip":"LV-5220"},"vēsmas - 6":{"address":"Vēsmas - 6","city":"Dubulti","zip":"LV-5220"},"vēsmas - 7":{"address":"Vēsmas - 7","city":"Dubulti","zip":"LV-5220"},"vēsmas - 8":{"address":"Vēsmas - 8","city":"Dubulti","zip":"LV-5220"},"dubulti":{"address":"Dubulti","city":"Dubulti","zip":"LV-5220"},"centra ezerpriekulāni":{"address":"Centra Ezerpriekulāni","city":"Dubulti","zip":"LV-5220"},"bērzieši":{"address":"Bērzieši","city":"Dubulti","zip":"LV-5220"},"centra ezerpriekulāni 1":{"address":"Centra Ezerpriekulāni 1","city":"Dubulti","zip":"LV-5220"},"vienība":{"address":"Vienība","city":"Dubulti","zip":"LV-5220"},"akoti":{"address":"Akoti","city":"Dubulti","zip":"LV-5220"},"sprīdīši":{"address":"Sprīdīši","city":"Dubulti","zip":"LV-5220"},"zītari":{"address":"Zītari","city":"Dubulti","zip":"LV-5220"},"kadiķi":{"address":"Kadiķi","city":"Dubulti","zip":"LV-5220"},"madaras":{"address":"Madaras","city":"Dubulti","zip":"LV-5220"},"mētras":{"address":"Mētras","city":"Dubulti","zip":"LV-5220"},"mežvīni":{"address":"Mežvīni","city":"Dubulti","zip":"LV-5220"},"mūsmājas":{"address":"Mūsmājas","city":"Dubulti","zip":"LV-5220"},"vēsmas":{"address":"Vēsmas","city":"Dubulti","zip":"LV-5220"},"vītoliņi":{"address":"Vītoliņi","city":"Dubulti","zip":"LV-5220"},"vaivari":{"address":"Vaivari","city":"Dubulti","zip":"LV-5220"},"salnas":{"address":"Salnas","city":"Dubulti","zip":"LV-5220"}}