{"juši - 1":{"address":"Juši - 1","city":"Cirstes","zip":"LV-3270"},"juši - 2":{"address":"Juši - 2","city":"Cirstes","zip":"LV-3270"},"zaķi - 1":{"address":"Zaķi - 1","city":"Muņi","zip":"LV-3270"},"zaķi - 2":{"address":"Zaķi - 2","city":"Muņi","zip":"LV-3270"},"zaķi - 3":{"address":"Zaķi - 3","city":"Muņi","zip":"LV-3270"},"zaķi - 4":{"address":"Zaķi - 4","city":"Muņi","zip":"LV-3270"},"zaķi - 5":{"address":"Zaķi - 5","city":"Muņi","zip":"LV-3270"},"zaķi - 6":{"address":"Zaķi - 6","city":"Muņi","zip":"LV-3270"},"jasmīnes 2 - 1":{"address":"Jasmīnes 2 - 1","city":"Vīdale","zip":"LV-3270"},"jasmīnes 2 - 2":{"address":"Jasmīnes 2 - 2","city":"Vīdale","zip":"LV-3270"},"jasmīnes 2 - 3":{"address":"Jasmīnes 2 - 3","city":"Vīdale","zip":"LV-3270"},"lauki 2 - 1":{"address":"Lauki 2 - 1","city":"Vīdale","zip":"LV-3270"},"lauki 2 - 2":{"address":"Lauki 2 - 2","city":"Vīdale","zip":"LV-3270"},"pērles - 1":{"address":"Pērles - 1","city":"Vīdale","zip":"LV-3270"},"pērles - 2":{"address":"Pērles - 2","city":"Vīdale","zip":"LV-3270"},"saulstari - 6":{"address":"Saulstari - 6","city":"Vīdale","zip":"LV-3270"},"saulstari - 1":{"address":"Saulstari - 1","city":"Vīdale","zip":"LV-3270"},"saulstari - 2":{"address":"Saulstari - 2","city":"Vīdale","zip":"LV-3270"},"saulstari - 3":{"address":"Saulstari - 3","city":"Vīdale","zip":"LV-3270"},"saulstari - 4":{"address":"Saulstari - 4","city":"Vīdale","zip":"LV-3270"},"saulstari - 5":{"address":"Saulstari - 5","city":"Vīdale","zip":"LV-3270"},"saulstari - 7":{"address":"Saulstari - 7","city":"Vīdale","zip":"LV-3270"},"saulstari - 8":{"address":"Saulstari - 8","city":"Vīdale","zip":"LV-3270"},"senči - 1":{"address":"Senči - 1","city":"Vīdale","zip":"LV-3270"},"senči - 2":{"address":"Senči - 2","city":"Vīdale","zip":"LV-3270"},"andžaki - 1":{"address":"Andžaki - 1","city":"Cirstes","zip":"LV-3270"},"andžaki - 2":{"address":"Andžaki - 2","city":"Cirstes","zip":"LV-3270"},"ziedkalni - 1":{"address":"Ziedkalni - 1","city":"Dūmele","zip":"LV-3264"},"ziedkalni - 2":{"address":"Ziedkalni - 2","city":"Dūmele","zip":"LV-3264"},"ezeri 2 - 1":{"address":"Ezeri 2 - 1","city":"Ezermuiža","zip":"LV-3264"},"ezeri 2 - 2":{"address":"Ezeri 2 - 2","city":"Ezermuiža","zip":"LV-3264"},"ezeri 2 - 3":{"address":"Ezeri 2 - 3","city":"Ezermuiža","zip":"LV-3264"},"ezernieki - 1":{"address":"Ezernieki - 1","city":"Ezermuiža","zip":"LV-3264"},"ezernieki - 2":{"address":"Ezernieki - 2","city":"Ezermuiža","zip":"LV-3264"},"ezernieki - 3":{"address":"Ezernieki - 3","city":"Ezermuiža","zip":"LV-3264"},"vecbrieži - 1":{"address":"Vecbrieži - 1","city":"Vīdale","zip":"LV-3270"},"vecbrieži - 2":{"address":"Vecbrieži - 2","city":"Vīdale","zip":"LV-3270"},"vecbrieži - 3":{"address":"Vecbrieži - 3","city":"Vīdale","zip":"LV-3270"},"ozoli - 11":{"address":"Ozoli - 11","city":"Kaļķi","zip":"LV-3270"},"ozoli - 1":{"address":"Ozoli - 1","city":"Kaļķi","zip":"LV-3270"},"ozoli - 2":{"address":"Ozoli - 2","city":"Kaļķi","zip":"LV-3270"},"ozoli - 3":{"address":"Ozoli - 3","city":"Kaļķi","zip":"LV-3270"},"ozoli - 4":{"address":"Ozoli - 4","city":"Kaļķi","zip":"LV-3270"},"ozoli - 5":{"address":"Ozoli - 5","city":"Kaļķi","zip":"LV-3270"},"ozoli - 6":{"address":"Ozoli - 6","city":"Kaļķi","zip":"LV-3270"},"ozoli - 7":{"address":"Ozoli - 7","city":"Kaļķi","zip":"LV-3270"},"ozoli - 8":{"address":"Ozoli - 8","city":"Kaļķi","zip":"LV-3270"},"ozoli - 9":{"address":"Ozoli - 9","city":"Kaļķi","zip":"LV-3270"},"ozoli - 10":{"address":"Ozoli - 10","city":"Kaļķi","zip":"LV-3270"},"ozoli - 12":{"address":"Ozoli - 12","city":"Kaļķi","zip":"LV-3270"},"salmiņi - 1":{"address":"Salmiņi - 1","city":"Kaļķi","zip":"LV-3270"},"salmiņi - 2":{"address":"Salmiņi - 2","city":"Kaļķi","zip":"LV-3270"},"akmeņdārzi - 1":{"address":"Akmeņdārzi - 1","city":"Lateve","zip":"LV-3270"},"akmeņdārzi - 2":{"address":"Akmeņdārzi - 2","city":"Lateve","zip":"LV-3270"},"akmeņdārzi - 3":{"address":"Akmeņdārzi - 3","city":"Lateve","zip":"LV-3270"},"akmeņdārzi - 4":{"address":"Akmeņdārzi - 4","city":"Lateve","zip":"LV-3270"},"akmeņdārzi - 5":{"address":"Akmeņdārzi - 5","city":"Lateve","zip":"LV-3270"},"akmeņdārzi - 6":{"address":"Akmeņdārzi - 6","city":"Lateve","zip":"LV-3270"},"akmeņdārzi - 7":{"address":"Akmeņdārzi - 7","city":"Lateve","zip":"LV-3270"},"akmeņdārzi - 8":{"address":"Akmeņdārzi - 8","city":"Lateve","zip":"LV-3270"},"dravnieki 3 - 1":{"address":"Dravnieki 3 - 1","city":"Piltene","zip":"LV-3270"},"dravnieki 3 - 2":{"address":"Dravnieki 3 - 2","city":"Piltene","zip":"LV-3270"},"dravnieki 3 - 3":{"address":"Dravnieki 3 - 3","city":"Piltene","zip":"LV-3270"},"dravnieki 3 - 4":{"address":"Dravnieki 3 - 4","city":"Piltene","zip":"LV-3270"},"dravnieki 3 - 5":{"address":"Dravnieki 3 - 5","city":"Piltene","zip":"LV-3270"},"jaunseņķi - 1":{"address":"Jaunseņķi - 1","city":"Puiškalnciems","zip":"LV-3270"},"jaunseņķi - 2":{"address":"Jaunseņķi - 2","city":"Puiškalnciems","zip":"LV-3270"},"jaunseņķi - 3":{"address":"Jaunseņķi - 3","city":"Puiškalnciems","zip":"LV-3270"},"jaunseņķi - 4":{"address":"Jaunseņķi - 4","city":"Puiškalnciems","zip":"LV-3270"},"jaunseņķi - 5":{"address":"Jaunseņķi - 5","city":"Puiškalnciems","zip":"LV-3270"},"jaunseņķi - 6":{"address":"Jaunseņķi - 6","city":"Puiškalnciems","zip":"LV-3270"},"jaunseņķi - 7":{"address":"Jaunseņķi - 7","city":"Puiškalnciems","zip":"LV-3270"},"jaunseņķi - 8":{"address":"Jaunseņķi - 8","city":"Puiškalnciems","zip":"LV-3270"},"kalnieki - 1":{"address":"Kalnieki - 1","city":"Oste","zip":"LV-3270"},"kalnieki - 2":{"address":"Kalnieki - 2","city":"Oste","zip":"LV-3270"},"ūbeles - 1":{"address":"Ūbeles - 1","city":"Mazirbe","zip":"LV-3275"},"ūbeles - 2":{"address":"Ūbeles - 2","city":"Mazirbe","zip":"LV-3275"},"nevejas skola - 8":{"address":"Nevejas skola - 8","city":"Neveja","zip":"LV-3270"},"nevejas skola - 9":{"address":"Nevejas skola - 9","city":"Neveja","zip":"LV-3270"},"nevejas skola - 13":{"address":"Nevejas skola - 13","city":"Neveja","zip":"LV-3270"},"nevejas skola - 14":{"address":"Nevejas skola - 14","city":"Neveja","zip":"LV-3270"},"mežmaļi - 1":{"address":"Mežmaļi - 1","city":"Neveja","zip":"LV-3270"},"mežmaļi - 2":{"address":"Mežmaļi - 2","city":"Neveja","zip":"LV-3270"}}