{"dzeguzes":{"address":"Dzeguzes","city":"Lapme탑ciems","zip":"LV-3118"},"dzeg큰zes":{"address":"Dzeg큰zes","city":"V훮lodzes","zip":"LV-2130"},"dzeguzes iela 53":{"address":"Dzeguzes iela 53","city":"Kalngale","zip":"LV-2163"},"dzeguzes iela 42":{"address":"Dzeguzes iela 42","city":"Kalngale","zip":"LV-2163"},"dzeguzes iela 43":{"address":"Dzeguzes iela 43","city":"Kalngale","zip":"LV-2163"},"dzeguzes iela 44":{"address":"Dzeguzes iela 44","city":"Kalngale","zip":"LV-2163"},"dzeguzes iela 45":{"address":"Dzeguzes iela 45","city":"Kalngale","zip":"LV-2163"},"dzeguzes iela 46":{"address":"Dzeguzes iela 46","city":"Kalngale","zip":"LV-2163"},"dzeguzes iela 47":{"address":"Dzeguzes iela 47","city":"Kalngale","zip":"LV-2163"},"dzeguzes iela 48":{"address":"Dzeguzes iela 48","city":"Kalngale","zip":"LV-2163"},"dzeguzes iela 51":{"address":"Dzeguzes iela 51","city":"Kalngale","zip":"LV-2163"},"dzeguzes iela 1":{"address":"Dzeguzes iela 1","city":"Kalngale","zip":"LV-2163"},"dzeguzes iela 2":{"address":"Dzeguzes iela 2","city":"Kalngale","zip":"LV-2163"},"dzeguzes iela 3":{"address":"Dzeguzes iela 3","city":"Kalngale","zip":"LV-2163"},"dzeguzes iela 4":{"address":"Dzeguzes iela 4","city":"Kalngale","zip":"LV-2163"},"dzeguzes iela 5":{"address":"Dzeguzes iela 5","city":"Kalngale","zip":"LV-2163"},"dzeguzes iela 6":{"address":"Dzeguzes iela 6","city":"Kalngale","zip":"LV-2163"},"dzeguzes iela 7":{"address":"Dzeguzes iela 7","city":"Kalngale","zip":"LV-2163"},"dzeguzes iela 8":{"address":"Dzeguzes iela 8","city":"Kalngale","zip":"LV-2163"},"dzeguzes iela 9":{"address":"Dzeguzes iela 9","city":"Kalngale","zip":"LV-2163"},"dzeguzes iela 10":{"address":"Dzeguzes iela 10","city":"Kalngale","zip":"LV-2163"},"dzeguzes iela 11":{"address":"Dzeguzes iela 11","city":"Kalngale","zip":"LV-2163"},"dzeguzes iela 12":{"address":"Dzeguzes iela 12","city":"Kalngale","zip":"LV-2163"},"dzeguzes iela 13":{"address":"Dzeguzes iela 13","city":"Kalngale","zip":"LV-2163"},"dzeguzes iela 14":{"address":"Dzeguzes iela 14","city":"Kalngale","zip":"LV-2163"},"dzeguzes iela 15":{"address":"Dzeguzes iela 15","city":"Kalngale","zip":"LV-2163"},"dzeguzes iela 16":{"address":"Dzeguzes iela 16","city":"Kalngale","zip":"LV-2163"},"dzeguzes iela 17":{"address":"Dzeguzes iela 17","city":"Kalngale","zip":"LV-2163"},"dzeguzes iela 18":{"address":"Dzeguzes iela 18","city":"Kalngale","zip":"LV-2163"},"dzeguzes iela 19":{"address":"Dzeguzes iela 19","city":"Kalngale","zip":"LV-2163"},"dzeguzes iela 20":{"address":"Dzeguzes iela 20","city":"Kalngale","zip":"LV-2163"},"dzeguzes iela 21":{"address":"Dzeguzes iela 21","city":"Kalngale","zip":"LV-2163"},"dzeguzes iela 22":{"address":"Dzeguzes iela 22","city":"Kalngale","zip":"LV-2163"},"dzeguzes iela 23":{"address":"Dzeguzes iela 23","city":"Kalngale","zip":"LV-2163"},"dzeguzes iela 24":{"address":"Dzeguzes iela 24","city":"Kalngale","zip":"LV-2163"},"dzeguzes iela 25":{"address":"Dzeguzes iela 25","city":"Kalngale","zip":"LV-2163"},"dzeguzes iela 26":{"address":"Dzeguzes iela 26","city":"Kalngale","zip":"LV-2163"},"dzeguzes iela 27":{"address":"Dzeguzes iela 27","city":"Kalngale","zip":"LV-2163"},"dzeguzes iela 28":{"address":"Dzeguzes iela 28","city":"Kalngale","zip":"LV-2163"},"dzeguzes iela 29":{"address":"Dzeguzes iela 29","city":"Kalngale","zip":"LV-2163"},"dzeguzes iela 30":{"address":"Dzeguzes iela 30","city":"Kalngale","zip":"LV-2163"},"dzeguzes iela 31":{"address":"Dzeguzes iela 31","city":"Kalngale","zip":"LV-2163"},"dzeguzes iela 32":{"address":"Dzeguzes iela 32","city":"Kalngale","zip":"LV-2163"},"dzeguzes iela 33":{"address":"Dzeguzes iela 33","city":"Kalngale","zip":"LV-2163"},"dzeguzes iela 34":{"address":"Dzeguzes iela 34","city":"Kalngale","zip":"LV-2163"},"dzeguzes iela 35":{"address":"Dzeguzes iela 35","city":"Kalngale","zip":"LV-2163"},"dzeguzes iela 36":{"address":"Dzeguzes iela 36","city":"Kalngale","zip":"LV-2163"},"dzeguzes iela 37":{"address":"Dzeguzes iela 37","city":"Kalngale","zip":"LV-2163"},"dzeguzes iela 38":{"address":"Dzeguzes iela 38","city":"Kalngale","zip":"LV-2163"},"dzeguzes iela 39":{"address":"Dzeguzes iela 39","city":"Kalngale","zip":"LV-2163"}}