{"dzelmes 2 - 1":{"address":"Dzelmes 2 - 1","city":"Raiskums","zip":"LV-4146"},"dzelmes 2 - 2":{"address":"Dzelmes 2 - 2","city":"Raiskums","zip":"LV-4146"},"dzelmes 2 - 3":{"address":"Dzelmes 2 - 3","city":"Raiskums","zip":"LV-4146"},"dzelmes 2 - 4":{"address":"Dzelmes 2 - 4","city":"Raiskums","zip":"LV-4146"},"dzelmes 2 - 5":{"address":"Dzelmes 2 - 5","city":"Raiskums","zip":"LV-4146"},"dzelmes 2 - 6":{"address":"Dzelmes 2 - 6","city":"Raiskums","zip":"LV-4146"},"dzelmes 2 - 7":{"address":"Dzelmes 2 - 7","city":"Raiskums","zip":"LV-4146"},"dzelmes 2 - 8":{"address":"Dzelmes 2 - 8","city":"Raiskums","zip":"LV-4146"},"dzelmes 2 - 11":{"address":"Dzelmes 2 - 11","city":"Raiskums","zip":"LV-4146"},"dzelmes 2 - 10":{"address":"Dzelmes 2 - 10","city":"Raiskums","zip":"LV-4146"},"dzelmes 2 - 12":{"address":"Dzelmes 2 - 12","city":"Raiskums","zip":"LV-4146"},"dzelmes 2 - 9":{"address":"Dzelmes 2 - 9","city":"Raiskums","zip":"LV-4146"},"dzelmes 3 - 1":{"address":"Dzelmes 3 - 1","city":"Raiskums","zip":"LV-4146"},"dzelmes 3 - 2":{"address":"Dzelmes 3 - 2","city":"Raiskums","zip":"LV-4146"},"dzelmes 1 - 1":{"address":"Dzelmes 1 - 1","city":"Raiskums","zip":"LV-4146"},"dzelmes 1 - 2":{"address":"Dzelmes 1 - 2","city":"Raiskums","zip":"LV-4146"},"dzelmes 1 - 3":{"address":"Dzelmes 1 - 3","city":"Raiskums","zip":"LV-4146"},"dzelmes 1 - 4":{"address":"Dzelmes 1 - 4","city":"Raiskums","zip":"LV-4146"},"dzelmes 1 - 5":{"address":"Dzelmes 1 - 5","city":"Raiskums","zip":"LV-4146"},"dzelmes 1 - 6":{"address":"Dzelmes 1 - 6","city":"Raiskums","zip":"LV-4146"},"dzelmes 1 - 7":{"address":"Dzelmes 1 - 7","city":"Raiskums","zip":"LV-4146"},"dzelmes 1 - 8":{"address":"Dzelmes 1 - 8","city":"Raiskums","zip":"LV-4146"},"dzelmes 1 - 9":{"address":"Dzelmes 1 - 9","city":"Raiskums","zip":"LV-4146"},"dzelmes 1 - 10":{"address":"Dzelmes 1 - 10","city":"Raiskums","zip":"LV-4146"},"dzelmes 1 - 11":{"address":"Dzelmes 1 - 11","city":"Raiskums","zip":"LV-4146"},"dzelmes 1 - 12":{"address":"Dzelmes 1 - 12","city":"Raiskums","zip":"LV-4146"},"dzelmes 1 - 13":{"address":"Dzelmes 1 - 13","city":"Raiskums","zip":"LV-4146"},"dzelmes 1 - 14":{"address":"Dzelmes 1 - 14","city":"Raiskums","zip":"LV-4146"},"dzelmes 1 - 15":{"address":"Dzelmes 1 - 15","city":"Raiskums","zip":"LV-4146"},"dzelmes 1 - 16":{"address":"Dzelmes 1 - 16","city":"Raiskums","zip":"LV-4146"},"dzelmes 1 - 17":{"address":"Dzelmes 1 - 17","city":"Raiskums","zip":"LV-4146"},"dzelmes 1 - 18":{"address":"Dzelmes 1 - 18","city":"Raiskums","zip":"LV-4146"},"dzelmes 1 - 19":{"address":"Dzelmes 1 - 19","city":"Raiskums","zip":"LV-4146"},"dzelmes 1 - 20":{"address":"Dzelmes 1 - 20","city":"Raiskums","zip":"LV-4146"},"dzelmes 1 - 21":{"address":"Dzelmes 1 - 21","city":"Raiskums","zip":"LV-4146"},"dzelmes 1 - 22":{"address":"Dzelmes 1 - 22","city":"Raiskums","zip":"LV-4146"},"dzelmes 1 - 23":{"address":"Dzelmes 1 - 23","city":"Raiskums","zip":"LV-4146"},"dzelmes iela 2 - 1":{"address":"Dzelmes iela 2 - 1","city":"Melnbārži","zip":"LV-4133"},"dzelmes iela 2 - 2":{"address":"Dzelmes iela 2 - 2","city":"Melnbārži","zip":"LV-4133"},"dzelmes iela 2 - 3":{"address":"Dzelmes iela 2 - 3","city":"Melnbārži","zip":"LV-4133"},"dzelmes iela 2 - 4":{"address":"Dzelmes iela 2 - 4","city":"Melnbārži","zip":"LV-4133"},"dzelmes iela 2 - 5":{"address":"Dzelmes iela 2 - 5","city":"Melnbārži","zip":"LV-4133"},"dzelmes iela 2 - 6":{"address":"Dzelmes iela 2 - 6","city":"Melnbārži","zip":"LV-4133"},"dzelmes iela 2 - 7":{"address":"Dzelmes iela 2 - 7","city":"Melnbārži","zip":"LV-4133"},"dzelmes iela 2 - 8":{"address":"Dzelmes iela 2 - 8","city":"Melnbārži","zip":"LV-4133"},"dzelmes iela 2 - 9":{"address":"Dzelmes iela 2 - 9","city":"Melnbārži","zip":"LV-4133"},"dzelmes iela 2 - 10":{"address":"Dzelmes iela 2 - 10","city":"Melnbārži","zip":"LV-4133"},"dzelmes iela 2 - 11":{"address":"Dzelmes iela 2 - 11","city":"Melnbārži","zip":"LV-4133"},"dzelmes iela 2 - 12":{"address":"Dzelmes iela 2 - 12","city":"Melnbārži","zip":"LV-4133"},"dzelmes iela 2 - 13":{"address":"Dzelmes iela 2 - 13","city":"Melnbārži","zip":"LV-4133"},"dzelmes iela 2 - 14":{"address":"Dzelmes iela 2 - 14","city":"Melnbārži","zip":"LV-4133"},"dzelmes iela 2 - 15":{"address":"Dzelmes iela 2 - 15","city":"Melnbārži","zip":"LV-4133"},"dzelmes iela 2 - 16":{"address":"Dzelmes iela 2 - 16","city":"Melnbārži","zip":"LV-4133"},"dzelmes iela 2 - 17":{"address":"Dzelmes iela 2 - 17","city":"Melnbārži","zip":"LV-4133"},"dzelmes iela 2 - 18":{"address":"Dzelmes iela 2 - 18","city":"Melnbārži","zip":"LV-4133"},"dzelmes iela 2 - 19":{"address":"Dzelmes iela 2 - 19","city":"Melnbārži","zip":"LV-4133"},"dzelmes iela 2 - 20":{"address":"Dzelmes iela 2 - 20","city":"Melnbārži","zip":"LV-4133"},"dzelmes iela 2 - 21":{"address":"Dzelmes iela 2 - 21","city":"Melnbārži","zip":"LV-4133"},"dzelmes iela 2 - 22":{"address":"Dzelmes iela 2 - 22","city":"Melnbārži","zip":"LV-4133"},"dzelmes iela 2 - 23":{"address":"Dzelmes iela 2 - 23","city":"Melnbārži","zip":"LV-4133"},"dzelmes iela 2 - 24":{"address":"Dzelmes iela 2 - 24","city":"Melnbārži","zip":"LV-4133"},"dzelmes - 1":{"address":"Dzelmes - 1","city":"Lielauce","zip":"LV-3723"},"dzelmes - 2":{"address":"Dzelmes - 2","city":"Lielauce","zip":"LV-3723"},"dzelmes - 3":{"address":"Dzelmes - 3","city":"Lielauce","zip":"LV-3723"},"dzelmes - 4":{"address":"Dzelmes - 4","city":"Lielauce","zip":"LV-3723"},"dzelmes - 5":{"address":"Dzelmes - 5","city":"Lielauce","zip":"LV-3723"},"dzelmes - 6":{"address":"Dzelmes - 6","city":"Lielauce","zip":"LV-3723"},"dzelmes - 7":{"address":"Dzelmes - 7","city":"Lielauce","zip":"LV-3723"},"dzelmes - 8":{"address":"Dzelmes - 8","city":"Lielauce","zip":"LV-3723"},"dzelmes - 9":{"address":"Dzelmes - 9","city":"Lielauce","zip":"LV-3723"},"dzelmes - 10":{"address":"Dzelmes - 10","city":"Vidriži","zip":"LV-4013"},"dzelmes - 11":{"address":"Dzelmes - 11","city":"Vidriži","zip":"LV-4013"},"dzelmes - 12":{"address":"Dzelmes - 12","city":"Vidriži","zip":"LV-4013"},"dzelmes - 13":{"address":"Dzelmes - 13","city":"Vidriži","zip":"LV-4013"},"dzelmes - 14":{"address":"Dzelmes - 14","city":"Vidriži","zip":"LV-4013"},"dzelmes - 15":{"address":"Dzelmes - 15","city":"Vidriži","zip":"LV-4013"},"dzelmes - 16":{"address":"Dzelmes - 16","city":"Vidriži","zip":"LV-4013"},"dzelmes - 17":{"address":"Dzelmes - 17","city":"Vidriži","zip":"LV-4013"},"dzelmes - 18":{"address":"Dzelmes - 18","city":"Vidriži","zip":"LV-4013"}}