{"dzenīši 1 - 1":{"address":"Dzenīši 1 - 1","city":"Elkšņi","zip":"LV-5217"},"dzenīši 1 - 2":{"address":"Dzenīši 1 - 2","city":"Elkšņi","zip":"LV-5217"},"dzenīši 1 - 3":{"address":"Dzenīši 1 - 3","city":"Elkšņi","zip":"LV-5217"},"dzenīši 1 - 4":{"address":"Dzenīši 1 - 4","city":"Elkšņi","zip":"LV-5217"},"dzenīši 1 - 5":{"address":"Dzenīši 1 - 5","city":"Elkšņi","zip":"LV-5217"},"dzenīši 1 - 6":{"address":"Dzenīši 1 - 6","city":"Elkšņi","zip":"LV-5217"},"dzenīši 1 - 7":{"address":"Dzenīši 1 - 7","city":"Elkšņi","zip":"LV-5217"},"dzenīši 1 - 8":{"address":"Dzenīši 1 - 8","city":"Elkšņi","zip":"LV-5217"},"dzenīši 1 - 9":{"address":"Dzenīši 1 - 9","city":"Elkšņi","zip":"LV-5217"},"dzenīši 1 - 10":{"address":"Dzenīši 1 - 10","city":"Elkšņi","zip":"LV-5217"},"dzenīši 1 - 11":{"address":"Dzenīši 1 - 11","city":"Elkšņi","zip":"LV-5217"},"dzenīši 1 - 12":{"address":"Dzenīši 1 - 12","city":"Elkšņi","zip":"LV-5217"},"dzenīši":{"address":"Dzenīši","city":"Šķilbani","zip":"LV-4587"},"dzenīši 1":{"address":"Dzenīši 1","city":"Elkšņi","zip":"LV-5217"},"dzeņīši":{"address":"Dzeņīši","city":"Nagļi","zip":"LV-4631"},"dzenīši viens":{"address":"Dzenīši viens","city":"Veiguri","zip":"LV-5316"},"dzenīši 2":{"address":"Dzenīši 2","city":"Elkšņi","zip":"LV-5217"}}