{"dzilnas - 1":{"address":"Dzilnas - 1","city":"Plakanciems","zip":"LV-2113"},"dzilnas - 2":{"address":"Dzilnas - 2","city":"Plakanciems","zip":"LV-2113"},"dzilnas - 3":{"address":"Dzilnas - 3","city":"Ropaži","zip":"LV-2135"},"dzilnas - 4":{"address":"Dzilnas - 4","city":"Ropaži","zip":"LV-2135"},"dzilnas - 5":{"address":"Dzilnas - 5","city":"Ropaži","zip":"LV-2135"},"dzilnas - 6":{"address":"Dzilnas - 6","city":"Ropaži","zip":"LV-2135"},"dzilnas - 7":{"address":"Dzilnas - 7","city":"Ropaži","zip":"LV-2135"},"dzilnas - 8":{"address":"Dzilnas - 8","city":"Ropaži","zip":"LV-2135"},"dzilnas - 9":{"address":"Dzilnas - 9","city":"Ruba","zip":"LV-3894"},"dzilnas - 10":{"address":"Dzilnas - 10","city":"Ruba","zip":"LV-3894"},"dzilnas - 11":{"address":"Dzilnas - 11","city":"Ruba","zip":"LV-3894"},"dzilnas - 12":{"address":"Dzilnas - 12","city":"Ruba","zip":"LV-3894"},"dzilnas - 13":{"address":"Dzilnas - 13","city":"Ruba","zip":"LV-3894"},"dzilnas - 14":{"address":"Dzilnas - 14","city":"Ruba","zip":"LV-3894"},"dzilnas - 15":{"address":"Dzilnas - 15","city":"Ruba","zip":"LV-3894"},"dzilnas - 16":{"address":"Dzilnas - 16","city":"Ruba","zip":"LV-3894"},"dzilnas - 17":{"address":"Dzilnas - 17","city":"Ruba","zip":"LV-3894"},"dzilnas - 18":{"address":"Dzilnas - 18","city":"Ruba","zip":"LV-3894"}}