{"dzintari - 1":{"address":"Dzintari - 1","city":"Ance","zip":"LV-3612"},"dzintari - 2":{"address":"Dzintari - 2","city":"Ance","zip":"LV-3612"},"dzintari - 3":{"address":"Dzintari - 3","city":"Ance","zip":"LV-3612"},"dzintari - 4":{"address":"Dzintari - 4","city":"Ance","zip":"LV-3612"},"dzintari - 5":{"address":"Dzintari - 5","city":"Ance","zip":"LV-3612"},"dzintari - 6":{"address":"Dzintari - 6","city":"Ance","zip":"LV-3612"},"dzintari - 7":{"address":"Dzintari - 7","city":"Ance","zip":"LV-3612"},"dzintari - 8":{"address":"Dzintari - 8","city":"Ance","zip":"LV-3612"},"dzintari - 9":{"address":"Dzintari - 9","city":"Annenieki","zip":"LV-3718"},"dzintari - 10":{"address":"Dzintari - 10","city":"Annenieki","zip":"LV-3718"},"dzintari - 11":{"address":"Dzintari - 11","city":"Annenieki","zip":"LV-3718"},"dzintari - 12":{"address":"Dzintari - 12","city":"Annenieki","zip":"LV-3718"},"dzintari - 13":{"address":"Dzintari - 13","city":"Kroņauce","zip":"LV-3730"},"dzintari - 14":{"address":"Dzintari - 14","city":"Kroņauce","zip":"LV-3730"},"dzintari - 15":{"address":"Dzintari - 15","city":"Kroņauce","zip":"LV-3730"},"dzintari - 16":{"address":"Dzintari - 16","city":"Kroņauce","zip":"LV-3730"},"dzintari - 17":{"address":"Dzintari - 17","city":"Jaunauce","zip":"LV-3893"},"dzintari - 18":{"address":"Dzintari - 18","city":"Jaunauce","zip":"LV-3893"}}