{"dzirnavas - 1":{"address":"Dzirnavas - 1","city":"Jaunmuiža","zip":"LV-3614"},"dzirnavas - 2":{"address":"Dzirnavas - 2","city":"Jaunmuiža","zip":"LV-3614"},"dzirnavas - 3":{"address":"Dzirnavas - 3","city":"Kalnsētas","zip":"LV-3851"},"dzirnavas - 4":{"address":"Dzirnavas - 4","city":"Ezere","zip":"LV-3891"},"dzirnavas - 5":{"address":"Dzirnavas - 5","city":"Ezere","zip":"LV-3891"},"dzirnavas - 6":{"address":"Dzirnavas - 6","city":"Lēdurga","zip":"LV-4012"},"dzirnavas 1 - 1":{"address":"Dzirnavas 1 - 1","city":"Taurene","zip":"LV-4119"},"dzirnavas 1 - 2":{"address":"Dzirnavas 1 - 2","city":"Taurene","zip":"LV-4119"},"dzirnavas 2 - 1":{"address":"Dzirnavas 2 - 1","city":"Taurene","zip":"LV-4119"},"dzirnavas 2 - 2":{"address":"Dzirnavas 2 - 2","city":"Taurene","zip":"LV-4119"},"dzirnavas - 7":{"address":"Dzirnavas - 7","city":"Lēdurga","zip":"LV-4012"},"cieceres dzirnavas - 1":{"address":"Cieceres dzirnavas - 1","city":"Kalnsētas","zip":"LV-3851"},"cieceres dzirnavas - 2":{"address":"Cieceres dzirnavas - 2","city":"Kalnsētas","zip":"LV-3851"},"cieceres dzirnavas - 3":{"address":"Cieceres dzirnavas - 3","city":"Kalnsētas","zip":"LV-3851"},"palejas dzirnavas - 1":{"address":"Palejas dzirnavas - 1","city":"Biksti","zip":"LV-3713"},"palejas dzirnavas - 2":{"address":"Palejas dzirnavas - 2","city":"Biksti","zip":"LV-3713"},"palejas dzirnavas - 3":{"address":"Palejas dzirnavas - 3","city":"Biksti","zip":"LV-3713"},"palejas dzirnavas - 4":{"address":"Palejas dzirnavas - 4","city":"Biksti","zip":"LV-3713"},"bēnes dzirnavas - 1":{"address":"Bēnes dzirnavas - 1","city":"Bēne","zip":"LV-3711"},"bēnes dzirnavas - 2":{"address":"Bēnes dzirnavas - 2","city":"Bēne","zip":"LV-3711"},"bēnes dzirnavas - 3":{"address":"Bēnes dzirnavas - 3","city":"Bēne","zip":"LV-3711"},"bēnes dzirnavas - 4":{"address":"Bēnes dzirnavas - 4","city":"Bēne","zip":"LV-3711"},"bēnes dzirnavas - 5":{"address":"Bēnes dzirnavas - 5","city":"Bēne","zip":"LV-3711"},"bēnes dzirnavas - 6":{"address":"Bēnes dzirnavas - 6","city":"Bēne","zip":"LV-3711"},"bēnes dzirnavas - 7":{"address":"Bēnes dzirnavas - 7","city":"Bēne","zip":"LV-3711"}}