{"dārziņi - 1":{"address":"Dārziņi - 1","city":"Ciemupe","zip":"LV-5041"},"dārziņi - 2":{"address":"Dārziņi - 2","city":"Ciemupe","zip":"LV-5041"},"dārziņi - 3":{"address":"Dārziņi - 3","city":"Ciemupe","zip":"LV-5041"},"dārziņi - 4":{"address":"Dārziņi - 4","city":"Annenieki","zip":"LV-3718"},"dārziņi - 5":{"address":"Dārziņi - 5","city":"Jaunlaicene","zip":"LV-4336"},"dārziņi - 6":{"address":"Dārziņi - 6","city":"Jaunlaicene","zip":"LV-4336"},"dārziņi - 7":{"address":"Dārziņi - 7","city":"Jaunlaicene","zip":"LV-4336"},"dārziņi - 8":{"address":"Dārziņi - 8","city":"Jaunlaicene","zip":"LV-4336"},"dārziņi - 9":{"address":"Dārziņi - 9","city":"Jaunlaicene","zip":"LV-4336"},"dārziņi - 10":{"address":"Dārziņi - 10","city":"Jaunlaicene","zip":"LV-4336"},"dārziņi - 11":{"address":"Dārziņi - 11","city":"Jaunlaicene","zip":"LV-4336"},"dārziņi - 12":{"address":"Dārziņi - 12","city":"Jaunlaicene","zip":"LV-4336"},"dārziņi - 13":{"address":"Dārziņi - 13","city":"Jaunlaicene","zip":"LV-4336"},"dārziņi - 14":{"address":"Dārziņi - 14","city":"Jaunlaicene","zip":"LV-4336"},"dārziņi - 15":{"address":"Dārziņi - 15","city":"Jaunlaicene","zip":"LV-4336"},"dārziņi - 16":{"address":"Dārziņi - 16","city":"Jaunlaicene","zip":"LV-4336"},"dārziņi - 17":{"address":"Dārziņi - 17","city":"Jaunlaicene","zip":"LV-4336"},"dārziņi - 18":{"address":"Dārziņi - 18","city":"Jaunlaicene","zip":"LV-4336"},"dārziņi - 19":{"address":"Dārziņi - 19","city":"Jaunlaicene","zip":"LV-4336"},"dārziņi - 20":{"address":"Dārziņi - 20","city":"Jaunlaicene","zip":"LV-4336"},"dārziņi - 21":{"address":"Dārziņi - 21","city":"Jaunlaicene","zip":"LV-4336"},"dārziņi - 22":{"address":"Dārziņi - 22","city":"Jaunlaicene","zip":"LV-4336"},"dārziņi - 23":{"address":"Dārziņi - 23","city":"Jaunlaicene","zip":"LV-4336"},"dārziņi - 24":{"address":"Dārziņi - 24","city":"Jaunlaicene","zip":"LV-4336"},"dārziņi - 25":{"address":"Dārziņi - 25","city":"Jaunlaicene","zip":"LV-4336"},"dārziņi - 26":{"address":"Dārziņi - 26","city":"Jaunlaicene","zip":"LV-4336"},"dārziņi - 27":{"address":"Dārziņi - 27","city":"Jaunlaicene","zip":"LV-4336"},"dārziņi 1 - 1a":{"address":"Dārziņi 1 - 1A","city":"Jaunlaicene","zip":"LV-4336"},"dārziņi 1 - 2a":{"address":"Dārziņi 1 - 2A","city":"Jaunlaicene","zip":"LV-4336"},"dārziņi 1 - 3a":{"address":"Dārziņi 1 - 3A","city":"Jaunlaicene","zip":"LV-4336"},"dārziņi 1 - 4a":{"address":"Dārziņi 1 - 4A","city":"Jaunlaicene","zip":"LV-4336"},"dārziņi 1 - 5a":{"address":"Dārziņi 1 - 5A","city":"Jaunlaicene","zip":"LV-4336"},"dārziņi 1 - 6a":{"address":"Dārziņi 1 - 6A","city":"Jaunlaicene","zip":"LV-4336"},"dārziņi 1 - 7a":{"address":"Dārziņi 1 - 7A","city":"Jaunlaicene","zip":"LV-4336"},"dārziņi 1 - 8a":{"address":"Dārziņi 1 - 8A","city":"Jaunlaicene","zip":"LV-4336"},"dārziņi 1 - 9a":{"address":"Dārziņi 1 - 9A","city":"Jaunlaicene","zip":"LV-4336"},"dārziņi 1 - 10a":{"address":"Dārziņi 1 - 10A","city":"Jaunlaicene","zip":"LV-4336"},"dārziņi 1 - 11a":{"address":"Dārziņi 1 - 11A","city":"Jaunlaicene","zip":"LV-4336"},"dārziņi 1 - 12a":{"address":"Dārziņi 1 - 12A","city":"Jaunlaicene","zip":"LV-4336"},"dārziņi 2 - 1":{"address":"Dārziņi 2 - 1","city":"Ciemupe","zip":"LV-5041"},"dārziņi 2 - 2":{"address":"Dārziņi 2 - 2","city":"Ciemupe","zip":"LV-5041"},"dārziņi 2 - 3":{"address":"Dārziņi 2 - 3","city":"Ciemupe","zip":"LV-5041"},"dārziņi 2 - 4":{"address":"Dārziņi 2 - 4","city":"Ciemupe","zip":"LV-5041"},"dārziņi":{"address":"Dārziņi","city":"Vireši","zip":"LV-4355"}}