{"dīķu iela 2 - 1":{"address":"Dīķu iela 2 - 1","city":"Vaiņode","zip":"LV-3435"},"dīķu iela 2 - 2":{"address":"Dīķu iela 2 - 2","city":"Vaiņode","zip":"LV-3435"},"dīķu iela 2 - 3":{"address":"Dīķu iela 2 - 3","city":"Vaiņode","zip":"LV-3435"},"dīķu iela 2 - 4":{"address":"Dīķu iela 2 - 4","city":"Vaiņode","zip":"LV-3435"},"dīķu iela 21a - 1":{"address":"Dīķu iela 21A - 1","city":"Vaiņode","zip":"LV-3435"},"dīķu iela 21a - 2":{"address":"Dīķu iela 21A - 2","city":"Vaiņode","zip":"LV-3435"},"dīķu iela 19 - 1":{"address":"Dīķu iela 19 - 1","city":"Vaiņode","zip":"LV-3435"},"dīķu iela 19 - 2":{"address":"Dīķu iela 19 - 2","city":"Vaiņode","zip":"LV-3435"},"dīķu iela 3 - 1":{"address":"Dīķu iela 3 - 1","city":"Vaiņode","zip":"LV-3435"},"dīķu iela 3 - 2":{"address":"Dīķu iela 3 - 2","city":"Vaiņode","zip":"LV-3435"},"dīķu iela 3 - 3":{"address":"Dīķu iela 3 - 3","city":"Vaiņode","zip":"LV-3435"},"dīķu iela 3 - 4":{"address":"Dīķu iela 3 - 4","city":"Vaiņode","zip":"LV-3435"},"dīķu iela 4 - 1":{"address":"Dīķu iela 4 - 1","city":"Vaiņode","zip":"LV-3435"},"dīķu iela 4 - 2":{"address":"Dīķu iela 4 - 2","city":"Vaiņode","zip":"LV-3435"},"dīķu iela 4 - 3":{"address":"Dīķu iela 4 - 3","city":"Vaiņode","zip":"LV-3435"},"dīķu iela 4 - 4":{"address":"Dīķu iela 4 - 4","city":"Vaiņode","zip":"LV-3435"},"dīķu iela 4a - 1":{"address":"Dīķu iela 4A - 1","city":"Vaiņode","zip":"LV-3435"},"dīķu iela 4a - 2":{"address":"Dīķu iela 4A - 2","city":"Vaiņode","zip":"LV-3435"},"dīķu iela 4a - 3":{"address":"Dīķu iela 4A - 3","city":"Vaiņode","zip":"LV-3435"},"dīķu iela 4a - 4":{"address":"Dīķu iela 4A - 4","city":"Vaiņode","zip":"LV-3435"},"dīķu iela 5 - 1":{"address":"Dīķu iela 5 - 1","city":"Vaiņode","zip":"LV-3435"},"dīķu iela 5 - 2":{"address":"Dīķu iela 5 - 2","city":"Vaiņode","zip":"LV-3435"},"dīķu iela 5 - 3":{"address":"Dīķu iela 5 - 3","city":"Vaiņode","zip":"LV-3435"},"dīķu iela 5 - 4":{"address":"Dīķu iela 5 - 4","city":"Vaiņode","zip":"LV-3435"},"dīķu iela 5a - 1":{"address":"Dīķu iela 5A - 1","city":"Vaiņode","zip":"LV-3435"},"dīķu iela 5a - 2":{"address":"Dīķu iela 5A - 2","city":"Vaiņode","zip":"LV-3435"},"dīķu iela 8 - 1":{"address":"Dīķu iela 8 - 1","city":"Vaiņode","zip":"LV-3435"},"dīķu iela 8 - 2":{"address":"Dīķu iela 8 - 2","city":"Vaiņode","zip":"LV-3435"},"dīķu iela 9 - 1":{"address":"Dīķu iela 9 - 1","city":"Vaiņode","zip":"LV-3435"},"dīķu iela 9 - 2":{"address":"Dīķu iela 9 - 2","city":"Vaiņode","zip":"LV-3435"},"dīķu iela 9a - 1":{"address":"Dīķu iela 9A - 1","city":"Vaiņode","zip":"LV-3435"},"dīķu iela 9a - 2":{"address":"Dīķu iela 9A - 2","city":"Vaiņode","zip":"LV-3435"},"dīķu iela 11 - 1":{"address":"Dīķu iela 11 - 1","city":"Vaiņode","zip":"LV-3435"},"dīķu iela 11 - 2":{"address":"Dīķu iela 11 - 2","city":"Vaiņode","zip":"LV-3435"},"dīķu iela 17 - 1":{"address":"Dīķu iela 17 - 1","city":"Vaiņode","zip":"LV-3435"},"dīķu iela 17 - 2":{"address":"Dīķu iela 17 - 2","city":"Vaiņode","zip":"LV-3435"},"dīķu iela 17a - 1":{"address":"Dīķu iela 17A - 1","city":"Vaiņode","zip":"LV-3435"},"dīķu iela 17a - 2":{"address":"Dīķu iela 17A - 2","city":"Vaiņode","zip":"LV-3435"},"dīķu iela 22 - 1":{"address":"Dīķu iela 22 - 1","city":"Mārupe","zip":"LV-2167"},"dīķu iela 22 - 2":{"address":"Dīķu iela 22 - 2","city":"Mārupe","zip":"LV-2167"},"dīķu iela 22 - 3":{"address":"Dīķu iela 22 - 3","city":"Mārupe","zip":"LV-2167"},"dīķu iela 1 - 1":{"address":"Dīķu iela 1 - 1","city":"Dzelda","zip":"LV-3320"},"dīķu iela 1 - 2":{"address":"Dīķu iela 1 - 2","city":"Dzelda","zip":"LV-3320"},"dīķu iela 1 - 3":{"address":"Dīķu iela 1 - 3","city":"Dzelda","zip":"LV-3320"},"dīķu iela 1 - 4":{"address":"Dīķu iela 1 - 4","city":"Dzelda","zip":"LV-3320"},"dīķu iela 1 - 5":{"address":"Dīķu iela 1 - 5","city":"Dzelda","zip":"LV-3320"},"dīķu iela 1 - 6":{"address":"Dīķu iela 1 - 6","city":"Dzelda","zip":"LV-3320"},"dīķu iela 1 - 7":{"address":"Dīķu iela 1 - 7","city":"Dzelda","zip":"LV-3320"},"dīķu iela 1 - 8":{"address":"Dīķu iela 1 - 8","city":"Dzelda","zip":"LV-3320"}}