{"dūjiņas - 1":{"address":"Dūjiņas - 1","city":"Palsmane","zip":"LV-4724"},"dūjiņas - 2":{"address":"Dūjiņas - 2","city":"Palsmane","zip":"LV-4724"},"dūjiņas - 3":{"address":"Dūjiņas - 3","city":"Palsmane","zip":"LV-4724"},"dūjiņas - 4":{"address":"Dūjiņas - 4","city":"Palsmane","zip":"LV-4724"},"dūjiņas - 5":{"address":"Dūjiņas - 5","city":"Palsmane","zip":"LV-4724"},"dūjiņas - 6":{"address":"Dūjiņas - 6","city":"Palsmane","zip":"LV-4724"},"dūjiņas - 7":{"address":"Dūjiņas - 7","city":"Palsmane","zip":"LV-4724"},"dūjiņas - 8":{"address":"Dūjiņas - 8","city":"Palsmane","zip":"LV-4724"},"dūjiņas - 9":{"address":"Dūjiņas - 9","city":"Palsmane","zip":"LV-4724"},"dūjiņas - 10":{"address":"Dūjiņas - 10","city":"Palsmane","zip":"LV-4724"},"dūjiņas - 11":{"address":"Dūjiņas - 11","city":"Palsmane","zip":"LV-4724"},"dūjiņas - 12":{"address":"Dūjiņas - 12","city":"Palsmane","zip":"LV-4724"},"dūjiņas - 13":{"address":"Dūjiņas - 13","city":"Palsmane","zip":"LV-4724"},"dūjiņas - 14":{"address":"Dūjiņas - 14","city":"Palsmane","zip":"LV-4724"},"dūjiņas - 15":{"address":"Dūjiņas - 15","city":"Palsmane","zip":"LV-4724"},"dūjiņas - 16":{"address":"Dūjiņas - 16","city":"Palsmane","zip":"LV-4724"},"dūjiņas - 17":{"address":"Dūjiņas - 17","city":"Palsmane","zip":"LV-4724"},"dūjiņas - 18":{"address":"Dūjiņas - 18","city":"Palsmane","zip":"LV-4724"},"dūjiņas":{"address":"Dūjiņas","city":"Palsmane","zip":"LV-4724"}}