{"egles - 1":{"address":"Egles - 1","city":"Zastenki","zip":"LV-5462"},"egles - 2":{"address":"Egles - 2","city":"Zastenki","zip":"LV-5462"},"egles - 3":{"address":"Egles - 3","city":"Jaunpēternieki","zip":"LV-3018"},"egles - 4":{"address":"Egles - 4","city":"Jaunpēternieki","zip":"LV-3018"},"egles - 5":{"address":"Egles - 5","city":"Jaunpēternieki","zip":"LV-3018"},"egles - 6":{"address":"Egles - 6","city":"Jaunpēternieki","zip":"LV-3018"},"egles - 7":{"address":"Egles - 7","city":"Jaunpēternieki","zip":"LV-3018"},"egles - 8":{"address":"Egles - 8","city":"Jaunpēternieki","zip":"LV-3018"},"egles - 9":{"address":"Egles - 9","city":"Naukšēni","zip":"LV-4244"},"egles - 10":{"address":"Egles - 10","city":"Naukšēni","zip":"LV-4244"},"egles - 11":{"address":"Egles - 11","city":"Naukšēni","zip":"LV-4244"},"egles - 12":{"address":"Egles - 12","city":"Naukšēni","zip":"LV-4244"},"egles - 13":{"address":"Egles - 13","city":"Naukšēni","zip":"LV-4244"},"egles - 14":{"address":"Egles - 14","city":"Naukšēni","zip":"LV-4244"},"egles - 15":{"address":"Egles - 15","city":"Naukšēni","zip":"LV-4244"},"egles - 16":{"address":"Egles - 16","city":"Naukšēni","zip":"LV-4244"},"egles - 17":{"address":"Egles - 17","city":"Naukšēni","zip":"LV-4244"},"egles - 18":{"address":"Egles - 18","city":"Naukšēni","zip":"LV-4244"},"egles - 19":{"address":"Egles - 19","city":"Naukšēni","zip":"LV-4244"},"egles - 20":{"address":"Egles - 20","city":"Naukšēni","zip":"LV-4244"},"egles - 21":{"address":"Egles - 21","city":"Naukšēni","zip":"LV-4244"},"egles - 22":{"address":"Egles - 22","city":"Naukšēni","zip":"LV-4244"},"egles - 23":{"address":"Egles - 23","city":"Naukšēni","zip":"LV-4244"},"egles - 24":{"address":"Egles - 24","city":"Naukšēni","zip":"LV-4244"},"egles - 25":{"address":"Egles - 25","city":"Naukšēni","zip":"LV-4244"},"egles - 26":{"address":"Egles - 26","city":"Naukšēni","zip":"LV-4244"},"egles - 27":{"address":"Egles - 27","city":"Naukšēni","zip":"LV-4244"},"egles - 28":{"address":"Egles - 28","city":"Naukšēni","zip":"LV-4244"},"egles - 29":{"address":"Egles - 29","city":"Naukšēni","zip":"LV-4244"},"egles - 30":{"address":"Egles - 30","city":"Naukšēni","zip":"LV-4244"},"egles - 31":{"address":"Egles - 31","city":"Naukšēni","zip":"LV-4244"},"egles - 32":{"address":"Egles - 32","city":"Naukšēni","zip":"LV-4244"},"egles - 33":{"address":"Egles - 33","city":"Naukšēni","zip":"LV-4244"},"egles - 34":{"address":"Egles - 34","city":"Naukšēni","zip":"LV-4244"},"egles - 35":{"address":"Egles - 35","city":"Naukšēni","zip":"LV-4244"},"egles - 36":{"address":"Egles - 36","city":"Naukšēni","zip":"LV-4244"},"egles":{"address":"Egles","city":"Bērzaine","zip":"LV-4208"},"egleskalns":{"address":"Egleskalns","city":"Beloglazovka","zip":"LV-4636"},"egleslīči":{"address":"Egleslīči","city":"Guznava","zip":"LV-4501"},"egles 2":{"address":"Egles 2","city":"Druviena","zip":"LV-4426"}}