{"eglītes - 1":{"address":"Eglītes - 1","city":"Jumprava","zip":"LV-5022"},"eglītes - 2":{"address":"Eglītes - 2","city":"Jumprava","zip":"LV-5022"},"eglītes - 3":{"address":"Eglītes - 3","city":"Jumprava","zip":"LV-5022"},"eglītes - 4":{"address":"Eglītes - 4","city":"Jumprava","zip":"LV-5022"},"eglītes - 5":{"address":"Eglītes - 5","city":"Kušneri","zip":"LV-5736"},"eglītes - 6":{"address":"Eglītes - 6","city":"Kušneri","zip":"LV-5736"},"eglītes - 7":{"address":"Eglītes - 7","city":"Kušneri","zip":"LV-5736"},"eglītes - 8":{"address":"Eglītes - 8","city":"Kušneri","zip":"LV-5736"},"eglītes - 9":{"address":"Eglītes - 9","city":"Kušneri","zip":"LV-5736"},"eglītes - 10":{"address":"Eglītes - 10","city":"Kušneri","zip":"LV-5736"},"eglītes - 11":{"address":"Eglītes - 11","city":"Kušneri","zip":"LV-5736"},"eglītes - 12":{"address":"Eglītes - 12","city":"Kušneri","zip":"LV-5736"},"eglītes":{"address":"Eglītes","city":"Kolberģis","zip":"LV-4350"},"eglītes 1":{"address":"Eglītes 1","city":"Petrovka","zip":"LV-4623"}}