{"egļu gatve 13 - 1":{"address":"Egļu gatve 13 - 1","city":"Priekuļi","zip":"LV-4126"},"egļu gatve 13 - 2":{"address":"Egļu gatve 13 - 2","city":"Priekuļi","zip":"LV-4126"},"egļu gatve 13 - 3":{"address":"Egļu gatve 13 - 3","city":"Priekuļi","zip":"LV-4126"},"egļu gatve 13 - 4":{"address":"Egļu gatve 13 - 4","city":"Priekuļi","zip":"LV-4126"},"egļu gatve 13 - 5":{"address":"Egļu gatve 13 - 5","city":"Priekuļi","zip":"LV-4126"},"egļu gatve 13 - 6":{"address":"Egļu gatve 13 - 6","city":"Priekuļi","zip":"LV-4126"},"egļu gatve 13 - 7":{"address":"Egļu gatve 13 - 7","city":"Priekuļi","zip":"LV-4126"},"egļu gatve 13 - 8":{"address":"Egļu gatve 13 - 8","city":"Priekuļi","zip":"LV-4126"},"egļu gatve 13 - 9":{"address":"Egļu gatve 13 - 9","city":"Priekuļi","zip":"LV-4126"},"egļu gatve 13 - 10":{"address":"Egļu gatve 13 - 10","city":"Priekuļi","zip":"LV-4126"},"egļu gatve 13 - 11":{"address":"Egļu gatve 13 - 11","city":"Priekuļi","zip":"LV-4126"},"egļu gatve 13 - 12":{"address":"Egļu gatve 13 - 12","city":"Priekuļi","zip":"LV-4126"},"egļu gatve 13 - 13":{"address":"Egļu gatve 13 - 13","city":"Priekuļi","zip":"LV-4126"},"egļu gatve 13 - 14":{"address":"Egļu gatve 13 - 14","city":"Priekuļi","zip":"LV-4126"},"egļu gatve 13 - 15":{"address":"Egļu gatve 13 - 15","city":"Priekuļi","zip":"LV-4126"},"egļu gatve 13 - 16":{"address":"Egļu gatve 13 - 16","city":"Priekuļi","zip":"LV-4126"},"egļu gatve 13 - 17":{"address":"Egļu gatve 13 - 17","city":"Priekuļi","zip":"LV-4126"},"egļu gatve 13 - 18":{"address":"Egļu gatve 13 - 18","city":"Priekuļi","zip":"LV-4126"},"egļu gatve 13 - 19":{"address":"Egļu gatve 13 - 19","city":"Priekuļi","zip":"LV-4126"},"egļu gatve 13 - 20":{"address":"Egļu gatve 13 - 20","city":"Priekuļi","zip":"LV-4126"},"egļu gatve 13 - 21":{"address":"Egļu gatve 13 - 21","city":"Priekuļi","zip":"LV-4126"},"egļu gatve 13 - 22":{"address":"Egļu gatve 13 - 22","city":"Priekuļi","zip":"LV-4126"},"egļu gatve 13 - 23":{"address":"Egļu gatve 13 - 23","city":"Priekuļi","zip":"LV-4126"},"egļu gatve 13 - 24":{"address":"Egļu gatve 13 - 24","city":"Priekuļi","zip":"LV-4126"},"egļu gatve 6 - 1":{"address":"Egļu gatve 6 - 1","city":"Priekuļi","zip":"LV-4126"},"egļu gatve 6 - 2":{"address":"Egļu gatve 6 - 2","city":"Priekuļi","zip":"LV-4126"},"egļu gatve 6 - 3":{"address":"Egļu gatve 6 - 3","city":"Priekuļi","zip":"LV-4126"},"egļu gatve 1 - 1":{"address":"Egļu gatve 1 - 1","city":"Priekuļi","zip":"LV-4126"},"egļu gatve 1 - 2":{"address":"Egļu gatve 1 - 2","city":"Priekuļi","zip":"LV-4126"},"egļu gatve 1 - 3":{"address":"Egļu gatve 1 - 3","city":"Priekuļi","zip":"LV-4126"},"egļu gatve 1 - 4":{"address":"Egļu gatve 1 - 4","city":"Priekuļi","zip":"LV-4126"},"egļu gatve 4 - 1":{"address":"Egļu gatve 4 - 1","city":"Priekuļi","zip":"LV-4126"},"egļu gatve 4 - 2":{"address":"Egļu gatve 4 - 2","city":"Priekuļi","zip":"LV-4126"},"egļu gatve 4 - 3":{"address":"Egļu gatve 4 - 3","city":"Priekuļi","zip":"LV-4126"},"egļu gatve 4 - 4":{"address":"Egļu gatve 4 - 4","city":"Priekuļi","zip":"LV-4126"},"egļu gatve 4 - 5":{"address":"Egļu gatve 4 - 5","city":"Priekuļi","zip":"LV-4126"},"egļu gatve 4 - 6":{"address":"Egļu gatve 4 - 6","city":"Priekuļi","zip":"LV-4126"},"egļu gatve 4 - 7":{"address":"Egļu gatve 4 - 7","city":"Priekuļi","zip":"LV-4126"},"egļu gatve 4 - 8":{"address":"Egļu gatve 4 - 8","city":"Priekuļi","zip":"LV-4126"},"egļu gatve 4 - 9":{"address":"Egļu gatve 4 - 9","city":"Priekuļi","zip":"LV-4126"},"egļu gatve 7 - 1":{"address":"Egļu gatve 7 - 1","city":"Priekuļi","zip":"LV-4126"},"egļu gatve 7 - 2":{"address":"Egļu gatve 7 - 2","city":"Priekuļi","zip":"LV-4126"},"egļu gatve 7 - 3":{"address":"Egļu gatve 7 - 3","city":"Priekuļi","zip":"LV-4126"},"egļu gatve 7 - 4":{"address":"Egļu gatve 7 - 4","city":"Priekuļi","zip":"LV-4126"},"egļu gatve 7 - 5":{"address":"Egļu gatve 7 - 5","city":"Priekuļi","zip":"LV-4126"},"egļu gatve 7 - 6":{"address":"Egļu gatve 7 - 6","city":"Priekuļi","zip":"LV-4126"},"egļu gatve 7 - 7":{"address":"Egļu gatve 7 - 7","city":"Priekuļi","zip":"LV-4126"},"egļu gatve 7 - 8":{"address":"Egļu gatve 7 - 8","city":"Priekuļi","zip":"LV-4126"},"egļu gatve 11 - 1":{"address":"Egļu gatve 11 - 1","city":"Priekuļi","zip":"LV-4126"},"egļu gatve 11 - 2":{"address":"Egļu gatve 11 - 2","city":"Priekuļi","zip":"LV-4126"},"egļu gatve 11 - 3":{"address":"Egļu gatve 11 - 3","city":"Priekuļi","zip":"LV-4126"},"egļu gatve 11 - 4":{"address":"Egļu gatve 11 - 4","city":"Priekuļi","zip":"LV-4126"},"egļu gatve 11 - 5":{"address":"Egļu gatve 11 - 5","city":"Priekuļi","zip":"LV-4126"},"egļu gatve 11 - 6":{"address":"Egļu gatve 11 - 6","city":"Priekuļi","zip":"LV-4126"},"egļu gatve 11 - 7":{"address":"Egļu gatve 11 - 7","city":"Priekuļi","zip":"LV-4126"},"egļu gatve 11 - 8":{"address":"Egļu gatve 11 - 8","city":"Priekuļi","zip":"LV-4126"},"egļu gatve 11 - 9":{"address":"Egļu gatve 11 - 9","city":"Priekuļi","zip":"LV-4126"},"egļu gatve 11 - 10":{"address":"Egļu gatve 11 - 10","city":"Priekuļi","zip":"LV-4126"},"egļu gatve 11 - 11":{"address":"Egļu gatve 11 - 11","city":"Priekuļi","zip":"LV-4126"},"egļu gatve 11 - 12":{"address":"Egļu gatve 11 - 12","city":"Priekuļi","zip":"LV-4126"},"egļu gatve 11 - 13":{"address":"Egļu gatve 11 - 13","city":"Priekuļi","zip":"LV-4126"},"egļu gatve 11 - 14":{"address":"Egļu gatve 11 - 14","city":"Priekuļi","zip":"LV-4126"},"egļu gatve 11 - 15":{"address":"Egļu gatve 11 - 15","city":"Priekuļi","zip":"LV-4126"},"egļu gatve 11 - 16":{"address":"Egļu gatve 11 - 16","city":"Priekuļi","zip":"LV-4126"},"egļu gatve 11 - 2a":{"address":"Egļu gatve 11 - 2A","city":"Priekuļi","zip":"LV-4126"},"egļu gatve 9 - 101":{"address":"Egļu gatve 9 - 101","city":"Priekuļi","zip":"LV-4126"},"egļu gatve 9 - 102":{"address":"Egļu gatve 9 - 102","city":"Priekuļi","zip":"LV-4126"},"egļu gatve 9 - 103":{"address":"Egļu gatve 9 - 103","city":"Priekuļi","zip":"LV-4126"},"egļu gatve 9 - 104":{"address":"Egļu gatve 9 - 104","city":"Priekuļi","zip":"LV-4126"},"egļu gatve 9 - 105":{"address":"Egļu gatve 9 - 105","city":"Priekuļi","zip":"LV-4126"},"egļu gatve 9 - 106":{"address":"Egļu gatve 9 - 106","city":"Priekuļi","zip":"LV-4126"},"egļu gatve 9 - 107":{"address":"Egļu gatve 9 - 107","city":"Priekuļi","zip":"LV-4126"},"egļu gatve 9 - 108":{"address":"Egļu gatve 9 - 108","city":"Priekuļi","zip":"LV-4126"},"egļu gatve 9 - 109":{"address":"Egļu gatve 9 - 109","city":"Priekuļi","zip":"LV-4126"},"egļu gatve 9 - 110":{"address":"Egļu gatve 9 - 110","city":"Priekuļi","zip":"LV-4126"},"egļu gatve 9 - 111":{"address":"Egļu gatve 9 - 111","city":"Priekuļi","zip":"LV-4126"},"egļu gatve 9 - 112":{"address":"Egļu gatve 9 - 112","city":"Priekuļi","zip":"LV-4126"},"egļu gatve 9 - 113":{"address":"Egļu gatve 9 - 113","city":"Priekuļi","zip":"LV-4126"},"egļu gatve 9 - 114":{"address":"Egļu gatve 9 - 114","city":"Priekuļi","zip":"LV-4126"},"egļu gatve 9 - 115":{"address":"Egļu gatve 9 - 115","city":"Priekuļi","zip":"LV-4126"},"egļu gatve 9 - 116":{"address":"Egļu gatve 9 - 116","city":"Priekuļi","zip":"LV-4126"},"egļu gatve 9 - 117":{"address":"Egļu gatve 9 - 117","city":"Priekuļi","zip":"LV-4126"},"egļu gatve 9 - 118":{"address":"Egļu gatve 9 - 118","city":"Priekuļi","zip":"LV-4126"},"egļu gatve 9 - 119":{"address":"Egļu gatve 9 - 119","city":"Priekuļi","zip":"LV-4126"},"egļu gatve 9 - 120":{"address":"Egļu gatve 9 - 120","city":"Priekuļi","zip":"LV-4126"},"egļu gatve 9 - 121":{"address":"Egļu gatve 9 - 121","city":"Priekuļi","zip":"LV-4126"},"egļu gatve 9 - 122":{"address":"Egļu gatve 9 - 122","city":"Priekuļi","zip":"LV-4126"},"egļu gatve 9 - 123":{"address":"Egļu gatve 9 - 123","city":"Priekuļi","zip":"LV-4126"},"egļu gatve 9 - 124":{"address":"Egļu gatve 9 - 124","city":"Priekuļi","zip":"LV-4126"},"egļu gatve 9 - 125":{"address":"Egļu gatve 9 - 125","city":"Priekuļi","zip":"LV-4126"},"egļu gatve 9 - 126":{"address":"Egļu gatve 9 - 126","city":"Priekuļi","zip":"LV-4126"},"egļu gatve 9 - 201":{"address":"Egļu gatve 9 - 201","city":"Priekuļi","zip":"LV-4126"},"egļu gatve 9 - 202":{"address":"Egļu gatve 9 - 202","city":"Priekuļi","zip":"LV-4126"},"egļu gatve 9 - 203":{"address":"Egļu gatve 9 - 203","city":"Priekuļi","zip":"LV-4126"},"egļu gatve 9 - 204":{"address":"Egļu gatve 9 - 204","city":"Priekuļi","zip":"LV-4126"},"egļu gatve 9 - 205":{"address":"Egļu gatve 9 - 205","city":"Priekuļi","zip":"LV-4126"},"egļu gatve 9 - 206":{"address":"Egļu gatve 9 - 206","city":"Priekuļi","zip":"LV-4126"},"egļu gatve 9 - 207":{"address":"Egļu gatve 9 - 207","city":"Priekuļi","zip":"LV-4126"},"egļu gatve 9 - 208":{"address":"Egļu gatve 9 - 208","city":"Priekuļi","zip":"LV-4126"},"egļu gatve 9 - 209":{"address":"Egļu gatve 9 - 209","city":"Priekuļi","zip":"LV-4126"}}