{"elenburgas iela 111 - 1":{"address":"Elenburgas iela 111 - 1","city":"Upesciems","zip":"LV-2137"},"elenburgas iela 111 - 2":{"address":"Elenburgas iela 111 - 2","city":"Upesciems","zip":"LV-2137"},"elenburgas iela 111 - 3":{"address":"Elenburgas iela 111 - 3","city":"Upesciems","zip":"LV-2137"},"elenburgas iela 111 - 4":{"address":"Elenburgas iela 111 - 4","city":"Upesciems","zip":"LV-2137"},"elenburgas iela 111 - 5":{"address":"Elenburgas iela 111 - 5","city":"Upesciems","zip":"LV-2137"},"elenburgas iela 111 - 6":{"address":"Elenburgas iela 111 - 6","city":"Upesciems","zip":"LV-2137"},"elenburgas iela 17 - 1":{"address":"Elenburgas iela 17 - 1","city":"Langstiņi","zip":"LV-2137"},"elenburgas iela 17 - 2":{"address":"Elenburgas iela 17 - 2","city":"Langstiņi","zip":"LV-2137"},"elenburgas iela 17 - 3":{"address":"Elenburgas iela 17 - 3","city":"Langstiņi","zip":"LV-2137"},"elenburgas iela 42":{"address":"Elenburgas iela 42","city":"Langstiņi","zip":"LV-2137"},"elenburgas iela 44":{"address":"Elenburgas iela 44","city":"Langstiņi","zip":"LV-2137"},"elenburgas iela 46":{"address":"Elenburgas iela 46","city":"Langstiņi","zip":"LV-2137"},"elenburgas iela 48":{"address":"Elenburgas iela 48","city":"Langstiņi","zip":"LV-2137"},"elenburgas iela 50":{"address":"Elenburgas iela 50","city":"Langstiņi","zip":"LV-2137"},"elenburgas iela 52":{"address":"Elenburgas iela 52","city":"Langstiņi","zip":"LV-2137"},"elenburgas iela 28":{"address":"Elenburgas iela 28","city":"Langstiņi","zip":"LV-2137"},"elenburgas iela 30":{"address":"Elenburgas iela 30","city":"Langstiņi","zip":"LV-2137"},"elenburgas iela 32":{"address":"Elenburgas iela 32","city":"Langstiņi","zip":"LV-2137"},"elenburgas iela 34":{"address":"Elenburgas iela 34","city":"Langstiņi","zip":"LV-2137"},"elenburgas iela 12b":{"address":"Elenburgas iela 12B","city":"Langstiņi","zip":"LV-2137"},"elenburgas iela 13":{"address":"Elenburgas iela 13","city":"Langstiņi","zip":"LV-2137"},"elenburgas iela 15":{"address":"Elenburgas iela 15","city":"Langstiņi","zip":"LV-2137"},"elenburgas iela 21":{"address":"Elenburgas iela 21","city":"Langstiņi","zip":"LV-2137"},"elenburgas iela 23":{"address":"Elenburgas iela 23","city":"Langstiņi","zip":"LV-2137"},"elenburgas iela 25":{"address":"Elenburgas iela 25","city":"Langstiņi","zip":"LV-2137"},"elenburgas iela 5":{"address":"Elenburgas iela 5","city":"Langstiņi","zip":"LV-2137"},"elenburgas iela 5a":{"address":"Elenburgas iela 5A","city":"Langstiņi","zip":"LV-2137"},"elenburgas iela 6":{"address":"Elenburgas iela 6","city":"Langstiņi","zip":"LV-2137"},"elenburgas iela 7":{"address":"Elenburgas iela 7","city":"Langstiņi","zip":"LV-2137"},"elenburgas iela 9":{"address":"Elenburgas iela 9","city":"Langstiņi","zip":"LV-2137"},"elenburgas iela 10":{"address":"Elenburgas iela 10","city":"Langstiņi","zip":"LV-2137"},"elenburgas iela 10a":{"address":"Elenburgas iela 10A","city":"Langstiņi","zip":"LV-2137"},"elenburgas iela 10b":{"address":"Elenburgas iela 10B","city":"Langstiņi","zip":"LV-2137"},"elenburgas iela 11":{"address":"Elenburgas iela 11","city":"Langstiņi","zip":"LV-2137"},"elenburgas iela 12":{"address":"Elenburgas iela 12","city":"Langstiņi","zip":"LV-2137"},"elenburgas iela 1":{"address":"Elenburgas iela 1","city":"Langstiņi","zip":"LV-2137"},"elenburgas iela 1b":{"address":"Elenburgas iela 1B","city":"Langstiņi","zip":"LV-2137"},"elenburgas iela 2":{"address":"Elenburgas iela 2","city":"Langstiņi","zip":"LV-2137"},"elenburgas iela 2a":{"address":"Elenburgas iela 2A","city":"Langstiņi","zip":"LV-2137"},"elenburgas iela 2b":{"address":"Elenburgas iela 2B","city":"Langstiņi","zip":"LV-2137"},"elenburgas iela 2c":{"address":"Elenburgas iela 2C","city":"Langstiņi","zip":"LV-2137"},"elenburgas iela 3":{"address":"Elenburgas iela 3","city":"Langstiņi","zip":"LV-2137"},"elenburgas iela 3a":{"address":"Elenburgas iela 3A","city":"Langstiņi","zip":"LV-2137"},"elenburgas iela 4":{"address":"Elenburgas iela 4","city":"Langstiņi","zip":"LV-2137"},"elenburgas iela 4a":{"address":"Elenburgas iela 4A","city":"Langstiņi","zip":"LV-2137"},"elenburgas iela 4b":{"address":"Elenburgas iela 4B","city":"Langstiņi","zip":"LV-2137"},"elenburgas iela 99":{"address":"Elenburgas iela 99","city":"Upesciems","zip":"LV-2137"},"elenburgas iela 101":{"address":"Elenburgas iela 101","city":"Upesciems","zip":"LV-2137"},"elenburgas iela 8a":{"address":"Elenburgas iela 8A","city":"Langstiņi","zip":"LV-2137"},"elenburgas iela 8":{"address":"Elenburgas iela 8","city":"Langstiņi","zip":"LV-2137"},"elenburgas iela 142":{"address":"Elenburgas iela 142","city":"Upesciems","zip":"LV-2137"},"elenburgas iela 95":{"address":"Elenburgas iela 95","city":"Upesciems","zip":"LV-2137"},"elenburgas iela 99a":{"address":"Elenburgas iela 99A","city":"Upesciems","zip":"LV-2137"},"elenburgas iela 97":{"address":"Elenburgas iela 97","city":"Upesciems","zip":"LV-2137"},"elenburgas iela 73":{"address":"Elenburgas iela 73","city":"Upesciems","zip":"LV-2137"},"elenburgas iela 17b":{"address":"Elenburgas iela 17B","city":"Langstiņi","zip":"LV-2137"},"elenburgas iela 17a":{"address":"Elenburgas iela 17A","city":"Langstiņi","zip":"LV-2137"},"elenburgas iela 111":{"address":"Elenburgas iela 111","city":"Upesciems","zip":"LV-2137"},"elenburgas iela 31":{"address":"Elenburgas iela 31","city":"Upesciems","zip":"LV-2137"},"elenburgas iela 33":{"address":"Elenburgas iela 33","city":"Upesciems","zip":"LV-2137"},"elenburgas iela 41":{"address":"Elenburgas iela 41","city":"Upesciems","zip":"LV-2137"},"elenburgas iela 63":{"address":"Elenburgas iela 63","city":"Upesciems","zip":"LV-2137"},"elenburgas iela 71a":{"address":"Elenburgas iela 71A","city":"Upesciems","zip":"LV-2137"},"elenburgas iela 80":{"address":"Elenburgas iela 80","city":"Upesciems","zip":"LV-2137"},"elenburgas iela 82":{"address":"Elenburgas iela 82","city":"Upesciems","zip":"LV-2137"},"elenburgas iela 44a":{"address":"Elenburgas iela 44A","city":"Langstiņi","zip":"LV-2137"},"elenburgas iela 76":{"address":"Elenburgas iela 76","city":"Upesciems","zip":"LV-2137"},"elenburgas iela 35":{"address":"Elenburgas iela 35","city":"Langstiņi","zip":"LV-2137"},"elenburgas iela 17":{"address":"Elenburgas iela 17","city":"Langstiņi","zip":"LV-2137"},"elenburgas iela 19":{"address":"Elenburgas iela 19","city":"Langstiņi","zip":"LV-2137"},"elenburgas iela 74":{"address":"Elenburgas iela 74","city":"Upesciems","zip":"LV-2137"},"elenburgas iela 103":{"address":"Elenburgas iela 103","city":"Upesciems","zip":"LV-2137"},"elenburgas iela 105":{"address":"Elenburgas iela 105","city":"Upesciems","zip":"LV-2137"},"elenburgas iela 45":{"address":"Elenburgas iela 45","city":"Upesciems","zip":"LV-2137"},"elenburgas iela 71":{"address":"Elenburgas iela 71","city":"Upesciems","zip":"LV-2137"},"elenburgas iela 39":{"address":"Elenburgas iela 39","city":"Upesciems","zip":"LV-2137"}}