{"zīlītes - 1":{"address":"Zīlītes - 1","city":"Apserde","zip":"LV-5217"},"zīlītes - 2":{"address":"Zīlītes - 2","city":"Apserde","zip":"LV-5217"},"priednieki 1 - 1":{"address":"Priednieki 1 - 1","city":"Apserde","zip":"LV-5217"},"priednieki 1 - 2":{"address":"Priednieki 1 - 2","city":"Apserde","zip":"LV-5217"},"priednieki 1 - 3":{"address":"Priednieki 1 - 3","city":"Apserde","zip":"LV-5217"},"klauce 1 - 1":{"address":"Klauce 1 - 1","city":"Klauce","zip":"LV-5237"},"klauce 1 - 2":{"address":"Klauce 1 - 2","city":"Klauce","zip":"LV-5237"},"klauce 1 - 3":{"address":"Klauce 1 - 3","city":"Klauce","zip":"LV-5237"},"klauce 1 - 4":{"address":"Klauce 1 - 4","city":"Klauce","zip":"LV-5237"},"klauce 1 - 5":{"address":"Klauce 1 - 5","city":"Klauce","zip":"LV-5237"},"klauce 1 - 6":{"address":"Klauce 1 - 6","city":"Klauce","zip":"LV-5237"},"klauce 1 - 7":{"address":"Klauce 1 - 7","city":"Klauce","zip":"LV-5237"},"klauce 1 - 8":{"address":"Klauce 1 - 8","city":"Klauce","zip":"LV-5237"},"klauce 2 - 1":{"address":"Klauce 2 - 1","city":"Klauce","zip":"LV-5237"},"klauce 2 - 2":{"address":"Klauce 2 - 2","city":"Klauce","zip":"LV-5237"},"klauce 2 - 3":{"address":"Klauce 2 - 3","city":"Klauce","zip":"LV-5237"},"klauce 2 - 4":{"address":"Klauce 2 - 4","city":"Klauce","zip":"LV-5237"},"klauce 2 - 5":{"address":"Klauce 2 - 5","city":"Klauce","zip":"LV-5237"},"klauce 2 - 6":{"address":"Klauce 2 - 6","city":"Klauce","zip":"LV-5237"},"klauce 2 - 7":{"address":"Klauce 2 - 7","city":"Klauce","zip":"LV-5237"},"klauce 2 - 8":{"address":"Klauce 2 - 8","city":"Klauce","zip":"LV-5237"},"jaunā iela 4 - 1":{"address":"Jaunā iela 4 - 1","city":"Elkšņi","zip":"LV-5217"},"jaunā iela 4 - 2":{"address":"Jaunā iela 4 - 2","city":"Elkšņi","zip":"LV-5217"},"jaunā iela 4 - 3":{"address":"Jaunā iela 4 - 3","city":"Elkšņi","zip":"LV-5217"},"jaunā iela 4 - 4":{"address":"Jaunā iela 4 - 4","city":"Elkšņi","zip":"LV-5217"},"jaunā iela 4 - 5":{"address":"Jaunā iela 4 - 5","city":"Elkšņi","zip":"LV-5217"},"jaunā iela 4 - 6":{"address":"Jaunā iela 4 - 6","city":"Elkšņi","zip":"LV-5217"},"jaunā iela 4 - 7":{"address":"Jaunā iela 4 - 7","city":"Elkšņi","zip":"LV-5217"},"jaunā iela 4 - 8":{"address":"Jaunā iela 4 - 8","city":"Elkšņi","zip":"LV-5217"},"jaunā iela 4 - 9":{"address":"Jaunā iela 4 - 9","city":"Elkšņi","zip":"LV-5217"},"jaunā iela 4 - 10":{"address":"Jaunā iela 4 - 10","city":"Elkšņi","zip":"LV-5217"},"jaunā iela 4 - 11":{"address":"Jaunā iela 4 - 11","city":"Elkšņi","zip":"LV-5217"},"jaunā iela 4 - 12":{"address":"Jaunā iela 4 - 12","city":"Elkšņi","zip":"LV-5217"},"jaunā iela 4 - 13":{"address":"Jaunā iela 4 - 13","city":"Elkšņi","zip":"LV-5217"},"jaunā iela 4 - 14":{"address":"Jaunā iela 4 - 14","city":"Elkšņi","zip":"LV-5217"},"jaunā iela 4 - 15":{"address":"Jaunā iela 4 - 15","city":"Elkšņi","zip":"LV-5217"},"jaunā iela 4 - 16":{"address":"Jaunā iela 4 - 16","city":"Elkšņi","zip":"LV-5217"},"jaunā iela 4 - 17":{"address":"Jaunā iela 4 - 17","city":"Elkšņi","zip":"LV-5217"},"jaunā iela 4 - 18":{"address":"Jaunā iela 4 - 18","city":"Elkšņi","zip":"LV-5217"},"jaunā iela 6 - 1":{"address":"Jaunā iela 6 - 1","city":"Elkšņi","zip":"LV-5217"},"jaunā iela 6 - 2":{"address":"Jaunā iela 6 - 2","city":"Elkšņi","zip":"LV-5217"},"jaunā iela 6 - 3":{"address":"Jaunā iela 6 - 3","city":"Elkšņi","zip":"LV-5217"},"jaunā iela 6 - 4":{"address":"Jaunā iela 6 - 4","city":"Elkšņi","zip":"LV-5217"},"jaunā iela 6 - 5":{"address":"Jaunā iela 6 - 5","city":"Elkšņi","zip":"LV-5217"},"jaunā iela 6 - 6":{"address":"Jaunā iela 6 - 6","city":"Elkšņi","zip":"LV-5217"},"jaunā iela 6 - 7":{"address":"Jaunā iela 6 - 7","city":"Elkšņi","zip":"LV-5217"},"jaunā iela 6 - 8":{"address":"Jaunā iela 6 - 8","city":"Elkšņi","zip":"LV-5217"},"jaunā iela 6 - 9":{"address":"Jaunā iela 6 - 9","city":"Elkšņi","zip":"LV-5217"},"jaunā iela 6 - 10":{"address":"Jaunā iela 6 - 10","city":"Elkšņi","zip":"LV-5217"},"jaunā iela 6 - 11":{"address":"Jaunā iela 6 - 11","city":"Elkšņi","zip":"LV-5217"},"jaunā iela 6 - 12":{"address":"Jaunā iela 6 - 12","city":"Elkšņi","zip":"LV-5217"},"jaunā iela 6 - 13":{"address":"Jaunā iela 6 - 13","city":"Elkšņi","zip":"LV-5217"},"jaunā iela 6 - 14":{"address":"Jaunā iela 6 - 14","city":"Elkšņi","zip":"LV-5217"},"jaunā iela 6 - 15":{"address":"Jaunā iela 6 - 15","city":"Elkšņi","zip":"LV-5217"}}