{"ezerieši - 1":{"address":"Ezerieši - 1","city":"Lode","zip":"LV-4248"},"ezerieši - 2":{"address":"Ezerieši - 2","city":"Lode","zip":"LV-4248"},"ezeri - 15":{"address":"Ezeri - 15","city":"Pilsrundāle","zip":"LV-3921"},"ezeri - 12":{"address":"Ezeri - 12","city":"Pilsrundāle","zip":"LV-3921"},"ezeri - 1":{"address":"Ezeri - 1","city":"Sēme","zip":"LV-3110"},"ezeri - 2":{"address":"Ezeri - 2","city":"Sēme","zip":"LV-3110"},"ezeri - 3":{"address":"Ezeri - 3","city":"Sēme","zip":"LV-3110"},"ezeri - 4":{"address":"Ezeri - 4","city":"Sēme","zip":"LV-3110"},"ezeri - 5":{"address":"Ezeri - 5","city":"Sēme","zip":"LV-3110"},"ezeri - 6":{"address":"Ezeri - 6","city":"Sēme","zip":"LV-3110"},"ezeri - 7":{"address":"Ezeri - 7","city":"Sēme","zip":"LV-3110"},"ezeri - 8":{"address":"Ezeri - 8","city":"Sēme","zip":"LV-3110"},"ezeri - 9":{"address":"Ezeri - 9","city":"Pilsrundāle","zip":"LV-3921"},"ezeri - 11":{"address":"Ezeri - 11","city":"Pilsrundāle","zip":"LV-3921"},"ezeri - 13":{"address":"Ezeri - 13","city":"Pilsrundāle","zip":"LV-3921"},"ezeri - 14":{"address":"Ezeri - 14","city":"Pilsrundāle","zip":"LV-3921"},"ezeri - 10":{"address":"Ezeri - 10","city":"Pilsrundāle","zip":"LV-3921"},"ezeri - 16":{"address":"Ezeri - 16","city":"Pilsrundāle","zip":"LV-3921"},"ezeri - 17":{"address":"Ezeri - 17","city":"Pilsrundāle","zip":"LV-3921"},"ezeri - 18":{"address":"Ezeri - 18","city":"Pilsrundāle","zip":"LV-3921"},"ezeriņi - 1":{"address":"Ezeriņi - 1","city":"Pabaži","zip":"LV-2162"},"ezeriņi - 2":{"address":"Ezeriņi - 2","city":"Pabaži","zip":"LV-2162"},"ezeriņi - 3":{"address":"Ezeriņi - 3","city":"Pabaži","zip":"LV-2162"},"ezeriņi - 4":{"address":"Ezeriņi - 4","city":"Pabaži","zip":"LV-2162"},"ezeriņi - 5":{"address":"Ezeriņi - 5","city":"Pabaži","zip":"LV-2162"},"ezeriņi - 6":{"address":"Ezeriņi - 6","city":"Pabaži","zip":"LV-2162"},"ezeri 2 - 1":{"address":"Ezeri 2 - 1","city":"Ezermuiža","zip":"LV-3264"},"ezeri 2 - 2":{"address":"Ezeri 2 - 2","city":"Ezermuiža","zip":"LV-3264"},"ezeri 2 - 3":{"address":"Ezeri 2 - 3","city":"Ezermuiža","zip":"LV-3264"},"ezeriņu iela 10 - 1":{"address":"Ezeriņu iela 10 - 1","city":"Mārupe","zip":"LV-2167"},"ezeriņu iela 10 - 2":{"address":"Ezeriņu iela 10 - 2","city":"Mārupe","zip":"LV-2167"},"ezeriņu iela 10 - 3":{"address":"Ezeriņu iela 10 - 3","city":"Mārupe","zip":"LV-2167"},"ezeriņu iela 10 - 4":{"address":"Ezeriņu iela 10 - 4","city":"Mārupe","zip":"LV-2167"},"ezeriņi - 7":{"address":"Ezeriņi - 7","city":"Pabaži","zip":"LV-2162"},"ezeriņi - 8":{"address":"Ezeriņi - 8","city":"Pabaži","zip":"LV-2162"},"ezeriņu iela 2 - 1":{"address":"Ezeriņu iela 2 - 1","city":"Lapenieki","zip":"LV-2111"},"ezeriņu iela 2 - 2":{"address":"Ezeriņu iela 2 - 2","city":"Lapenieki","zip":"LV-2111"},"ezeriņu iela 6 - 1":{"address":"Ezeriņu iela 6 - 1","city":"Lapenieki","zip":"LV-2111"},"ezeriņu iela 6 - 2":{"address":"Ezeriņu iela 6 - 2","city":"Lapenieki","zip":"LV-2111"}}