{"ezerlīči - 1":{"address":"Ezerlīči - 1","city":"Kreiči","zip":"LV-5701"},"ezerlīči - 2":{"address":"Ezerlīči - 2","city":"Kreiči","zip":"LV-5701"},"ezerlīči - 3":{"address":"Ezerlīči - 3","city":"Kreiči","zip":"LV-5701"},"ezerlīči - 4":{"address":"Ezerlīči - 4","city":"Kreiči","zip":"LV-5701"},"ezerlīči - 5":{"address":"Ezerlīči - 5","city":"Vecstāmeriena","zip":"LV-4406"},"ezerlīči - 6":{"address":"Ezerlīči - 6","city":"Vecstāmeriena","zip":"LV-4406"},"ezerlīči - 7":{"address":"Ezerlīči - 7","city":"Vecstāmeriena","zip":"LV-4406"},"ezerlīči - 8":{"address":"Ezerlīči - 8","city":"Vecstāmeriena","zip":"LV-4406"},"mazie ezerlīči 1 - 1":{"address":"Mazie Ezerlīči 1 - 1","city":"Varkaļi","zip":"LV-2105"},"mazie ezerlīči 1 - 2":{"address":"Mazie Ezerlīči 1 - 2","city":"Varkaļi","zip":"LV-2105"},"ezerlīči":{"address":"Ezerlīči","city":"Kurma","zip":"LV-5733"},"ezerlīči 1":{"address":"Ezerlīči 1","city":"Pabaži","zip":"LV-2162"},"ezerlīči 2":{"address":"Ezerlīči 2","city":"Pabaži","zip":"LV-2162"},"ezerlīči 3":{"address":"Ezerlīči 3","city":"Pabaži","zip":"LV-2162"},"ezerlīči 4":{"address":"Ezerlīči 4","city":"Pabaži","zip":"LV-2162"},"ezerlīči 5":{"address":"Ezerlīči 5","city":"Pabaži","zip":"LV-2162"},"ezerlīči 6":{"address":"Ezerlīči 6","city":"Pabaži","zip":"LV-2162"},"ezerlīči 7":{"address":"Ezerlīči 7","city":"Pabaži","zip":"LV-2162"},"ezerlīči 8":{"address":"Ezerlīči 8","city":"Pabaži","zip":"LV-2162"},"ezerlīči 9":{"address":"Ezerlīči 9","city":"Pabaži","zip":"LV-2162"},"ezerlīči 10":{"address":"Ezerlīči 10","city":"Pabaži","zip":"LV-2162"},"mazie ezerlīči 1":{"address":"Mazie Ezerlīči 1","city":"Varkaļi","zip":"LV-2105"},"mazie ezerlīči 2":{"address":"Mazie Ezerlīči 2","city":"Varkaļi","zip":"LV-2105"},"mazie ezerlīči 3":{"address":"Mazie Ezerlīči 3","city":"Varkaļi","zip":"LV-2105"},"mazie ezerlīči 4":{"address":"Mazie Ezerlīči 4","city":"Varkaļi","zip":"LV-2105"},"mazie ezerlīči 5":{"address":"Mazie Ezerlīči 5","city":"Varkaļi","zip":"LV-2105"},"mazie ezerlīči 6":{"address":"Mazie Ezerlīči 6","city":"Varkaļi","zip":"LV-2105"},"mazie ezerlīči 7":{"address":"Mazie Ezerlīči 7","city":"Varkaļi","zip":"LV-2105"},"ezerlīči 13":{"address":"Ezerlīči 13","city":"Pabaži","zip":"LV-2162"},"ezerlīči 12":{"address":"Ezerlīči 12","city":"Pabaži","zip":"LV-2162"},"ezerlīči 14":{"address":"Ezerlīči 14","city":"Pabaži","zip":"LV-2162"},"ezerlīči 11":{"address":"Ezerlīči 11","city":"Varkaļi","zip":"LV-2105"},"ezerlīči 15":{"address":"Ezerlīči 15","city":"Pabaži","zip":"LV-2162"},"ezerlīcis":{"address":"Ezerlīcis","city":"Pokšāni","zip":"LV-5329"}}