{"piparkūkas - 1":{"address":"Piparkūkas - 1","city":"Ezernieki","zip":"LV-5692"},"piparkūkas - 2":{"address":"Piparkūkas - 2","city":"Ezernieki","zip":"LV-5692"},"platači - 1":{"address":"Platači - 1","city":"Ezernieki","zip":"LV-5692"},"platači - 2":{"address":"Platači - 2","city":"Ezernieki","zip":"LV-5692"},"kaspars 2 - 1":{"address":"Kaspars 2 - 1","city":"Ezernieki","zip":"LV-5692"},"kaspars 2 - 2":{"address":"Kaspars 2 - 2","city":"Ezernieki","zip":"LV-5692"},"kaspars 2 - 3":{"address":"Kaspars 2 - 3","city":"Ezernieki","zip":"LV-5692"},"kaspars 2 - 4":{"address":"Kaspars 2 - 4","city":"Ezernieki","zip":"LV-5692"},"baznīcas māja - 1":{"address":"Baznīcas māja - 1","city":"Ezernieki","zip":"LV-5692"},"baznīcas māja - 2":{"address":"Baznīcas māja - 2","city":"Ezernieki","zip":"LV-5692"},"baznīcas māja - 3":{"address":"Baznīcas māja - 3","city":"Ezernieki","zip":"LV-5692"},"baznīcas māja - 4":{"address":"Baznīcas māja - 4","city":"Ezernieki","zip":"LV-5692"},"baznīcas māja - 5":{"address":"Baznīcas māja - 5","city":"Ezernieki","zip":"LV-5692"},"baznīcas māja - 6":{"address":"Baznīcas māja - 6","city":"Ezernieki","zip":"LV-5692"},"baznīcas māja - 7":{"address":"Baznīcas māja - 7","city":"Ezernieki","zip":"LV-5692"},"baznīcas māja - 8":{"address":"Baznīcas māja - 8","city":"Ezernieki","zip":"LV-5692"},"zāles - 1":{"address":"Zāles - 1","city":"Ezernieki","zip":"LV-5692"},"zāles - 2":{"address":"Zāles - 2","city":"Ezernieki","zip":"LV-5692"},"kantori - 1":{"address":"Kantori - 1","city":"Ezernieki","zip":"LV-5692"},"kantori - 2":{"address":"Kantori - 2","city":"Ezernieki","zip":"LV-5692"},"kantori - 3":{"address":"Kantori - 3","city":"Ezernieki","zip":"LV-5692"},"bezdelīgu ligzdas - 1":{"address":"Bezdelīgu Ligzdas - 1","city":"Jakubki","zip":"LV-5692"},"bezdelīgu ligzdas - 2":{"address":"Bezdelīgu Ligzdas - 2","city":"Jakubki","zip":"LV-5692"},"ziedi - 1":{"address":"Ziedi - 1","city":"Ezernieki","zip":"LV-5692"},"ziedi - 2":{"address":"Ziedi - 2","city":"Ezernieki","zip":"LV-5692"},"ziedu lejas - 1":{"address":"Ziedu lejas - 1","city":"Ezernieki","zip":"LV-5692"},"ziedu lejas - 2":{"address":"Ziedu lejas - 2","city":"Ezernieki","zip":"LV-5692"},"krūmāji - 1":{"address":"Krūmāji - 1","city":"Jurkova","zip":"LV-5692"},"krūmāji - 2":{"address":"Krūmāji - 2","city":"Jurkova","zip":"LV-5692"},"mileviči - 1":{"address":"Mileviči - 1","city":"Ostravļani","zip":"LV-5692"},"mileviči - 2":{"address":"Mileviči - 2","city":"Ostravļani","zip":"LV-5692"},"palejas - 1":{"address":"Palejas - 1","city":"Ezernieki","zip":"LV-5692"},"palejas - 2":{"address":"Palejas - 2","city":"Ezernieki","zip":"LV-5692"},"palejas - 3":{"address":"Palejas - 3","city":"Ezernieki","zip":"LV-5692"},"palejas - 4":{"address":"Palejas - 4","city":"Ezernieki","zip":"LV-5692"},"mēnestiņi - 1":{"address":"Mēnestiņi - 1","city":"Ezernieki","zip":"LV-5692"},"mēnestiņi - 2":{"address":"Mēnestiņi - 2","city":"Ezernieki","zip":"LV-5692"},"kumelītes - 1":{"address":"Kumelītes - 1","city":"Ezernieki","zip":"LV-5692"},"kumelītes - 2":{"address":"Kumelītes - 2","city":"Ezernieki","zip":"LV-5692"},"kastaņmāja - 1":{"address":"Kastaņmāja - 1","city":"Ezernieki","zip":"LV-5692"},"kastaņmāja - 2":{"address":"Kastaņmāja - 2","city":"Ezernieki","zip":"LV-5692"},"kastaņmāja - 3":{"address":"Kastaņmāja - 3","city":"Ezernieki","zip":"LV-5692"},"kastaņmāja - 4":{"address":"Kastaņmāja - 4","city":"Ezernieki","zip":"LV-5692"},"kastaņmāja - 5":{"address":"Kastaņmāja - 5","city":"Ezernieki","zip":"LV-5692"},"kastaņmāja - 6":{"address":"Kastaņmāja - 6","city":"Ezernieki","zip":"LV-5692"},"kastaņmāja - 7":{"address":"Kastaņmāja - 7","city":"Ezernieki","zip":"LV-5692"},"kastaņmāja - 8":{"address":"Kastaņmāja - 8","city":"Ezernieki","zip":"LV-5692"},"kastaņmāja - 9":{"address":"Kastaņmāja - 9","city":"Ezernieki","zip":"LV-5692"},"kastaņmāja - 10":{"address":"Kastaņmāja - 10","city":"Ezernieki","zip":"LV-5692"},"kastaņmāja - 11":{"address":"Kastaņmāja - 11","city":"Ezernieki","zip":"LV-5692"},"kastaņmāja - 12":{"address":"Kastaņmāja - 12","city":"Ezernieki","zip":"LV-5692"},"kalmes - 1":{"address":"Kalmes - 1","city":"Ezernieki","zip":"LV-5692"},"kalmes - 2":{"address":"Kalmes - 2","city":"Ezernieki","zip":"LV-5692"},"kolnasātas - 1":{"address":"Kolnasātas - 1","city":"Ezernieki","zip":"LV-5692"},"kolnasātas - 2":{"address":"Kolnasātas - 2","city":"Ezernieki","zip":"LV-5692"},"kolnasātas - 3":{"address":"Kolnasātas - 3","city":"Ezernieki","zip":"LV-5692"},"samtenes - 1":{"address":"Samtenes - 1","city":"Ezernieki","zip":"LV-5692"},"samtenes - 2":{"address":"Samtenes - 2","city":"Ezernieki","zip":"LV-5692"},"samtenes - 3":{"address":"Samtenes - 3","city":"Ezernieki","zip":"LV-5692"},"samtenes - 4":{"address":"Samtenes - 4","city":"Ezernieki","zip":"LV-5692"},"samtenes - 5":{"address":"Samtenes - 5","city":"Ezernieki","zip":"LV-5692"},"samtenes - 6":{"address":"Samtenes - 6","city":"Ezernieki","zip":"LV-5692"},"sila kalni - 1":{"address":"Sila kalni - 1","city":"Ezernieki","zip":"LV-5692"},"sila kalni - 2":{"address":"Sila kalni - 2","city":"Ezernieki","zip":"LV-5692"},"tenisa klubs - 1":{"address":"Tenisa Klubs - 1","city":"Ezernieki","zip":"LV-5692"},"tenisa klubs - 2":{"address":"Tenisa Klubs - 2","city":"Ezernieki","zip":"LV-5692"},"tenisa klubs - 3":{"address":"Tenisa Klubs - 3","city":"Ezernieki","zip":"LV-5692"},"tenisa klubs - 4":{"address":"Tenisa Klubs - 4","city":"Ezernieki","zip":"LV-5692"},"tenisa klubs - 5":{"address":"Tenisa Klubs - 5","city":"Ezernieki","zip":"LV-5692"},"tenisa klubs - 6":{"address":"Tenisa Klubs - 6","city":"Ezernieki","zip":"LV-5692"},"tenisa klubs - 7":{"address":"Tenisa Klubs - 7","city":"Ezernieki","zip":"LV-5692"},"tenisa klubs - 8":{"address":"Tenisa Klubs - 8","city":"Ezernieki","zip":"LV-5692"},"tenisa klubs - 9":{"address":"Tenisa Klubs - 9","city":"Ezernieki","zip":"LV-5692"},"tenisa klubs - 10":{"address":"Tenisa Klubs - 10","city":"Ezernieki","zip":"LV-5692"},"tenisa klubs - 11":{"address":"Tenisa Klubs - 11","city":"Ezernieki","zip":"LV-5692"},"tenisa klubs - 12":{"address":"Tenisa Klubs - 12","city":"Ezernieki","zip":"LV-5692"},"tenisa klubs - 13":{"address":"Tenisa Klubs - 13","city":"Ezernieki","zip":"LV-5692"},"tenisa klubs - 14":{"address":"Tenisa Klubs - 14","city":"Ezernieki","zip":"LV-5692"},"tenisa klubs - 15":{"address":"Tenisa Klubs - 15","city":"Ezernieki","zip":"LV-5692"},"tenisa klubs - 16":{"address":"Tenisa Klubs - 16","city":"Ezernieki","zip":"LV-5692"},"tenisa klubs - 17":{"address":"Tenisa Klubs - 17","city":"Ezernieki","zip":"LV-5692"},"tenisa klubs - 18":{"address":"Tenisa Klubs - 18","city":"Ezernieki","zip":"LV-5692"},"tenisa klubs 1 - 1":{"address":"Tenisa Klubs 1 - 1","city":"Ezernieki","zip":"LV-5692"},"tenisa klubs 1 - 2":{"address":"Tenisa Klubs 1 - 2","city":"Ezernieki","zip":"LV-5692"},"tenisa klubs 1 - 3":{"address":"Tenisa Klubs 1 - 3","city":"Ezernieki","zip":"LV-5692"},"tenisa klubs 1 - 4":{"address":"Tenisa Klubs 1 - 4","city":"Ezernieki","zip":"LV-5692"},"tenisa klubs 1 - 5":{"address":"Tenisa Klubs 1 - 5","city":"Ezernieki","zip":"LV-5692"},"tenisa klubs 1 - 6":{"address":"Tenisa Klubs 1 - 6","city":"Ezernieki","zip":"LV-5692"},"tenisa klubs 1 - 7":{"address":"Tenisa Klubs 1 - 7","city":"Ezernieki","zip":"LV-5692"},"tenisa klubs 1 - 8":{"address":"Tenisa Klubs 1 - 8","city":"Ezernieki","zip":"LV-5692"},"tenisa klubs 1 - 9":{"address":"Tenisa Klubs 1 - 9","city":"Ezernieki","zip":"LV-5692"},"tenisa klubs 1 - 10":{"address":"Tenisa Klubs 1 - 10","city":"Ezernieki","zip":"LV-5692"},"tenisa klubs 1 - 11":{"address":"Tenisa Klubs 1 - 11","city":"Ezernieki","zip":"LV-5692"},"tenisa klubs 1 - 12":{"address":"Tenisa Klubs 1 - 12","city":"Ezernieki","zip":"LV-5692"},"tenisa klubs 1 - 13":{"address":"Tenisa Klubs 1 - 13","city":"Ezernieki","zip":"LV-5692"},"tenisa klubs 1 - 14":{"address":"Tenisa Klubs 1 - 14","city":"Ezernieki","zip":"LV-5692"},"tenisa klubs 1 - 15":{"address":"Tenisa Klubs 1 - 15","city":"Ezernieki","zip":"LV-5692"},"tenisa klubs 1 - 16":{"address":"Tenisa Klubs 1 - 16","city":"Ezernieki","zip":"LV-5692"},"tenisa klubs 1 - 17":{"address":"Tenisa Klubs 1 - 17","city":"Ezernieki","zip":"LV-5692"},"tenisa klubs 1 - 18":{"address":"Tenisa Klubs 1 - 18","city":"Ezernieki","zip":"LV-5692"}}