{"ezerkalni - 1":{"address":"Ezerkalni - 1","city":"Vasariški","zip":"LV-5460"},"ezerkalni - 2":{"address":"Ezerkalni - 2","city":"Vasariški","zip":"LV-5460"},"ezerkalni - 3":{"address":"Ezerkalni - 3","city":"Vasariški","zip":"LV-5460"},"ezerkalni - 4":{"address":"Ezerkalni - 4","city":"Vasariški","zip":"LV-5460"},"ezerkalni - 5":{"address":"Ezerkalni - 5","city":"Vilgāle","zip":"LV-3332"},"ezerkalni - 6":{"address":"Ezerkalni - 6","city":"Vilgāle","zip":"LV-3332"},"ezerkalni - 7":{"address":"Ezerkalni - 7","city":"Vilgāle","zip":"LV-3332"},"ezerkalni - 8":{"address":"Ezerkalni - 8","city":"Vilgāle","zip":"LV-3332"},"ezerkalni - 9":{"address":"Ezerkalni - 9","city":"Vilgāle","zip":"LV-3332"},"ezerkalni - 10":{"address":"Ezerkalni - 10","city":"Vilgāle","zip":"LV-3332"},"ezerkalni - 11":{"address":"Ezerkalni - 11","city":"Vilgāle","zip":"LV-3332"},"ezerkalni - 12":{"address":"Ezerkalni - 12","city":"Vilgāle","zip":"LV-3332"},"ezerkalni - 13":{"address":"Ezerkalni - 13","city":"Vilgāle","zip":"LV-3332"},"ezerkalni - 14":{"address":"Ezerkalni - 14","city":"Vilgāle","zip":"LV-3332"},"ezerkalni - 15":{"address":"Ezerkalni - 15","city":"Vilgāle","zip":"LV-3332"},"ezerkalni - 16":{"address":"Ezerkalni - 16","city":"Vilgāle","zip":"LV-3332"},"ezerkalni - 17":{"address":"Ezerkalni - 17","city":"Vilgāle","zip":"LV-3332"},"ezerkalni - 18":{"address":"Ezerkalni - 18","city":"Vilgāle","zip":"LV-3332"},"ezerkalni - 19":{"address":"Ezerkalni - 19","city":"Vilgāle","zip":"LV-3332"},"ezerkalni - 20":{"address":"Ezerkalni - 20","city":"Vilgāle","zip":"LV-3332"},"ezerkalni - 21":{"address":"Ezerkalni - 21","city":"Vilgāle","zip":"LV-3332"},"ezerkalni - 22":{"address":"Ezerkalni - 22","city":"Vilgāle","zip":"LV-3332"},"ezerkalni - 23":{"address":"Ezerkalni - 23","city":"Vilgāle","zip":"LV-3332"},"ezerkalni - 24":{"address":"Ezerkalni - 24","city":"Vilgāle","zip":"LV-3332"},"ezerkalni":{"address":"Ezerkalni","city":"Pāce","zip":"LV-3270"},"ezerkalniņi":{"address":"Ezerkalniņi","city":"Pērkoni","zip":"LV-4501"}}