{"atvari - 1":{"address":"Atvari - 1","city":"Satiķi","zip":"LV-3873"},"atvari - 2":{"address":"Atvari - 2","city":"Satiķi","zip":"LV-3873"},"atvari - 3":{"address":"Atvari - 3","city":"Satiķi","zip":"LV-3873"},"atvari - 4":{"address":"Atvari - 4","city":"Satiķi","zip":"LV-3873"},"atvari - 5":{"address":"Atvari - 5","city":"Satiķi","zip":"LV-3873"},"atvari - 6":{"address":"Atvari - 6","city":"Satiķi","zip":"LV-3873"},"atvari - 7":{"address":"Atvari - 7","city":"Satiķi","zip":"LV-3873"},"atvari - 8":{"address":"Atvari - 8","city":"Satiķi","zip":"LV-3873"},"atvari - 9":{"address":"Atvari - 9","city":"Satiķi","zip":"LV-3873"},"atvari - 10":{"address":"Atvari - 10","city":"Satiķi","zip":"LV-3873"},"atvari - 11":{"address":"Atvari - 11","city":"Satiķi","zip":"LV-3873"},"atvari - 12":{"address":"Atvari - 12","city":"Satiķi","zip":"LV-3873"},"atvari - 13":{"address":"Atvari - 13","city":"Satiķi","zip":"LV-3873"},"atvari - 14":{"address":"Atvari - 14","city":"Satiķi","zip":"LV-3873"},"atvari - 15":{"address":"Atvari - 15","city":"Satiķi","zip":"LV-3873"},"atvari - 16":{"address":"Atvari - 16","city":"Satiķi","zip":"LV-3873"},"atvari - 17":{"address":"Atvari - 17","city":"Satiķi","zip":"LV-3873"},"atvari - 18":{"address":"Atvari - 18","city":"Satiķi","zip":"LV-3873"},"atvari - 19":{"address":"Atvari - 19","city":"Satiķi","zip":"LV-3873"},"atvari - 20":{"address":"Atvari - 20","city":"Satiķi","zip":"LV-3873"},"atvari - 21":{"address":"Atvari - 21","city":"Satiķi","zip":"LV-3873"},"atvari - 22":{"address":"Atvari - 22","city":"Satiķi","zip":"LV-3873"},"atvari - 23":{"address":"Atvari - 23","city":"Satiķi","zip":"LV-3873"},"atvari - 24":{"address":"Atvari - 24","city":"Satiķi","zip":"LV-3873"},"avoti - 1":{"address":"Avoti - 1","city":"Satiķi","zip":"LV-3873"},"avoti - 2":{"address":"Avoti - 2","city":"Satiķi","zip":"LV-3873"},"avoti - 3":{"address":"Avoti - 3","city":"Satiķi","zip":"LV-3873"},"avoti - 4":{"address":"Avoti - 4","city":"Satiķi","zip":"LV-3873"},"avoti - 5":{"address":"Avoti - 5","city":"Satiķi","zip":"LV-3873"},"avoti - 6":{"address":"Avoti - 6","city":"Satiķi","zip":"LV-3873"},"avoti - 7":{"address":"Avoti - 7","city":"Satiķi","zip":"LV-3873"},"avoti - 8":{"address":"Avoti - 8","city":"Satiķi","zip":"LV-3873"},"avoti - 9":{"address":"Avoti - 9","city":"Satiķi","zip":"LV-3873"},"avoti - 10":{"address":"Avoti - 10","city":"Satiķi","zip":"LV-3873"},"avoti - 11":{"address":"Avoti - 11","city":"Satiķi","zip":"LV-3873"},"avoti - 12":{"address":"Avoti - 12","city":"Satiķi","zip":"LV-3873"},"avoti - 13":{"address":"Avoti - 13","city":"Satiķi","zip":"LV-3873"},"avoti - 14":{"address":"Avoti - 14","city":"Satiķi","zip":"LV-3873"},"avoti - 15":{"address":"Avoti - 15","city":"Satiķi","zip":"LV-3873"},"avoti - 16":{"address":"Avoti - 16","city":"Satiķi","zip":"LV-3873"},"avoti - 17":{"address":"Avoti - 17","city":"Satiķi","zip":"LV-3873"},"avoti - 18":{"address":"Avoti - 18","city":"Satiķi","zip":"LV-3873"},"avoti - 19":{"address":"Avoti - 19","city":"Satiķi","zip":"LV-3873"},"avoti - 20":{"address":"Avoti - 20","city":"Satiķi","zip":"LV-3873"},"avoti - 21":{"address":"Avoti - 21","city":"Satiķi","zip":"LV-3873"},"avoti - 22":{"address":"Avoti - 22","city":"Satiķi","zip":"LV-3873"},"avoti - 23":{"address":"Avoti - 23","city":"Satiķi","zip":"LV-3873"},"avoti - 24":{"address":"Avoti - 24","city":"Satiķi","zip":"LV-3873"},"griezes - 1":{"address":"Griezes - 1","city":"Satiķi","zip":"LV-3873"},"griezes - 2":{"address":"Griezes - 2","city":"Satiķi","zip":"LV-3873"},"griezes - 3":{"address":"Griezes - 3","city":"Satiķi","zip":"LV-3873"},"griezes - 4":{"address":"Griezes - 4","city":"Satiķi","zip":"LV-3873"},"griezes - 5":{"address":"Griezes - 5","city":"Satiķi","zip":"LV-3873"},"griezes - 6":{"address":"Griezes - 6","city":"Satiķi","zip":"LV-3873"},"griezes - 7":{"address":"Griezes - 7","city":"Satiķi","zip":"LV-3873"},"griezes - 8":{"address":"Griezes - 8","city":"Satiķi","zip":"LV-3873"},"griezes - 9":{"address":"Griezes - 9","city":"Satiķi","zip":"LV-3873"},"griezes - 10":{"address":"Griezes - 10","city":"Satiķi","zip":"LV-3873"},"griezes - 11":{"address":"Griezes - 11","city":"Satiķi","zip":"LV-3873"},"griezes - 12":{"address":"Griezes - 12","city":"Satiķi","zip":"LV-3873"},"griezes - 13":{"address":"Griezes - 13","city":"Satiķi","zip":"LV-3873"},"griezes - 14":{"address":"Griezes - 14","city":"Satiķi","zip":"LV-3873"},"griezes - 15":{"address":"Griezes - 15","city":"Satiķi","zip":"LV-3873"},"griezes - 16":{"address":"Griezes - 16","city":"Satiķi","zip":"LV-3873"},"griezes - 17":{"address":"Griezes - 17","city":"Satiķi","zip":"LV-3873"},"griezes - 18":{"address":"Griezes - 18","city":"Satiķi","zip":"LV-3873"},"kastaņas - 1":{"address":"Kastaņas - 1","city":"Satiķi","zip":"LV-3873"},"kastaņas - 2":{"address":"Kastaņas - 2","city":"Satiķi","zip":"LV-3873"},"kastaņas - 3":{"address":"Kastaņas - 3","city":"Satiķi","zip":"LV-3873"},"kastaņas - 4":{"address":"Kastaņas - 4","city":"Satiķi","zip":"LV-3873"},"kastaņas - 5":{"address":"Kastaņas - 5","city":"Satiķi","zip":"LV-3873"},"kastaņas - 6":{"address":"Kastaņas - 6","city":"Satiķi","zip":"LV-3873"},"kastaņas - 7":{"address":"Kastaņas - 7","city":"Satiķi","zip":"LV-3873"},"kastaņas - 8":{"address":"Kastaņas - 8","city":"Satiķi","zip":"LV-3873"},"vārpas - 1":{"address":"Vārpas - 1","city":"Satiķi","zip":"LV-3873"},"vārpas - 2":{"address":"Vārpas - 2","city":"Satiķi","zip":"LV-3873"},"vārpas - 3":{"address":"Vārpas - 3","city":"Satiķi","zip":"LV-3873"},"vārpas - 4":{"address":"Vārpas - 4","city":"Satiķi","zip":"LV-3873"},"vārpas - 5":{"address":"Vārpas - 5","city":"Satiķi","zip":"LV-3873"},"vārpas - 6":{"address":"Vārpas - 6","city":"Satiķi","zip":"LV-3873"},"vārpas - 7":{"address":"Vārpas - 7","city":"Satiķi","zip":"LV-3873"},"vārpas - 8":{"address":"Vārpas - 8","city":"Satiķi","zip":"LV-3873"},"vārpas - 9":{"address":"Vārpas - 9","city":"Satiķi","zip":"LV-3873"},"vārpas - 10":{"address":"Vārpas - 10","city":"Satiķi","zip":"LV-3873"},"vārpas - 11":{"address":"Vārpas - 11","city":"Satiķi","zip":"LV-3873"},"vārpas - 12":{"address":"Vārpas - 12","city":"Satiķi","zip":"LV-3873"},"vārpas - 13":{"address":"Vārpas - 13","city":"Satiķi","zip":"LV-3873"},"vārpas - 14":{"address":"Vārpas - 14","city":"Satiķi","zip":"LV-3873"},"vārpas - 15":{"address":"Vārpas - 15","city":"Satiķi","zip":"LV-3873"},"vārpas - 16":{"address":"Vārpas - 16","city":"Satiķi","zip":"LV-3873"},"vārpas - 17":{"address":"Vārpas - 17","city":"Satiķi","zip":"LV-3873"},"vārpas - 18":{"address":"Vārpas - 18","city":"Satiķi","zip":"LV-3873"},"vārpas - 19":{"address":"Vārpas - 19","city":"Satiķi","zip":"LV-3873"},"vārpas - 20":{"address":"Vārpas - 20","city":"Satiķi","zip":"LV-3873"},"vārpas - 21":{"address":"Vārpas - 21","city":"Satiķi","zip":"LV-3873"},"vārpas - 22":{"address":"Vārpas - 22","city":"Satiķi","zip":"LV-3873"},"vārpas - 23":{"address":"Vārpas - 23","city":"Satiķi","zip":"LV-3873"},"vārpas - 24":{"address":"Vārpas - 24","city":"Satiķi","zip":"LV-3873"}}