{"gaišais ceļš 195":{"address":"Gaišais ceļš 195","city":"Lielie Garanči","zip":"LV-4601"},"gaišais ceļš 196":{"address":"Gaišais ceļš 196","city":"Lielie Garanči","zip":"LV-4601"},"gaišais ceļš 185":{"address":"Gaišais ceļš 185","city":"Lielie Garanči","zip":"LV-4601"},"gaišais ceļš 186":{"address":"Gaišais ceļš 186","city":"Lielie Garanči","zip":"LV-4601"},"gaišais ceļš 187":{"address":"Gaišais ceļš 187","city":"Lielie Garanči","zip":"LV-4601"},"gaišais ceļš 188":{"address":"Gaišais ceļš 188","city":"Lielie Garanči","zip":"LV-4601"},"gaišais ceļš 189":{"address":"Gaišais ceļš 189","city":"Lielie Garanči","zip":"LV-4601"},"gaišais ceļš 190":{"address":"Gaišais ceļš 190","city":"Lielie Garanči","zip":"LV-4601"},"gaišais ceļš 182":{"address":"Gaišais ceļš 182","city":"Lielie Garanči","zip":"LV-4601"},"gaišais ceļš 177":{"address":"Gaišais ceļš 177","city":"Lielie Garanči","zip":"LV-4601"},"gaišais ceļš 174":{"address":"Gaišais ceļš 174","city":"Lielie Garanči","zip":"LV-4601"},"gaišais ceļš 170":{"address":"Gaišais ceļš 170","city":"Lielie Garanči","zip":"LV-4601"},"gaišais ceļš 171":{"address":"Gaišais ceļš 171","city":"Lielie Garanči","zip":"LV-4601"},"gaišais ceļš 172":{"address":"Gaišais ceļš 172","city":"Lielie Garanči","zip":"LV-4601"},"gaišais ceļš 155":{"address":"Gaišais ceļš 155","city":"Lielie Garanči","zip":"LV-4601"},"gaišais ceļš 156":{"address":"Gaišais ceļš 156","city":"Lielie Garanči","zip":"LV-4601"},"gaišais ceļš 157":{"address":"Gaišais ceļš 157","city":"Lielie Garanči","zip":"LV-4601"},"gaišais ceļš 158":{"address":"Gaišais ceļš 158","city":"Lielie Garanči","zip":"LV-4601"},"gaišais ceļš 165":{"address":"Gaišais ceļš 165","city":"Lielie Garanči","zip":"LV-4601"},"gaišais ceļš 166":{"address":"Gaišais ceļš 166","city":"Lielie Garanči","zip":"LV-4601"},"gaišais ceļš 167":{"address":"Gaišais ceļš 167","city":"Lielie Garanči","zip":"LV-4601"},"gaišais ceļš 152":{"address":"Gaišais ceļš 152","city":"Lielie Garanči","zip":"LV-4601"},"gaišais ceļš 136":{"address":"Gaišais ceļš 136","city":"Lielie Garanči","zip":"LV-4601"},"gaišais ceļš 145":{"address":"Gaišais ceļš 145","city":"Lielie Garanči","zip":"LV-4601"},"gaišais ceļš 146":{"address":"Gaišais ceļš 146","city":"Lielie Garanči","zip":"LV-4601"},"gaišais ceļš 147":{"address":"Gaišais ceļš 147","city":"Lielie Garanči","zip":"LV-4601"},"gaišais ceļš 149":{"address":"Gaišais ceļš 149","city":"Lielie Garanči","zip":"LV-4601"},"gaišais ceļš 141":{"address":"Gaišais ceļš 141","city":"Lielie Garanči","zip":"LV-4601"},"gaišais ceļš 131":{"address":"Gaišais ceļš 131","city":"Lielie Garanči","zip":"LV-4601"},"gaišais ceļš 132":{"address":"Gaišais ceļš 132","city":"Lielie Garanči","zip":"LV-4601"},"gaišais ceļš 133":{"address":"Gaišais ceļš 133","city":"Lielie Garanči","zip":"LV-4601"},"gaišais ceļš 134":{"address":"Gaišais ceļš 134","city":"Lielie Garanči","zip":"LV-4601"},"gaišais ceļš 120":{"address":"Gaišais ceļš 120","city":"Lielie Garanči","zip":"LV-4601"},"gaišais ceļš 121":{"address":"Gaišais ceļš 121","city":"Lielie Garanči","zip":"LV-4601"},"gaišais ceļš 122":{"address":"Gaišais ceļš 122","city":"Lielie Garanči","zip":"LV-4601"},"gaišais ceļš 123":{"address":"Gaišais ceļš 123","city":"Lielie Garanči","zip":"LV-4601"},"gaišais ceļš 125":{"address":"Gaišais ceļš 125","city":"Lielie Garanči","zip":"LV-4601"},"gaišais ceļš 126":{"address":"Gaišais ceļš 126","city":"Lielie Garanči","zip":"LV-4601"},"gaišais ceļš 127":{"address":"Gaišais ceļš 127","city":"Lielie Garanči","zip":"LV-4601"},"gaišais ceļš 128":{"address":"Gaišais ceļš 128","city":"Lielie Garanči","zip":"LV-4601"},"gaišais ceļš 129":{"address":"Gaišais ceļš 129","city":"Lielie Garanči","zip":"LV-4601"},"gaišais ceļš 117":{"address":"Gaišais ceļš 117","city":"Lielie Garanči","zip":"LV-4601"},"gaišais ceļš 118":{"address":"Gaišais ceļš 118","city":"Lielie Garanči","zip":"LV-4601"},"gaišais ceļš 111":{"address":"Gaišais ceļš 111","city":"Lielie Garanči","zip":"LV-4601"},"gaišais ceļš 112":{"address":"Gaišais ceļš 112","city":"Lielie Garanči","zip":"LV-4601"},"gaišais ceļš 114":{"address":"Gaišais ceļš 114","city":"Lielie Garanči","zip":"LV-4601"},"gaišais ceļš 109":{"address":"Gaišais ceļš 109","city":"Lielie Garanči","zip":"LV-4601"},"gaišais ceļš 105":{"address":"Gaišais ceļš 105","city":"Lielie Garanči","zip":"LV-4601"},"gaišais ceļš 97":{"address":"Gaišais ceļš 97","city":"Lielie Garanči","zip":"LV-4601"},"gaišais ceļš 98":{"address":"Gaišais ceļš 98","city":"Lielie Garanči","zip":"LV-4601"},"gaišais ceļš 99":{"address":"Gaišais ceļš 99","city":"Lielie Garanči","zip":"LV-4601"},"gaišais ceļš 100":{"address":"Gaišais ceļš 100","city":"Lielie Garanči","zip":"LV-4601"},"gaišais ceļš 93":{"address":"Gaišais ceļš 93","city":"Lielie Garanči","zip":"LV-4601"},"gaišais ceļš 94":{"address":"Gaišais ceļš 94","city":"Lielie Garanči","zip":"LV-4601"},"gaišais ceļš 95":{"address":"Gaišais ceļš 95","city":"Lielie Garanči","zip":"LV-4601"},"gaišais ceļš 88":{"address":"Gaišais ceļš 88","city":"Lielie Garanči","zip":"LV-4601"},"gaišais ceļš 89":{"address":"Gaišais ceļš 89","city":"Lielie Garanči","zip":"LV-4601"},"gaišais ceļš 90":{"address":"Gaišais ceļš 90","city":"Lielie Garanči","zip":"LV-4601"},"gaišais ceļš":{"address":"Gaišais ceļš","city":"Piedruja","zip":"LV-5662"}}