{"galiņu mājas":{"address":"Galiņu mājas","city":"Augstari","zip":"LV-4576"},"galiņi":{"address":"Galiņi","city":"Straupciems","zip":"LV-2105"},"gali":{"address":"Gali","city":"Roceži","zip":"LV-3280"},"bitīte-2 54":{"address":"Bitīte-2 54","city":"Galiņi","zip":"LV-2127"},"gaļinas mājas":{"address":"Gaļinas mājas","city":"Ūdrīši","zip":"LV-5601"},"bitīte-2 73":{"address":"Bitīte-2 73","city":"Galiņi","zip":"LV-2127"},"bitīte-2 77":{"address":"Bitīte-2 77","city":"Galiņi","zip":"LV-2127"},"bitīte-2 51":{"address":"Bitīte-2 51","city":"Galiņi","zip":"LV-2127"},"bitīte-2 9":{"address":"Bitīte-2 9","city":"Galiņi","zip":"LV-2127"},"bitīte-2 41":{"address":"Bitīte-2 41","city":"Galiņi","zip":"LV-2127"},"bitīte-2 58":{"address":"Bitīte-2 58","city":"Galiņi","zip":"LV-2127"},"bitīte-2 74":{"address":"Bitīte-2 74","city":"Galiņi","zip":"LV-2127"},"bitīte-2 29":{"address":"Bitīte-2 29","city":"Galiņi","zip":"LV-2127"},"bitīte-2 28":{"address":"Bitīte-2 28","city":"Galiņi","zip":"LV-2127"},"bitīte-2 23":{"address":"Bitīte-2 23","city":"Galiņi","zip":"LV-2127"},"bitīte-2 67":{"address":"Bitīte-2 67","city":"Galiņi","zip":"LV-2127"},"bitīte-2 69":{"address":"Bitīte-2 69","city":"Galiņi","zip":"LV-2127"},"bitīte-2 45":{"address":"Bitīte-2 45","city":"Galiņi","zip":"LV-2127"},"bitīte-2 89":{"address":"Bitīte-2 89","city":"Galiņi","zip":"LV-2127"},"bitīte-2 93":{"address":"Bitīte-2 93","city":"Galiņi","zip":"LV-2127"},"bitīte-2 71":{"address":"Bitīte-2 71","city":"Galiņi","zip":"LV-2127"},"bitīte-2 6":{"address":"Bitīte-2 6","city":"Galiņi","zip":"LV-2127"},"bitīte-2 87":{"address":"Bitīte-2 87","city":"Galiņi","zip":"LV-2127"},"bitīte-2 16":{"address":"Bitīte-2 16","city":"Galiņi","zip":"LV-2127"},"bitīte-2 7":{"address":"Bitīte-2 7","city":"Galiņi","zip":"LV-2127"},"bitīte-2 91":{"address":"Bitīte-2 91","city":"Galiņi","zip":"LV-2127"},"bitīte-2 68":{"address":"Bitīte-2 68","city":"Galiņi","zip":"LV-2127"},"bitīte-2 34":{"address":"Bitīte-2 34","city":"Galiņi","zip":"LV-2127"},"bitīte-2 30":{"address":"Bitīte-2 30","city":"Galiņi","zip":"LV-2127"},"bitīte-2 50":{"address":"Bitīte-2 50","city":"Galiņi","zip":"LV-2127"},"bitīte-2 17":{"address":"Bitīte-2 17","city":"Galiņi","zip":"LV-2127"},"bitīte-2 20":{"address":"Bitīte-2 20","city":"Galiņi","zip":"LV-2127"},"bitīte-2 26":{"address":"Bitīte-2 26","city":"Galiņi","zip":"LV-2127"},"bitīte-2 46":{"address":"Bitīte-2 46","city":"Galiņi","zip":"LV-2127"},"bitīte-2 70":{"address":"Bitīte-2 70","city":"Galiņi","zip":"LV-2127"},"bitīte-2 21":{"address":"Bitīte-2 21","city":"Galiņi","zip":"LV-2127"},"bitīte-2 48":{"address":"Bitīte-2 48","city":"Galiņi","zip":"LV-2127"},"bitīte-2 72":{"address":"Bitīte-2 72","city":"Galiņi","zip":"LV-2127"}}