{"ceļmalas - 1":{"address":"Ceļmalas - 1","city":"Garanči","zip":"LV-4618"},"ceļmalas - 2":{"address":"Ceļmalas - 2","city":"Garanči","zip":"LV-4618"},"kirijanovka - 1":{"address":"Kirijanovka - 1","city":"Lielie Garanči","zip":"LV-4601"},"kirijanovka - 2":{"address":"Kirijanovka - 2","city":"Lielie Garanči","zip":"LV-4601"},"koloss - 1":{"address":"Koloss - 1","city":"Lielie Garanči","zip":"LV-4601"},"koloss - 2":{"address":"Koloss - 2","city":"Lielie Garanči","zip":"LV-4601"},"skorpionu lauks - 1":{"address":"Skorpionu lauks - 1","city":"Lielie Garanči","zip":"LV-4601"},"skorpionu lauks - 2":{"address":"Skorpionu lauks - 2","city":"Lielie Garanči","zip":"LV-4601"},"kristīne - 1":{"address":"Kristīne - 1","city":"Lielie Garanči","zip":"LV-4601"},"kristīne - 2":{"address":"Kristīne - 2","city":"Lielie Garanči","zip":"LV-4601"},"kislovi - 1":{"address":"Kislovi - 1","city":"Mazie Garanči","zip":"LV-4601"},"kislovi - 2":{"address":"Kislovi - 2","city":"Mazie Garanči","zip":"LV-4601"},"olimpiada - 1":{"address":"Olimpiada - 1","city":"Mazie Garanči","zip":"LV-4601"},"olimpiada - 2":{"address":"Olimpiada - 2","city":"Mazie Garanči","zip":"LV-4601"},"olimpiada - 3":{"address":"Olimpiada - 3","city":"Mazie Garanči","zip":"LV-4601"},"vereda - 1":{"address":"Vereda - 1","city":"Mazie Garanči","zip":"LV-4601"},"vereda - 2":{"address":"Vereda - 2","city":"Mazie Garanči","zip":"LV-4601"},"brokāni - 1":{"address":"Brokāni - 1","city":"Lielie Garanči","zip":"LV-4601"},"brokāni - 2":{"address":"Brokāni - 2","city":"Lielie Garanči","zip":"LV-4601"},"brokāni - 3":{"address":"Brokāni - 3","city":"Lielie Garanči","zip":"LV-4601"},"mazie garanči 5 - 1":{"address":"Mazie Garanči 5 - 1","city":"Mazie Garanči","zip":"LV-4601"},"mazie garanči 5 - 2":{"address":"Mazie Garanči 5 - 2","city":"Mazie Garanči","zip":"LV-4601"},"majori":{"address":"Majori","city":"Garanči","zip":"LV-4638"},"matisoni":{"address":"Matisoni","city":"Garanči","zip":"LV-4638"},"tenisi":{"address":"Tenisi","city":"Garanči","zip":"LV-4638"},"garanči":{"address":"Garanči","city":"Garanči","zip":"LV-4618"},"jāņu mājas":{"address":"Jāņu mājas","city":"Garanči","zip":"LV-4638"},"kempi":{"address":"Kempi","city":"Garanči","zip":"LV-4638"},"luksus":{"address":"Luksus","city":"Garanči","zip":"LV-4638"},"lūsēni":{"address":"Lūsēni","city":"Garanči","zip":"LV-4638"},"upmalieši":{"address":"Upmalieši","city":"Garanči","zip":"LV-4628"},"radagaiss":{"address":"Radagaiss","city":"Garanči","zip":"LV-4628"},"garanču upmalīši":{"address":"Garanču upmalīši","city":"Garanči","zip":"LV-4628"},"desetnieki 1":{"address":"Desetnieki 1","city":"Garanči","zip":"LV-4628"},"dombrovski":{"address":"Dombrovski","city":"Garanči","zip":"LV-4618"},"graudumnieki":{"address":"Graudumnieki","city":"Garanči","zip":"LV-4618"},"jaki":{"address":"Jaki","city":"Garanči","zip":"LV-4618"},"krusti":{"address":"Krusti","city":"Garanči","zip":"LV-4618"},"mazuru mājas":{"address":"Mazuru mājas","city":"Garanči","zip":"LV-4618"},"purva mala":{"address":"Purva mala","city":"Garanči","zip":"LV-4618"},"sandras":{"address":"Sandras","city":"Garanči","zip":"LV-4618"},"ceļmalas":{"address":"Ceļmalas","city":"Garanči","zip":"LV-4618"},"smilgas":{"address":"Smilgas","city":"Garanči","zip":"LV-4618"},"atmatas":{"address":"Atmatas","city":"Garanči","zip":"LV-4618"},"iergļi":{"address":"Iergļi","city":"Lielie Garanči","zip":"LV-4601"},"galkini":{"address":"Galkini","city":"Lielie Garanči","zip":"LV-4601"},"ieviņas":{"address":"Ieviņas","city":"Lielie Garanči","zip":"LV-4601"},"kalnlejas":{"address":"Kalnlejas","city":"Lielie Garanči","zip":"LV-4601"},"gaišais ceļš 195":{"address":"Gaišais ceļš 195","city":"Lielie Garanči","zip":"LV-4601"},"gaišais ceļš 196":{"address":"Gaišais ceļš 196","city":"Lielie Garanči","zip":"LV-4601"},"koloss":{"address":"Koloss","city":"Lielie Garanči","zip":"LV-4601"},"kosmačeva":{"address":"Kosmačeva","city":"Lielie Garanči","zip":"LV-4601"},"kirijanovka":{"address":"Kirijanovka","city":"Lielie Garanči","zip":"LV-4601"},"kļavas":{"address":"Kļavas","city":"Lielie Garanči","zip":"LV-4601"},"skorpionu lauks":{"address":"Skorpionu lauks","city":"Lielie Garanči","zip":"LV-4601"},"ščemeļovi":{"address":"Ščemeļovi","city":"Lielie Garanči","zip":"LV-4601"},"upenes":{"address":"Upenes","city":"Lielie Garanči","zip":"LV-4601"},"ustinovi":{"address":"Ustinovi","city":"Lielie Garanči","zip":"LV-4601"},"ūzuls 1":{"address":"Ūzuls 1","city":"Lielie Garanči","zip":"LV-4601"},"varonis":{"address":"Varonis","city":"Lielie Garanči","zip":"LV-4601"},"vidsmeži":{"address":"Vidsmeži","city":"Lielie Garanči","zip":"LV-4601"},"vinidikts":{"address":"Vinidikts","city":"Lielie Garanči","zip":"LV-4601"},"virši":{"address":"Virši","city":"Lielie Garanči","zip":"LV-4601"},"aizvēji":{"address":"Aizvēji","city":"Mazie Garanči","zip":"LV-4601"},"apses":{"address":"Apses","city":"Mazie Garanči","zip":"LV-4601"},"astras":{"address":"Astras","city":"Mazie Garanči","zip":"LV-4601"},"aveņi 1":{"address":"Aveņi 1","city":"Mazie Garanči","zip":"LV-4601"},"berjoza":{"address":"Berjoza","city":"Mazie Garanči","zip":"LV-4601"},"cīruļi":{"address":"Cīruļi","city":"Mazie Garanči","zip":"LV-4601"},"drozdi":{"address":"Drozdi","city":"Mazie Garanči","zip":"LV-4601"},"dzeguzīte":{"address":"Dzeguzīte","city":"Mazie Garanči","zip":"LV-4601"},"gelena":{"address":"Gelena","city":"Mazie Garanči","zip":"LV-4601"},"grineviču māja":{"address":"Grineviču māja","city":"Mazie Garanči","zip":"LV-4601"},"jaungaranči":{"address":"Jaungaranči","city":"Mazie Garanči","zip":"LV-4601"},"jāzepa sēta":{"address":"Jāzepa sēta","city":"Mazie Garanči","zip":"LV-4601"},"vereda":{"address":"Vereda","city":"Mazie Garanči","zip":"LV-4601"},"virzas":{"address":"Virzas","city":"Mazie Garanči","zip":"LV-4601"},"olimpiada":{"address":"Olimpiada","city":"Mazie Garanči","zip":"LV-4601"},"papardes":{"address":"Papardes","city":"Mazie Garanči","zip":"LV-4601"},"pilsētnieki":{"address":"Pilsētnieki","city":"Mazie Garanči","zip":"LV-4601"},"plūmes":{"address":"Plūmes","city":"Mazie Garanči","zip":"LV-4601"},"strazdi":{"address":"Strazdi","city":"Mazie Garanči","zip":"LV-4601"},"šličkovi":{"address":"Šličkovi","city":"Mazie Garanči","zip":"LV-4601"},"šličkovi 1":{"address":"Šličkovi 1","city":"Mazie Garanči","zip":"LV-4601"},"upes garanči":{"address":"Upes Garanči","city":"Mazie Garanči","zip":"LV-4601"},"uplejas":{"address":"Uplejas","city":"Mazie Garanči","zip":"LV-4601"},"kislovi":{"address":"Kislovi","city":"Mazie Garanči","zip":"LV-4601"},"krauja":{"address":"Krauja","city":"Mazie Garanči","zip":"LV-4601"},"lukstiņmājas":{"address":"Lukstiņmājas","city":"Mazie Garanči","zip":"LV-4601"},"mazā paradīze":{"address":"Mazā paradīze","city":"Mazie Garanči","zip":"LV-4601"},"mētras":{"address":"Mētras","city":"Mazie Garanči","zip":"LV-4601"},"notras":{"address":"Notras","city":"Mazie Garanči","zip":"LV-4601"},"kristīne":{"address":"Kristīne","city":"Lielie Garanči","zip":"LV-4601"},"ķipuri":{"address":"Ķipuri","city":"Lielie Garanči","zip":"LV-4601"},"liepas 1":{"address":"Liepas 1","city":"Lielie Garanči","zip":"LV-4601"},"liepukalns":{"address":"Liepukalns","city":"Lielie Garanči","zip":"LV-4601"},"rozes":{"address":"Rozes","city":"Lielie Garanči","zip":"LV-4601"},"mežlauce":{"address":"Mežlauce","city":"Lielie Garanči","zip":"LV-4601"},"ogu māja":{"address":"Ogu māja","city":"Lielie Garanči","zip":"LV-4601"}}