{"gatves - 1":{"address":"Gatves - 1","city":"Druviena","zip":"LV-4426"},"gatves - 2":{"address":"Gatves - 2","city":"Druviena","zip":"LV-4426"},"gatves - 3":{"address":"Gatves - 3","city":"Druviena","zip":"LV-4426"},"gatves - 4":{"address":"Gatves - 4","city":"Druviena","zip":"LV-4426"},"gatves - 5":{"address":"Gatves - 5","city":"Druviena","zip":"LV-4426"},"gatves - 6":{"address":"Gatves - 6","city":"Druviena","zip":"LV-4426"},"gatves - 7":{"address":"Gatves - 7","city":"Druviena","zip":"LV-4426"},"gatves - 8":{"address":"Gatves - 8","city":"Druviena","zip":"LV-4426"},"gatves - 9":{"address":"Gatves - 9","city":"Druviena","zip":"LV-4426"},"gatves - 10":{"address":"Gatves - 10","city":"Druviena","zip":"LV-4426"},"gatves - 11":{"address":"Gatves - 11","city":"Druviena","zip":"LV-4426"},"gatves - 12":{"address":"Gatves - 12","city":"Druviena","zip":"LV-4426"},"gatves - 13":{"address":"Gatves - 13","city":"Druviena","zip":"LV-4426"},"gatves - 14":{"address":"Gatves - 14","city":"Druviena","zip":"LV-4426"},"gatves - 15":{"address":"Gatves - 15","city":"Druviena","zip":"LV-4426"},"gatves - 16":{"address":"Gatves - 16","city":"Druviena","zip":"LV-4426"},"gatves - 17":{"address":"Gatves - 17","city":"Druviena","zip":"LV-4426"},"gatves - 18":{"address":"Gatves - 18","city":"Druviena","zip":"LV-4426"},"gatves 9 - 1":{"address":"Gatves 9 - 1","city":"Ranka","zip":"LV-4416"},"gatves 9 - 2":{"address":"Gatves 9 - 2","city":"Ranka","zip":"LV-4416"},"gatves 9 - 3":{"address":"Gatves 9 - 3","city":"Ranka","zip":"LV-4416"},"gatves 9 - 4":{"address":"Gatves 9 - 4","city":"Ranka","zip":"LV-4416"},"gatves 9 - 5":{"address":"Gatves 9 - 5","city":"Ranka","zip":"LV-4416"},"gatves 9 - 6":{"address":"Gatves 9 - 6","city":"Ranka","zip":"LV-4416"},"gatves 9 - 7":{"address":"Gatves 9 - 7","city":"Ranka","zip":"LV-4416"},"gatves 9 - 8":{"address":"Gatves 9 - 8","city":"Ranka","zip":"LV-4416"},"gatves 9 - 9":{"address":"Gatves 9 - 9","city":"Ranka","zip":"LV-4416"},"gatves 9 - 10":{"address":"Gatves 9 - 10","city":"Ranka","zip":"LV-4416"},"gatves 9 - 11":{"address":"Gatves 9 - 11","city":"Ranka","zip":"LV-4416"},"gatves 9 - 12":{"address":"Gatves 9 - 12","city":"Ranka","zip":"LV-4416"},"gatves 5 - 2":{"address":"Gatves 5 - 2","city":"Ranka","zip":"LV-4416"},"gatves 5 - 3":{"address":"Gatves 5 - 3","city":"Ranka","zip":"LV-4416"},"gatves 5 - 4":{"address":"Gatves 5 - 4","city":"Ranka","zip":"LV-4416"},"gatves 5 - 5":{"address":"Gatves 5 - 5","city":"Ranka","zip":"LV-4416"},"gatves 5 - 6":{"address":"Gatves 5 - 6","city":"Ranka","zip":"LV-4416"},"gatves 5 - 7":{"address":"Gatves 5 - 7","city":"Ranka","zip":"LV-4416"},"gatves 5 - 8":{"address":"Gatves 5 - 8","city":"Ranka","zip":"LV-4416"},"gatves 5 - 9":{"address":"Gatves 5 - 9","city":"Ranka","zip":"LV-4416"},"gatves 5 - 10":{"address":"Gatves 5 - 10","city":"Ranka","zip":"LV-4416"},"gatves 5 - 11":{"address":"Gatves 5 - 11","city":"Ranka","zip":"LV-4416"},"gatves 5 - 12":{"address":"Gatves 5 - 12","city":"Ranka","zip":"LV-4416"},"gatves 6 - 1":{"address":"Gatves 6 - 1","city":"Ranka","zip":"LV-4416"},"gatves 6 - 2":{"address":"Gatves 6 - 2","city":"Ranka","zip":"LV-4416"},"gatves 6 - 3":{"address":"Gatves 6 - 3","city":"Ranka","zip":"LV-4416"},"gatves 6 - 4":{"address":"Gatves 6 - 4","city":"Ranka","zip":"LV-4416"},"gatves 6 - 5":{"address":"Gatves 6 - 5","city":"Ranka","zip":"LV-4416"},"gatves 6 - 6":{"address":"Gatves 6 - 6","city":"Ranka","zip":"LV-4416"},"gatves 6 - 7":{"address":"Gatves 6 - 7","city":"Ranka","zip":"LV-4416"},"gatves 6 - 8":{"address":"Gatves 6 - 8","city":"Ranka","zip":"LV-4416"},"gatves 6 - 9":{"address":"Gatves 6 - 9","city":"Ranka","zip":"LV-4416"},"gatves 6 - 10":{"address":"Gatves 6 - 10","city":"Ranka","zip":"LV-4416"},"gatves 6 - 11":{"address":"Gatves 6 - 11","city":"Ranka","zip":"LV-4416"},"gatves 6 - 12":{"address":"Gatves 6 - 12","city":"Ranka","zip":"LV-4416"},"gatves 7 - 1":{"address":"Gatves 7 - 1","city":"Ranka","zip":"LV-4416"},"gatves 7 - 2":{"address":"Gatves 7 - 2","city":"Ranka","zip":"LV-4416"},"gatves 7 - 3":{"address":"Gatves 7 - 3","city":"Ranka","zip":"LV-4416"},"gatves 7 - 4":{"address":"Gatves 7 - 4","city":"Ranka","zip":"LV-4416"},"gatves 7 - 5":{"address":"Gatves 7 - 5","city":"Ranka","zip":"LV-4416"},"gatves 7 - 6":{"address":"Gatves 7 - 6","city":"Ranka","zip":"LV-4416"},"gatves 7 - 7":{"address":"Gatves 7 - 7","city":"Ranka","zip":"LV-4416"},"gatves 7 - 8":{"address":"Gatves 7 - 8","city":"Ranka","zip":"LV-4416"},"gatves 7 - 9":{"address":"Gatves 7 - 9","city":"Ranka","zip":"LV-4416"},"gatves 7 - 10":{"address":"Gatves 7 - 10","city":"Ranka","zip":"LV-4416"},"gatves 7 - 11":{"address":"Gatves 7 - 11","city":"Ranka","zip":"LV-4416"},"gatves 7 - 12":{"address":"Gatves 7 - 12","city":"Ranka","zip":"LV-4416"},"gatves 8 - 1":{"address":"Gatves 8 - 1","city":"Ranka","zip":"LV-4416"},"gatves 8 - 2":{"address":"Gatves 8 - 2","city":"Ranka","zip":"LV-4416"},"gatves 8 - 3":{"address":"Gatves 8 - 3","city":"Ranka","zip":"LV-4416"},"gatves 8 - 4":{"address":"Gatves 8 - 4","city":"Ranka","zip":"LV-4416"},"gatves 8 - 5":{"address":"Gatves 8 - 5","city":"Ranka","zip":"LV-4416"},"gatves 8 - 6":{"address":"Gatves 8 - 6","city":"Ranka","zip":"LV-4416"},"gatves 8 - 7":{"address":"Gatves 8 - 7","city":"Ranka","zip":"LV-4416"},"gatves 8 - 8":{"address":"Gatves 8 - 8","city":"Ranka","zip":"LV-4416"},"gatves 8 - 9":{"address":"Gatves 8 - 9","city":"Ranka","zip":"LV-4416"},"gatves 8 - 10":{"address":"Gatves 8 - 10","city":"Ranka","zip":"LV-4416"},"gatves 8 - 11":{"address":"Gatves 8 - 11","city":"Ranka","zip":"LV-4416"},"gatves 8 - 12":{"address":"Gatves 8 - 12","city":"Ranka","zip":"LV-4416"},"gatves 1 - 1":{"address":"Gatves 1 - 1","city":"Ranka","zip":"LV-4416"},"gatves 1 - 2":{"address":"Gatves 1 - 2","city":"Ranka","zip":"LV-4416"},"gatves 1 - 3":{"address":"Gatves 1 - 3","city":"Ranka","zip":"LV-4416"},"gatves 1 - 4":{"address":"Gatves 1 - 4","city":"Ranka","zip":"LV-4416"},"gatves 1 - 5":{"address":"Gatves 1 - 5","city":"Ranka","zip":"LV-4416"},"gatves 1 - 6":{"address":"Gatves 1 - 6","city":"Ranka","zip":"LV-4416"},"gatves 1 - 7":{"address":"Gatves 1 - 7","city":"Ranka","zip":"LV-4416"},"gatves 1 - 8":{"address":"Gatves 1 - 8","city":"Ranka","zip":"LV-4416"},"gatves 1 - 9":{"address":"Gatves 1 - 9","city":"Ranka","zip":"LV-4416"},"gatves 1 - 10":{"address":"Gatves 1 - 10","city":"Ranka","zip":"LV-4416"},"gatves 1 - 11":{"address":"Gatves 1 - 11","city":"Ranka","zip":"LV-4416"},"gatves 1 - 12":{"address":"Gatves 1 - 12","city":"Ranka","zip":"LV-4416"},"gatves 2 - 1":{"address":"Gatves 2 - 1","city":"Ranka","zip":"LV-4416"},"gatves 2 - 2":{"address":"Gatves 2 - 2","city":"Ranka","zip":"LV-4416"},"gatves 2 - 3":{"address":"Gatves 2 - 3","city":"Ranka","zip":"LV-4416"},"gatves 2 - 4":{"address":"Gatves 2 - 4","city":"Ranka","zip":"LV-4416"},"gatves 2 - 5":{"address":"Gatves 2 - 5","city":"Ranka","zip":"LV-4416"},"gatves 2 - 6":{"address":"Gatves 2 - 6","city":"Ranka","zip":"LV-4416"},"gatves 2 - 7":{"address":"Gatves 2 - 7","city":"Ranka","zip":"LV-4416"},"gatves 2 - 8":{"address":"Gatves 2 - 8","city":"Ranka","zip":"LV-4416"}}