{"gaujmalas - 1":{"address":"Gaujmalas - 1","city":"Jaunpiebalga","zip":"LV-4125"},"gaujmalas - 2":{"address":"Gaujmalas - 2","city":"Jaunpiebalga","zip":"LV-4125"},"gaujmalas - 3":{"address":"Gaujmalas - 3","city":"Sinole","zip":"LV-4412"},"gaujmalas - 4":{"address":"Gaujmalas - 4","city":"Sinole","zip":"LV-4412"},"gaujmalas - 5":{"address":"Gaujmalas - 5","city":"Sinole","zip":"LV-4412"},"gaujmalas - 6":{"address":"Gaujmalas - 6","city":"Sinole","zip":"LV-4412"},"gaujmalas - 7":{"address":"Gaujmalas - 7","city":"Sinole","zip":"LV-4412"},"gaujmalas - 8":{"address":"Gaujmalas - 8","city":"Sinole","zip":"LV-4412"},"gaujmalas - 9":{"address":"Gaujmalas - 9","city":"Sinole","zip":"LV-4412"},"gaujmalas - 10":{"address":"Gaujmalas - 10","city":"Sinole","zip":"LV-4412"},"gaujmalas - 11":{"address":"Gaujmalas - 11","city":"Sinole","zip":"LV-4412"},"gaujmalas - 12":{"address":"Gaujmalas - 12","city":"Sinole","zip":"LV-4412"},"gaujmalas - 13":{"address":"Gaujmalas - 13","city":"Sinole","zip":"LV-4412"},"gaujmalas - 14":{"address":"Gaujmalas - 14","city":"Sinole","zip":"LV-4412"},"gaujmalas - 15":{"address":"Gaujmalas - 15","city":"Sinole","zip":"LV-4412"},"gaujmalas - 16":{"address":"Gaujmalas - 16","city":"Sinole","zip":"LV-4412"},"gaujmalas - 17":{"address":"Gaujmalas - 17","city":"Sinole","zip":"LV-4412"},"gaujmalas - 18":{"address":"Gaujmalas - 18","city":"Sinole","zip":"LV-4412"},"gaujmalas - 19":{"address":"Gaujmalas - 19","city":"Sinole","zip":"LV-4412"},"gaujmalas - 20":{"address":"Gaujmalas - 20","city":"Sinole","zip":"LV-4412"},"gaujmalas - 21":{"address":"Gaujmalas - 21","city":"Sinole","zip":"LV-4412"},"gaujmalas - 22":{"address":"Gaujmalas - 22","city":"Sinole","zip":"LV-4412"},"gaujmalas - 23":{"address":"Gaujmalas - 23","city":"Sinole","zip":"LV-4412"},"gaujmalas - 24":{"address":"Gaujmalas - 24","city":"Sinole","zip":"LV-4412"},"gaujmalas iela 4 - 1":{"address":"Gaujmalas iela 4 - 1","city":"Ādaži","zip":"LV-2164"},"gaujmalas iela 4 - 2":{"address":"Gaujmalas iela 4 - 2","city":"Ādaži","zip":"LV-2164"},"gaujmalas":{"address":"Gaujmalas","city":"Tīrumi","zip":"LV-3917"},"gaujmalas iela 23":{"address":"Gaujmalas iela 23","city":"Ādaži","zip":"LV-2164"},"gaujmalas iela 21":{"address":"Gaujmalas iela 21","city":"Ādaži","zip":"LV-2164"},"gaujmalas iela 17":{"address":"Gaujmalas iela 17","city":"Ādaži","zip":"LV-2164"},"gaujmalas iela 11":{"address":"Gaujmalas iela 11","city":"Ādaži","zip":"LV-2164"},"gaujmalas iela 31":{"address":"Gaujmalas iela 31","city":"Ādaži","zip":"LV-2164"},"gaujmalas iela 29":{"address":"Gaujmalas iela 29","city":"Ādaži","zip":"LV-2164"},"gaujmalas iela 27":{"address":"Gaujmalas iela 27","city":"Ādaži","zip":"LV-2164"},"gaujmalas iela 19":{"address":"Gaujmalas iela 19","city":"Ādaži","zip":"LV-2164"},"gaujmalas iela 25":{"address":"Gaujmalas iela 25","city":"Ādaži","zip":"LV-2164"},"gaujmalas iela 4":{"address":"Gaujmalas iela 4","city":"Ādaži","zip":"LV-2164"},"gaujmalas iela 6":{"address":"Gaujmalas iela 6","city":"Ādaži","zip":"LV-2164"},"gaujmalas iela 35":{"address":"Gaujmalas iela 35","city":"Ādaži","zip":"LV-2164"},"gaujmalas iela 2":{"address":"Gaujmalas iela 2","city":"Ādaži","zip":"LV-2164"},"gaujmalas iela 9":{"address":"Gaujmalas iela 9","city":"Ādaži","zip":"LV-2164"},"gaujmalas iela 15":{"address":"Gaujmalas iela 15","city":"Ādaži","zip":"LV-2164"},"gaujmalas iela 33":{"address":"Gaujmalas iela 33","city":"Ādaži","zip":"LV-2164"},"gaujmalas iela 3":{"address":"Gaujmalas iela 3","city":"Ādaži","zip":"LV-2164"},"gaujmalas iela 5":{"address":"Gaujmalas iela 5","city":"Ādaži","zip":"LV-2164"},"gaujmalas iela 7":{"address":"Gaujmalas iela 7","city":"Ādaži","zip":"LV-2164"}}