{"graudiņi - 1":{"address":"Graudiņi - 1","city":"Plāņi","zip":"LV-4727"},"graudiņi - 2":{"address":"Graudiņi - 2","city":"Plāņi","zip":"LV-4727"},"graudiņi - 3":{"address":"Graudiņi - 3","city":"Plāņi","zip":"LV-4727"},"graudiņi - 4":{"address":"Graudiņi - 4","city":"Aizstrautnieki","zip":"LV-3701"},"graudiņi - 5":{"address":"Graudiņi - 5","city":"Aizstrautnieki","zip":"LV-3701"},"graudiņi - 6":{"address":"Graudiņi - 6","city":"Aizstrautnieki","zip":"LV-3701"},"graudiņi - 7":{"address":"Graudiņi - 7","city":"Aizstrautnieki","zip":"LV-3701"},"graudiņi - 8":{"address":"Graudiņi - 8","city":"Aizstrautnieki","zip":"LV-3701"},"graudiņi - 9":{"address":"Graudiņi - 9","city":"Aizstrautnieki","zip":"LV-3701"},"graudiņi - 10":{"address":"Graudiņi - 10","city":"Aizstrautnieki","zip":"LV-3701"},"graudiņi - 11":{"address":"Graudiņi - 11","city":"Aizstrautnieki","zip":"LV-3701"},"graudiņi - 12":{"address":"Graudiņi - 12","city":"Aizstrautnieki","zip":"LV-3701"},"graudi - 1":{"address":"Graudi - 1","city":"Lādzere","zip":"LV-3281"},"graudi - 2":{"address":"Graudi - 2","city":"Lādzere","zip":"LV-3281"},"graudi - 3":{"address":"Graudi - 3","city":"Lādzere","zip":"LV-3281"},"graudi - 4":{"address":"Graudi - 4","city":"Lādzere","zip":"LV-3281"},"graudi - 5":{"address":"Graudi - 5","city":"Lādzere","zip":"LV-3281"},"graudi - 6":{"address":"Graudi - 6","city":"Lādzere","zip":"LV-3281"},"graudi - 7":{"address":"Graudi - 7","city":"Lādzere","zip":"LV-3281"},"graudi - 8":{"address":"Graudi - 8","city":"Lādzere","zip":"LV-3281"},"graudi - 9":{"address":"Graudi - 9","city":"Lādzere","zip":"LV-3281"},"graudiņu iela 6 - 1":{"address":"Graudiņu iela 6 - 1","city":"Garkalne","zip":"LV-2137"},"graudiņu iela 6 - 2":{"address":"Graudiņu iela 6 - 2","city":"Garkalne","zip":"LV-2137"},"graudi":{"address":"Graudi","city":"Lielirbe","zip":"LV-3601"},"graudiņi":{"address":"Graudiņi","city":"Zūras","zip":"LV-3623"},"graudiņu mājas":{"address":"Graudiņu mājas","city":"Apši","zip":"LV-4625"},"graudiņmājas":{"address":"Graudiņmājas","city":"Obricki","zip":"LV-4604"}}