{"graudiņi - 1":{"address":"Graudiņi - 1","city":"Plāņi","zip":"LV-4727"},"graudiņi - 2":{"address":"Graudiņi - 2","city":"Plāņi","zip":"LV-4727"},"graudiņi - 3":{"address":"Graudiņi - 3","city":"Plāņi","zip":"LV-4727"},"graudiņi - 4":{"address":"Graudiņi - 4","city":"Aizstrautnieki","zip":"LV-3701"},"graudiņi - 5":{"address":"Graudiņi - 5","city":"Aizstrautnieki","zip":"LV-3701"},"graudiņi - 6":{"address":"Graudiņi - 6","city":"Aizstrautnieki","zip":"LV-3701"},"graudiņi - 7":{"address":"Graudiņi - 7","city":"Aizstrautnieki","zip":"LV-3701"},"graudiņi - 8":{"address":"Graudiņi - 8","city":"Aizstrautnieki","zip":"LV-3701"},"graudiņi - 9":{"address":"Graudiņi - 9","city":"Aizstrautnieki","zip":"LV-3701"},"graudiņi - 10":{"address":"Graudiņi - 10","city":"Aizstrautnieki","zip":"LV-3701"},"graudiņi - 11":{"address":"Graudiņi - 11","city":"Aizstrautnieki","zip":"LV-3701"},"graudiņi - 12":{"address":"Graudiņi - 12","city":"Aizstrautnieki","zip":"LV-3701"},"graudiņi":{"address":"Graudiņi","city":"Kalniena","zip":"LV-4406"},"jaunie graudiņi":{"address":"Jaunie Graudiņi","city":"Grīnvalti","zip":"LV-3473"}}