{"graudu iela 3 - 1":{"address":"Graudu iela 3 - 1","city":"Ceriņi","zip":"LV-3701"},"graudu iela 3 - 2":{"address":"Graudu iela 3 - 2","city":"Ceriņi","zip":"LV-3701"},"graudu iela 3 - 3":{"address":"Graudu iela 3 - 3","city":"Ceriņi","zip":"LV-3701"},"graudu iela 3 - 4":{"address":"Graudu iela 3 - 4","city":"Ceriņi","zip":"LV-3701"},"graudu iela 3 - 5":{"address":"Graudu iela 3 - 5","city":"Ceriņi","zip":"LV-3701"},"graudu iela 3 - 6":{"address":"Graudu iela 3 - 6","city":"Ceriņi","zip":"LV-3701"},"graudu iela 3 - 7":{"address":"Graudu iela 3 - 7","city":"Ceriņi","zip":"LV-3701"},"graudu iela 3 - 8":{"address":"Graudu iela 3 - 8","city":"Ceriņi","zip":"LV-3701"},"graudu iela 1 - 1":{"address":"Graudu iela 1 - 1","city":"Saulaine","zip":"LV-3434"},"graudu iela 1 - 2":{"address":"Graudu iela 1 - 2","city":"Saulaine","zip":"LV-3434"},"graudu iela 1 - 3":{"address":"Graudu iela 1 - 3","city":"Saulaine","zip":"LV-3434"},"graudu iela 1 - 4":{"address":"Graudu iela 1 - 4","city":"Saulaine","zip":"LV-3434"},"graudu iela 1 - 5":{"address":"Graudu iela 1 - 5","city":"Saulaine","zip":"LV-3434"},"graudu iela 1 - 6":{"address":"Graudu iela 1 - 6","city":"Saulaine","zip":"LV-3434"},"graudu iela 1 - 7":{"address":"Graudu iela 1 - 7","city":"Saulaine","zip":"LV-3434"},"graudu iela 1 - 8":{"address":"Graudu iela 1 - 8","city":"Saulaine","zip":"LV-3434"},"graudu iela 1 - 9":{"address":"Graudu iela 1 - 9","city":"Saulaine","zip":"LV-3434"},"graudu iela 1 - 10":{"address":"Graudu iela 1 - 10","city":"Saulaine","zip":"LV-3434"},"graudu iela 1 - 11":{"address":"Graudu iela 1 - 11","city":"Saulaine","zip":"LV-3434"},"graudu iela 1 - 12":{"address":"Graudu iela 1 - 12","city":"Saulaine","zip":"LV-3434"}}