{"gravas gravāni - 1":{"address":"Gravas Gravāni - 1","city":"Kocēni","zip":"LV-4220"},"gravas gravāni - 2":{"address":"Gravas Gravāni - 2","city":"Kocēni","zip":"LV-4220"},"gravas gravāni - 3":{"address":"Gravas Gravāni - 3","city":"Kocēni","zip":"LV-4220"},"gravas gravāni - 4":{"address":"Gravas Gravāni - 4","city":"Kocēni","zip":"LV-4220"},"gravas - 1":{"address":"Gravas - 1","city":"Gravas","zip":"LV-3291"},"gravas - 2":{"address":"Gravas - 2","city":"Gravas","zip":"LV-3291"},"gravas - 3":{"address":"Gravas - 3","city":"Stalbe","zip":"LV-4151"},"gravas - 4":{"address":"Gravas - 4","city":"Stalbe","zip":"LV-4151"},"kalēju iela 2 - 2":{"address":"Kalēju iela 2 - 2","city":"Gravas","zip":"LV-4013"},"kalēju iela 2 - 1":{"address":"Kalēju iela 2 - 1","city":"Gravas","zip":"LV-4013"},"ceļmalas - 1":{"address":"Ceļmalas - 1","city":"Gravas","zip":"LV-4013"},"ceļmalas - 2":{"address":"Ceļmalas - 2","city":"Gravas","zip":"LV-4013"},"ceļmalas - 3":{"address":"Ceļmalas - 3","city":"Gravas","zip":"LV-4013"},"ceļmalas - 4":{"address":"Ceļmalas - 4","city":"Gravas","zip":"LV-4013"},"ceļmalas - 5":{"address":"Ceļmalas - 5","city":"Gravas","zip":"LV-4013"},"kalēju iela 4 - 1":{"address":"Kalēju iela 4 - 1","city":"Gravas","zip":"LV-4013"},"kalēju iela 4 - 2":{"address":"Kalēju iela 4 - 2","city":"Gravas","zip":"LV-4013"},"kalēju iela 4 - 3":{"address":"Kalēju iela 4 - 3","city":"Gravas","zip":"LV-4013"},"kalēju iela 4 - 4":{"address":"Kalēju iela 4 - 4","city":"Gravas","zip":"LV-4013"},"kalēju iela 4 - 5":{"address":"Kalēju iela 4 - 5","city":"Gravas","zip":"LV-4013"},"kalēju iela 4 - 1a":{"address":"Kalēju iela 4 - 1A","city":"Gravas","zip":"LV-4013"},"ceļmalas 1 - 1":{"address":"Ceļmalas 1 - 1","city":"Gravas","zip":"LV-4013"},"ceļmalas 1 - 2":{"address":"Ceļmalas 1 - 2","city":"Gravas","zip":"LV-4013"},"kalēju iela 3 - 1":{"address":"Kalēju iela 3 - 1","city":"Gravas","zip":"LV-4013"},"kalēju iela 3 - 2":{"address":"Kalēju iela 3 - 2","city":"Gravas","zip":"LV-4013"},"ambulances iela 1 - 1":{"address":"Ambulances iela 1 - 1","city":"Gravas","zip":"LV-4013"},"ambulances iela 1 - 2":{"address":"Ambulances iela 1 - 2","city":"Gravas","zip":"LV-4013"},"ambulances iela 1 - 3":{"address":"Ambulances iela 1 - 3","city":"Gravas","zip":"LV-4013"},"ambulances iela 1 - 1a":{"address":"Ambulances iela 1 - 1A","city":"Gravas","zip":"LV-4013"},"ambulances iela 1 - 3a":{"address":"Ambulances iela 1 - 3A","city":"Gravas","zip":"LV-4013"},"gravas iela 14 - 1":{"address":"Gravas iela 14 - 1","city":"Kadaga","zip":"LV-2103"},"gravas iela 14 - 2":{"address":"Gravas iela 14 - 2","city":"Kadaga","zip":"LV-2103"}}