{"gundegas - 1":{"address":"Gundegas - 1","city":"Pasiekste","zip":"LV-3623"},"gundegas - 2":{"address":"Gundegas - 2","city":"Pasiekste","zip":"LV-3623"},"gundegas - 3":{"address":"Gundegas - 3","city":"Biksti","zip":"LV-3713"},"gundegas - 4":{"address":"Gundegas - 4","city":"Biksti","zip":"LV-3713"},"gundegas - 5":{"address":"Gundegas - 5","city":"Biksti","zip":"LV-3713"},"gundegas - 6":{"address":"Gundegas - 6","city":"Biksti","zip":"LV-3713"},"gundegas - 7":{"address":"Gundegas - 7","city":"Biksti","zip":"LV-3713"},"gundegas - 8":{"address":"Gundegas - 8","city":"Biksti","zip":"LV-3713"},"gundegas - 9":{"address":"Gundegas - 9","city":"Biksti","zip":"LV-3713"},"gundegas - 10":{"address":"Gundegas - 10","city":"Biksti","zip":"LV-3713"},"gundegas - 11":{"address":"Gundegas - 11","city":"Biksti","zip":"LV-3713"},"gundegas - 12":{"address":"Gundegas - 12","city":"Biksti","zip":"LV-3713"},"gundegas - 13":{"address":"Gundegas - 13","city":"Biksti","zip":"LV-3713"},"gundegas - 14":{"address":"Gundegas - 14","city":"Biksti","zip":"LV-3713"},"gundegas - 15":{"address":"Gundegas - 15","city":"Biksti","zip":"LV-3713"},"gundegas - 16":{"address":"Gundegas - 16","city":"Biksti","zip":"LV-3713"},"gundegas - 17":{"address":"Gundegas - 17","city":"Biksti","zip":"LV-3713"},"gundegas - 18":{"address":"Gundegas - 18","city":"Biksti","zip":"LV-3713"},"gundegas - 19":{"address":"Gundegas - 19","city":"Skujene","zip":"LV-4143"},"gundegas - 20":{"address":"Gundegas - 20","city":"Skujene","zip":"LV-4143"},"gundegas - 21":{"address":"Gundegas - 21","city":"Skujene","zip":"LV-4143"},"gundegas - 22":{"address":"Gundegas - 22","city":"Skujene","zip":"LV-4143"},"gundegas - 23":{"address":"Gundegas - 23","city":"Skujene","zip":"LV-4143"},"gundegas - 24":{"address":"Gundegas - 24","city":"Skujene","zip":"LV-4143"},"gundegas 1 - 1":{"address":"Gundegas 1 - 1","city":"Pabaži","zip":"LV-2162"},"gundegas 1 - 2":{"address":"Gundegas 1 - 2","city":"Pabaži","zip":"LV-2162"},"gundegas 1 - 3":{"address":"Gundegas 1 - 3","city":"Pabaži","zip":"LV-2162"},"gundegas 1 - 4":{"address":"Gundegas 1 - 4","city":"Pabaži","zip":"LV-2162"},"gundegas 1 - 5":{"address":"Gundegas 1 - 5","city":"Pabaži","zip":"LV-2162"},"gundegas 1 - 6":{"address":"Gundegas 1 - 6","city":"Pabaži","zip":"LV-2162"},"gundegas 1 - 7":{"address":"Gundegas 1 - 7","city":"Pabaži","zip":"LV-2162"},"gundegas 1 - 8":{"address":"Gundegas 1 - 8","city":"Pabaži","zip":"LV-2162"},"gundegas 1 - 9":{"address":"Gundegas 1 - 9","city":"Pabaži","zip":"LV-2162"},"gundegas 1 - 10":{"address":"Gundegas 1 - 10","city":"Pabaži","zip":"LV-2162"},"gundegas 1 - 11":{"address":"Gundegas 1 - 11","city":"Pabaži","zip":"LV-2162"},"gundegas 1 - 12":{"address":"Gundegas 1 - 12","city":"Pabaži","zip":"LV-2162"}}