{"guntiņas - 1":{"address":"Guntiņas - 1","city":"Stūnīši","zip":"LV-2127"},"guntiņas - 2":{"address":"Guntiņas - 2","city":"Stūnīši","zip":"LV-2127"},"guntiņas - 3":{"address":"Guntiņas - 3","city":"Stūnīši","zip":"LV-2127"},"guntiņas - 4":{"address":"Guntiņas - 4","city":"Stūnīši","zip":"LV-2127"},"guntiņas":{"address":"Guntiņas","city":"Glāžšķūnis","zip":"LV-5016"},"guntiņas iela 1":{"address":"Guntiņas iela 1","city":"Jaunsaurieši","zip":"LV-2118"},"guntiņas iela 2":{"address":"Guntiņas iela 2","city":"Jaunsaurieši","zip":"LV-2118"},"guntiņas iela 3":{"address":"Guntiņas iela 3","city":"Jaunsaurieši","zip":"LV-2118"},"guntiņas iela 4":{"address":"Guntiņas iela 4","city":"Jaunsaurieši","zip":"LV-2118"},"guntiņas iela 5":{"address":"Guntiņas iela 5","city":"Jaunsaurieši","zip":"LV-2118"},"guntiņas iela 6":{"address":"Guntiņas iela 6","city":"Jaunsaurieši","zip":"LV-2118"},"guntiņas iela 7":{"address":"Guntiņas iela 7","city":"Jaunsaurieši","zip":"LV-2118"},"guntiņas iela 8":{"address":"Guntiņas iela 8","city":"Jaunsaurieši","zip":"LV-2118"},"guntiņas iela 9":{"address":"Guntiņas iela 9","city":"Jaunsaurieši","zip":"LV-2118"},"guntiņas iela 10":{"address":"Guntiņas iela 10","city":"Jaunsaurieši","zip":"LV-2118"},"guntiņas iela 12":{"address":"Guntiņas iela 12","city":"Jaunsaurieši","zip":"LV-2118"}}