{"upes iela 9 - 1":{"address":"Upes iela 9 - 1","city":"Zālīte","zip":"LV-3913"},"upes iela 9 - 2":{"address":"Upes iela 9 - 2","city":"Zālīte","zip":"LV-3913"},"upes iela 2 - 1":{"address":"Upes iela 2 - 1","city":"Zālīte","zip":"LV-3913"},"upes iela 2 - 2":{"address":"Upes iela 2 - 2","city":"Zālīte","zip":"LV-3913"},"upes iela 4 - 1":{"address":"Upes iela 4 - 1","city":"Zālīte","zip":"LV-3913"},"upes iela 4 - 2":{"address":"Upes iela 4 - 2","city":"Zālīte","zip":"LV-3913"},"dzintaru iela 9 - 3":{"address":"Dzintaru iela 9 - 3","city":"Zālīte","zip":"LV-3913"},"dzintaru iela 9 - 4":{"address":"Dzintaru iela 9 - 4","city":"Zālīte","zip":"LV-3913"},"dzintaru iela 9 - 1":{"address":"Dzintaru iela 9 - 1","city":"Zālīte","zip":"LV-3913"},"dzintaru iela 9 - 2":{"address":"Dzintaru iela 9 - 2","city":"Zālīte","zip":"LV-3913"},"dzintaru iela 10 - 1":{"address":"Dzintaru iela 10 - 1","city":"Zālīte","zip":"LV-3913"},"dzintaru iela 10 - 2":{"address":"Dzintaru iela 10 - 2","city":"Zālīte","zip":"LV-3913"},"dzintaru iela 10 - 3":{"address":"Dzintaru iela 10 - 3","city":"Zālīte","zip":"LV-3913"},"dzintaru iela 7 - 1":{"address":"Dzintaru iela 7 - 1","city":"Zālīte","zip":"LV-3913"},"dzintaru iela 7 - 2":{"address":"Dzintaru iela 7 - 2","city":"Zālīte","zip":"LV-3913"},"dzintaru iela 7 - 3":{"address":"Dzintaru iela 7 - 3","city":"Zālīte","zip":"LV-3913"},"dzintaru iela 7 - 4":{"address":"Dzintaru iela 7 - 4","city":"Zālīte","zip":"LV-3913"},"dārza iela 4 - 1":{"address":"Dārza iela 4 - 1","city":"Zālīte","zip":"LV-3913"},"dārza iela 4 - 2":{"address":"Dārza iela 4 - 2","city":"Zālīte","zip":"LV-3913"},"dārza iela 4 - 3":{"address":"Dārza iela 4 - 3","city":"Zālīte","zip":"LV-3913"},"dārza iela 4 - 4":{"address":"Dārza iela 4 - 4","city":"Zālīte","zip":"LV-3913"},"dzintaru iela 5 - 1":{"address":"Dzintaru iela 5 - 1","city":"Zālīte","zip":"LV-3913"},"dzintaru iela 5 - 2":{"address":"Dzintaru iela 5 - 2","city":"Zālīte","zip":"LV-3913"},"dārza iela 18 - 1":{"address":"Dārza iela 18 - 1","city":"Zālīte","zip":"LV-3913"},"dārza iela 18 - 2":{"address":"Dārza iela 18 - 2","city":"Zālīte","zip":"LV-3913"},"dārza iela 18 - 3":{"address":"Dārza iela 18 - 3","city":"Zālīte","zip":"LV-3913"},"dārza iela 16 - 1":{"address":"Dārza iela 16 - 1","city":"Zālīte","zip":"LV-3913"},"dārza iela 16 - 2":{"address":"Dārza iela 16 - 2","city":"Zālīte","zip":"LV-3913"},"dārza iela 16 - 3":{"address":"Dārza iela 16 - 3","city":"Zālīte","zip":"LV-3913"},"dārza iela 16 - 4":{"address":"Dārza iela 16 - 4","city":"Zālīte","zip":"LV-3913"},"dārza iela 16 - 5":{"address":"Dārza iela 16 - 5","city":"Zālīte","zip":"LV-3913"},"dārza iela 16 - 6":{"address":"Dārza iela 16 - 6","city":"Zālīte","zip":"LV-3913"},"dārza iela 16 - 7":{"address":"Dārza iela 16 - 7","city":"Zālīte","zip":"LV-3913"},"dārza iela 16 - 8":{"address":"Dārza iela 16 - 8","city":"Zālīte","zip":"LV-3913"},"dārza iela 16 - 9":{"address":"Dārza iela 16 - 9","city":"Zālīte","zip":"LV-3913"},"dārza iela 16 - 10":{"address":"Dārza iela 16 - 10","city":"Zālīte","zip":"LV-3913"},"dārza iela 16 - 11":{"address":"Dārza iela 16 - 11","city":"Zālīte","zip":"LV-3913"},"dārza iela 16 - 12":{"address":"Dārza iela 16 - 12","city":"Zālīte","zip":"LV-3913"},"dārza iela 16 - 13":{"address":"Dārza iela 16 - 13","city":"Zālīte","zip":"LV-3913"},"dārza iela 16 - 14":{"address":"Dārza iela 16 - 14","city":"Zālīte","zip":"LV-3913"},"dārza iela 16 - 15":{"address":"Dārza iela 16 - 15","city":"Zālīte","zip":"LV-3913"},"dārza iela 10 - 1":{"address":"Dārza iela 10 - 1","city":"Zālīte","zip":"LV-3913"},"dārza iela 10 - 2":{"address":"Dārza iela 10 - 2","city":"Zālīte","zip":"LV-3913"},"dārza iela 10 - 3":{"address":"Dārza iela 10 - 3","city":"Zālīte","zip":"LV-3913"},"dārza iela 10 - 4":{"address":"Dārza iela 10 - 4","city":"Zālīte","zip":"LV-3913"},"dārza iela 10 - 5":{"address":"Dārza iela 10 - 5","city":"Zālīte","zip":"LV-3913"},"dārza iela 10 - 6":{"address":"Dārza iela 10 - 6","city":"Zālīte","zip":"LV-3913"}}