{"ievas - 1":{"address":"Ievas - 1","city":"Jūrmalciems","zip":"LV-3473"},"ievas - 2":{"address":"Ievas - 2","city":"Jūrmalciems","zip":"LV-3473"},"ievas - 3":{"address":"Ievas - 3","city":"Jūrmalciems","zip":"LV-3473"},"ievas - 4":{"address":"Ievas - 4","city":"Bārta","zip":"LV-3482"},"ievas - 5":{"address":"Ievas - 5","city":"Bārta","zip":"LV-3482"},"ievas - 6":{"address":"Ievas - 6","city":"Bārta","zip":"LV-3482"},"ievas - 7":{"address":"Ievas - 7","city":"Bārta","zip":"LV-3482"},"ievas - 8":{"address":"Ievas - 8","city":"Bārta","zip":"LV-3482"},"ievas - 9":{"address":"Ievas - 9","city":"Bārta","zip":"LV-3482"},"ievas - 10":{"address":"Ievas - 10","city":"Bārta","zip":"LV-3482"},"ievas - 11":{"address":"Ievas - 11","city":"Bārta","zip":"LV-3482"},"ievas - 12":{"address":"Ievas - 12","city":"Bārta","zip":"LV-3482"},"ievas - 13":{"address":"Ievas - 13","city":"Bārta","zip":"LV-3482"},"ievas - 14":{"address":"Ievas - 14","city":"Bārta","zip":"LV-3482"},"ievas - 15":{"address":"Ievas - 15","city":"Bārta","zip":"LV-3482"},"ievas - 16":{"address":"Ievas - 16","city":"Bārta","zip":"LV-3482"},"ievas - 17":{"address":"Ievas - 17","city":"Bārta","zip":"LV-3482"},"ievas - 18":{"address":"Ievas - 18","city":"Bārta","zip":"LV-3482"},"ievas - 19":{"address":"Ievas - 19","city":"Bārta","zip":"LV-3482"},"ievas - 20":{"address":"Ievas - 20","city":"Bārta","zip":"LV-3482"},"ievas - 21":{"address":"Ievas - 21","city":"Bārta","zip":"LV-3482"},"ievas - 22":{"address":"Ievas - 22","city":"Bārta","zip":"LV-3482"},"ievas - 23":{"address":"Ievas - 23","city":"Bārta","zip":"LV-3482"},"ievas - 24":{"address":"Ievas - 24","city":"Bārta","zip":"LV-3482"},"ievas":{"address":"Ievas","city":"Velēna","zip":"LV-4415"}}