{"ieviņu iela 6 - 1":{"address":"Ieviņu iela 6 - 1","city":"Zemīte","zip":"LV-3135"},"ieviņu iela 6 - 2":{"address":"Ieviņu iela 6 - 2","city":"Zemīte","zip":"LV-3135"},"ieviņu iela 6":{"address":"Ieviņu iela 6","city":"Inčukalns","zip":"LV-2141"},"ieviņu iela 8":{"address":"Ieviņu iela 8","city":"Inčukalns","zip":"LV-2141"},"ieviņu iela 9":{"address":"Ieviņu iela 9","city":"Inčukalns","zip":"LV-2141"},"ieviņu iela 1":{"address":"Ieviņu iela 1","city":"Inčukalns","zip":"LV-2141"},"ieviņu iela 5":{"address":"Ieviņu iela 5","city":"Inčukalns","zip":"LV-2141"},"ieviņu iela 7":{"address":"Ieviņu iela 7","city":"Inčukalns","zip":"LV-2141"},"ieviņu iela 10":{"address":"Ieviņu iela 10","city":"Inčukalns","zip":"LV-2141"},"ieviņu iela 2":{"address":"Ieviņu iela 2","city":"Inčukalns","zip":"LV-2141"},"ieviņu iela 2a":{"address":"Ieviņu iela 2A","city":"Inčukalns","zip":"LV-2141"},"ieviņu iela 3":{"address":"Ieviņu iela 3","city":"Inčukalns","zip":"LV-2141"},"ieviņu iela 4":{"address":"Ieviņu iela 4","city":"Inčukalns","zip":"LV-2141"},"ieviņu mājas":{"address":"Ieviņu mājas","city":"Kalviši","zip":"LV-5681"}}