{"ieviņas - 1":{"address":"Ieviņas - 1","city":"Lēdmane","zip":"LV-5011"},"ieviņas - 2":{"address":"Ieviņas - 2","city":"Lēdmane","zip":"LV-5011"},"ieviņas - 3":{"address":"Ieviņas - 3","city":"Lēdmane","zip":"LV-5011"},"ieviņas - 4":{"address":"Ieviņas - 4","city":"Lēdmane","zip":"LV-5011"},"ieviņas - 5":{"address":"Ieviņas - 5","city":"Lēdmane","zip":"LV-5011"},"ieviņas - 6":{"address":"Ieviņas - 6","city":"Lēdmane","zip":"LV-5011"},"ieviņas - 7":{"address":"Ieviņas - 7","city":"Lēdmane","zip":"LV-5011"},"ieviņas - 8":{"address":"Ieviņas - 8","city":"Lēdmane","zip":"LV-5011"},"ieviņas - 9":{"address":"Ieviņas - 9","city":"Lēdmane","zip":"LV-5011"},"ieviņas - 10":{"address":"Ieviņas - 10","city":"Lēdmane","zip":"LV-5011"},"ieviņas - 11":{"address":"Ieviņas - 11","city":"Lēdmane","zip":"LV-5011"},"ieviņas - 12":{"address":"Ieviņas - 12","city":"Lēdmane","zip":"LV-5011"},"ieviņas - 13":{"address":"Ieviņas - 13","city":"Lēdmane","zip":"LV-5011"},"ieviņas - 14":{"address":"Ieviņas - 14","city":"Lēdmane","zip":"LV-5011"},"ieviņas - 15":{"address":"Ieviņas - 15","city":"Lēdmane","zip":"LV-5011"},"ieviņas - 16":{"address":"Ieviņas - 16","city":"Lēdmane","zip":"LV-5011"},"ieviņas - 17":{"address":"Ieviņas - 17","city":"Lēdmane","zip":"LV-5011"},"ieviņas - 18":{"address":"Ieviņas - 18","city":"Lēdmane","zip":"LV-5011"},"ieviņas - 19":{"address":"Ieviņas - 19","city":"Lēdmane","zip":"LV-5011"},"ieviņas - 20":{"address":"Ieviņas - 20","city":"Lēdmane","zip":"LV-5011"},"ieviņas - 21":{"address":"Ieviņas - 21","city":"Lēdmane","zip":"LV-5011"},"ieviņas - 22":{"address":"Ieviņas - 22","city":"Lēdmane","zip":"LV-5011"},"ieviņas - 23":{"address":"Ieviņas - 23","city":"Lēdmane","zip":"LV-5011"},"ieviņas - 24":{"address":"Ieviņas - 24","city":"Lēdmane","zip":"LV-5011"},"ieviņas":{"address":"Ieviņas","city":"Ploskene","zip":"LV-4567"}}