{"ievkalnu iela 2":{"address":"Ievkalnu iela 2","city":"Krustiņi","zip":"LV-2141"},"ievkalnu iela 6":{"address":"Ievkalnu iela 6","city":"Krustiņi","zip":"LV-2141"},"ievkalnu iela 15":{"address":"Ievkalnu iela 15","city":"Krustiņi","zip":"LV-2141"},"ievkalnu iela 4":{"address":"Ievkalnu iela 4","city":"Krustiņi","zip":"LV-2141"},"ievkalnu iela 12":{"address":"Ievkalnu iela 12","city":"Krustiņi","zip":"LV-2141"},"ievkalnu iela 10":{"address":"Ievkalnu iela 10","city":"Krustiņi","zip":"LV-2141"},"ievkalnu iela 5":{"address":"Ievkalnu iela 5","city":"Krustiņi","zip":"LV-2141"},"ievkalnu iela 11":{"address":"Ievkalnu iela 11","city":"Krustiņi","zip":"LV-2141"},"ievkalnu iela 9":{"address":"Ievkalnu iela 9","city":"Krustiņi","zip":"LV-2141"},"ievkalnu iela 13":{"address":"Ievkalnu iela 13","city":"Krustiņi","zip":"LV-2141"},"ievkalnu iela 16":{"address":"Ievkalnu iela 16","city":"Krustiņi","zip":"LV-2141"},"ievkalnu iela 7a":{"address":"Ievkalnu iela 7A","city":"Krustiņi","zip":"LV-2141"},"ievkalnu iela 7":{"address":"Ievkalnu iela 7","city":"Krustiņi","zip":"LV-2141"},"mazā ievkalnu iela 1":{"address":"Mazā Ievkalnu iela 1","city":"Krustiņi","zip":"LV-2141"}}