{"indrāni 3 - 1":{"address":"Indrāni 3 - 1","city":"Indrāni","zip":"LV-2140"},"indrāni 3 - 2":{"address":"Indrāni 3 - 2","city":"Indrāni","zip":"LV-2140"},"indrāni 3 - 4":{"address":"Indrāni 3 - 4","city":"Mārsnēni","zip":"LV-4129"},"indrāni 3 - 5":{"address":"Indrāni 3 - 5","city":"Mārsnēni","zip":"LV-4129"},"indrāni 3 - 6":{"address":"Indrāni 3 - 6","city":"Mārsnēni","zip":"LV-4129"},"indrāni 3 - 7":{"address":"Indrāni 3 - 7","city":"Mārsnēni","zip":"LV-4129"},"indrāni 3 - 8":{"address":"Indrāni 3 - 8","city":"Mārsnēni","zip":"LV-4129"},"indrāni 3 - 9":{"address":"Indrāni 3 - 9","city":"Mārsnēni","zip":"LV-4129"},"indrāni 3 - 11":{"address":"Indrāni 3 - 11","city":"Mārsnēni","zip":"LV-4129"},"indrāni 3 - 12":{"address":"Indrāni 3 - 12","city":"Mārsnēni","zip":"LV-4129"},"indrāni 3 - 3":{"address":"Indrāni 3 - 3","city":"Mārsnēni","zip":"LV-4129"},"indrāni 3 - 10":{"address":"Indrāni 3 - 10","city":"Mārsnēni","zip":"LV-4129"},"indrāni - 1":{"address":"Indrāni - 1","city":"Rude","zip":"LV-3264"},"indrāni - 2":{"address":"Indrāni - 2","city":"Rude","zip":"LV-3264"},"indrāni - 3":{"address":"Indrāni - 3","city":"Rude","zip":"LV-3264"},"indrāni - 4":{"address":"Indrāni - 4","city":"Rude","zip":"LV-3264"},"indrāni - 5":{"address":"Indrāni - 5","city":"Rude","zip":"LV-3264"},"indrāni - 6":{"address":"Indrāni - 6","city":"Rude","zip":"LV-3264"},"indrāni - 7":{"address":"Indrāni - 7","city":"Rude","zip":"LV-3264"},"indrāni - 8":{"address":"Indrāni - 8","city":"Rude","zip":"LV-3264"},"indrāni - 9":{"address":"Indrāni - 9","city":"Penkule","zip":"LV-3725"},"indrāni - 10":{"address":"Indrāni - 10","city":"Penkule","zip":"LV-3725"},"indrāni - 11":{"address":"Indrāni - 11","city":"Penkule","zip":"LV-3725"},"indrāni - 12":{"address":"Indrāni - 12","city":"Penkule","zip":"LV-3725"},"indrāni 15 - 2":{"address":"Indrāni 15 - 2","city":"Indrāni","zip":"LV-2140"},"indrāni 15 - 1":{"address":"Indrāni 15 - 1","city":"Indrāni","zip":"LV-2140"},"indrāni 2 - 1":{"address":"Indrāni 2 - 1","city":"Indrāni","zip":"LV-2140"},"indrāni 2 - 3":{"address":"Indrāni 2 - 3","city":"Indrāni","zip":"LV-2140"},"indrāni 2 - 4":{"address":"Indrāni 2 - 4","city":"Indrāni","zip":"LV-2140"},"indrāni 5 - 1":{"address":"Indrāni 5 - 1","city":"Indrāni","zip":"LV-2140"},"indrāni 5 - 2":{"address":"Indrāni 5 - 2","city":"Indrāni","zip":"LV-2140"},"indrāni 5 - 3":{"address":"Indrāni 5 - 3","city":"Indrāni","zip":"LV-2140"},"indrāni 5 - 4":{"address":"Indrāni 5 - 4","city":"Indrāni","zip":"LV-2140"},"indrāni 5 - 5":{"address":"Indrāni 5 - 5","city":"Indrāni","zip":"LV-2140"},"indrāni 5 - 6":{"address":"Indrāni 5 - 6","city":"Indrāni","zip":"LV-2140"},"indrāni 5 - 7":{"address":"Indrāni 5 - 7","city":"Indrāni","zip":"LV-2140"},"indrāni 5 - 8":{"address":"Indrāni 5 - 8","city":"Indrāni","zip":"LV-2140"},"indrāni 5 - 9":{"address":"Indrāni 5 - 9","city":"Indrāni","zip":"LV-2140"},"indrāni 5 - 10":{"address":"Indrāni 5 - 10","city":"Indrāni","zip":"LV-2140"},"indrāni 5 - 11":{"address":"Indrāni 5 - 11","city":"Indrāni","zip":"LV-2140"},"indrāni 5 - 12":{"address":"Indrāni 5 - 12","city":"Indrāni","zip":"LV-2140"},"indrāni 5 - 13":{"address":"Indrāni 5 - 13","city":"Indrāni","zip":"LV-2140"},"indrāni 5 - 14":{"address":"Indrāni 5 - 14","city":"Indrāni","zip":"LV-2140"},"indrāni 5 - 15":{"address":"Indrāni 5 - 15","city":"Indrāni","zip":"LV-2140"}}