{"irbenieku iela 1 - 1":{"address":"Irbenieku iela 1 - 1","city":"Mežvidi","zip":"LV-3801"},"irbenieku iela 1 - 2":{"address":"Irbenieku iela 1 - 2","city":"Mežvidi","zip":"LV-3801"},"irbenieku iela 1 - 3":{"address":"Irbenieku iela 1 - 3","city":"Mežvidi","zip":"LV-3801"},"irbenieku iela 1 - 4":{"address":"Irbenieku iela 1 - 4","city":"Mežvidi","zip":"LV-3801"},"irbenieku iela 1 - 5":{"address":"Irbenieku iela 1 - 5","city":"Mežvidi","zip":"LV-3801"},"irbenieku iela 1 - 6":{"address":"Irbenieku iela 1 - 6","city":"Mežvidi","zip":"LV-3801"},"irbēni - 1":{"address":"Irbēni - 1","city":"Golovanovka","zip":"LV-5687"},"irbēni - 2":{"address":"Irbēni - 2","city":"Golovanovka","zip":"LV-5687"},"irbēni - 3":{"address":"Irbēni - 3","city":"Golovanovka","zip":"LV-5687"},"irbēni - 4":{"address":"Irbēni - 4","city":"Golovanovka","zip":"LV-5687"},"irbēni":{"address":"Irbēni","city":"Zaļmuiža","zip":"LV-4652"},"irbenieku iela 1":{"address":"Irbenieku iela 1","city":"Mežvidi","zip":"LV-3801"},"irbenieku iela 1a":{"address":"Irbenieku iela 1A","city":"Mežvidi","zip":"LV-3801"},"irbenieku iela 3":{"address":"Irbenieku iela 3","city":"Mežvidi","zip":"LV-3801"},"irbenieku iela 5":{"address":"Irbenieku iela 5","city":"Mežvidi","zip":"LV-3801"},"irbenieku iela 7":{"address":"Irbenieku iela 7","city":"Mežvidi","zip":"LV-3801"},"irbenieku iela 9":{"address":"Irbenieku iela 9","city":"Mežvidi","zip":"LV-3801"},"irbenieku iela 11":{"address":"Irbenieku iela 11","city":"Mežvidi","zip":"LV-3801"},"irbenieku iela 13":{"address":"Irbenieku iela 13","city":"Mežvidi","zip":"LV-3801"},"meža irbēni":{"address":"Meža Irbēni","city":"Bernāti","zip":"LV-3473"},"irbeņi":{"address":"Irbeņi","city":"Auguļova","zip":"LV-5666"}}