{"jasmīni - 1":{"address":"Jasmīni - 1","city":"Vecbebri","zip":"LV-5135"},"jasmīni - 2":{"address":"Jasmīni - 2","city":"Vecbebri","zip":"LV-5135"},"jasmīni - 3":{"address":"Jasmīni - 3","city":"Vecbebri","zip":"LV-5135"},"jasmīni - 4":{"address":"Jasmīni - 4","city":"Vecbebri","zip":"LV-5135"},"jasmīni - 5":{"address":"Jasmīni - 5","city":"Vecbebri","zip":"LV-5135"},"jasmīni - 6":{"address":"Jasmīni - 6","city":"Vecbebri","zip":"LV-5135"},"jasmīni - 7":{"address":"Jasmīni - 7","city":"Vecbebri","zip":"LV-5135"},"jasmīni - 8":{"address":"Jasmīni - 8","city":"Vecbebri","zip":"LV-5135"},"jasmīni - 9":{"address":"Jasmīni - 9","city":"Vecbebri","zip":"LV-5135"},"jasmīni - 10":{"address":"Jasmīni - 10","city":"Vecbebri","zip":"LV-5135"},"jasmīni - 11":{"address":"Jasmīni - 11","city":"Vecbebri","zip":"LV-5135"},"jasmīni - 12":{"address":"Jasmīni - 12","city":"Vecbebri","zip":"LV-5135"},"jasmīni - 13":{"address":"Jasmīni - 13","city":"Vecbebri","zip":"LV-5135"},"jasmīni - 14":{"address":"Jasmīni - 14","city":"Vecbebri","zip":"LV-5135"},"jasmīni - 15":{"address":"Jasmīni - 15","city":"Vecbebri","zip":"LV-5135"},"jasmīni - 16":{"address":"Jasmīni - 16","city":"Vecbebri","zip":"LV-5135"},"jasmīni - 17":{"address":"Jasmīni - 17","city":"Vecbebri","zip":"LV-5135"},"jasmīni - 18":{"address":"Jasmīni - 18","city":"Vecbebri","zip":"LV-5135"},"jasmīni - 19":{"address":"Jasmīni - 19","city":"Vecbebri","zip":"LV-5135"},"jasmīni - 20":{"address":"Jasmīni - 20","city":"Vecbebri","zip":"LV-5135"},"jasmīni - 21":{"address":"Jasmīni - 21","city":"Vecbebri","zip":"LV-5135"},"jasmīni - 22":{"address":"Jasmīni - 22","city":"Vecbebri","zip":"LV-5135"},"jasmīni - 23":{"address":"Jasmīni - 23","city":"Vecbebri","zip":"LV-5135"},"jasmīni - 24":{"address":"Jasmīni - 24","city":"Vecbebri","zip":"LV-5135"},"jasmīni":{"address":"Jasmīni","city":"Trūpu Zamoži","zip":"LV-4636"}}