{"jaunās - 1":{"address":"Jaunās - 1","city":"Strēlnieki","zip":"LV-3926"},"jaunās - 2":{"address":"Jaunās - 2","city":"Strēlnieki","zip":"LV-3926"},"jaunās - 3":{"address":"Jaunās - 3","city":"Strēlnieki","zip":"LV-3926"},"jaunās - 4":{"address":"Jaunās - 4","city":"Strēlnieki","zip":"LV-3926"},"jaunās 31":{"address":"Jaunās 31","city":"Stāmeriena","zip":"LV-4406"},"jaunās":{"address":"Jaunās","city":"Strēlnieki","zip":"LV-3926"},"jaunās graviņas":{"address":"Jaunās Graviņas","city":"Nīca","zip":"LV-3473"},"jaunasmi":{"address":"Jaunasmi","city":"Spāre","zip":"LV-3298"},"jaunās atvases":{"address":"Jaunās Atvases","city":"Jaunie Čači","zip":"LV-4601"},"jaunastras":{"address":"Jaunastras","city":"Kocēni","zip":"LV-4220"},"jaunās zeltlapas 1":{"address":"Jaunās Zeltlapas 1","city":"Vanagi","zip":"LV-5681"},"jaunās sarmas":{"address":"Jaunās Sarmas","city":"Dreiski","zip":"LV-5463"},"jaunās bites":{"address":"Jaunās Bites","city":"Somugols","zip":"LV-5463"},"jaunās liepas":{"address":"Jaunās Liepas","city":"Promi","zip":"LV-5334"},"jaunās mājas":{"address":"Jaunās mājas","city":"Ļurbova","zip":"LV-5717"},"jaunās zemes":{"address":"Jaunās zemes","city":"Mazie Krīviņi","zip":"LV-5462"},"jaunās zeltlapas":{"address":"Jaunās Zeltlapas","city":"Vanagi","zip":"LV-5681"},"jaunās smilgas":{"address":"Jaunās Smilgas","city":"Urbanišķi","zip":"LV-5473"},"jaunās silavas":{"address":"Jaunās Silavas","city":"Silavas","zip":"LV-5316"}}