{"dalbes - 1":{"address":"Dalbes - 1","city":"Jaunie Čači","zip":"LV-4601"},"dalbes - 2":{"address":"Dalbes - 2","city":"Jaunie Čači","zip":"LV-4601"},"jaunieši - 1":{"address":"Jaunieši - 1","city":"Nirza","zip":"LV-5729"},"jaunieši - 2":{"address":"Jaunieši - 2","city":"Nirza","zip":"LV-5729"},"jaunieši - 3":{"address":"Jaunieši - 3","city":"Nirza","zip":"LV-5729"},"jaunieši - 4":{"address":"Jaunieši - 4","city":"Nirza","zip":"LV-5729"},"jaunieši - 5":{"address":"Jaunieši - 5","city":"Nirza","zip":"LV-5729"},"jaunieši - 6":{"address":"Jaunieši - 6","city":"Nirza","zip":"LV-5729"},"jaunieši - 7":{"address":"Jaunieši - 7","city":"Nirza","zip":"LV-5729"},"jaunieši - 8":{"address":"Jaunieši - 8","city":"Nirza","zip":"LV-5729"},"jaunieši - 9":{"address":"Jaunieši - 9","city":"Nirza","zip":"LV-5729"},"jaunieši - 10":{"address":"Jaunieši - 10","city":"Nirza","zip":"LV-5729"},"jaunieši - 11":{"address":"Jaunieši - 11","city":"Nirza","zip":"LV-5729"},"jaunieši - 12":{"address":"Jaunieši - 12","city":"Nirza","zip":"LV-5729"},"jaunieši - 13":{"address":"Jaunieši - 13","city":"Nirza","zip":"LV-5729"},"jaunieši - 14":{"address":"Jaunieši - 14","city":"Nirza","zip":"LV-5729"},"jaunieši - 15":{"address":"Jaunieši - 15","city":"Nirza","zip":"LV-5729"},"jaunie vuškārnieki - 1":{"address":"Jaunie Vuškārnieki - 1","city":"Vuškārnieki","zip":"LV-5312"},"jaunie vuškārnieki - 2":{"address":"Jaunie Vuškārnieki - 2","city":"Vuškārnieki","zip":"LV-5312"}}