{"kaijas - 1":{"address":"Kaijas - 1","city":"Jaunauce","zip":"LV-3893"},"kaijas - 2":{"address":"Kaijas - 2","city":"Jaunauce","zip":"LV-3893"},"kaijas - 3":{"address":"Kaijas - 3","city":"Jaunauce","zip":"LV-3893"},"kristāli - 1":{"address":"Kristāli - 1","city":"Jaunauce","zip":"LV-3893"},"kristāli - 2":{"address":"Kristāli - 2","city":"Jaunauce","zip":"LV-3893"},"kristāli - 3":{"address":"Kristāli - 3","city":"Jaunauce","zip":"LV-3893"},"kristāli - 4":{"address":"Kristāli - 4","city":"Jaunauce","zip":"LV-3893"},"kristāli - 5":{"address":"Kristāli - 5","city":"Jaunauce","zip":"LV-3893"},"kristāli - 6":{"address":"Kristāli - 6","city":"Jaunauce","zip":"LV-3893"},"kristāli - 7":{"address":"Kristāli - 7","city":"Jaunauce","zip":"LV-3893"},"kristāli - 8":{"address":"Kristāli - 8","city":"Jaunauce","zip":"LV-3893"},"dzintari - 1":{"address":"Dzintari - 1","city":"Jaunauce","zip":"LV-3893"},"dzintari - 2":{"address":"Dzintari - 2","city":"Jaunauce","zip":"LV-3893"},"dzintari - 3":{"address":"Dzintari - 3","city":"Jaunauce","zip":"LV-3893"},"dzintari - 4":{"address":"Dzintari - 4","city":"Jaunauce","zip":"LV-3893"},"dzintari - 5":{"address":"Dzintari - 5","city":"Jaunauce","zip":"LV-3893"},"dzintari - 6":{"address":"Dzintari - 6","city":"Jaunauce","zip":"LV-3893"},"dzintari - 7":{"address":"Dzintari - 7","city":"Jaunauce","zip":"LV-3893"},"dzintari - 8":{"address":"Dzintari - 8","city":"Jaunauce","zip":"LV-3893"},"dzintari - 9":{"address":"Dzintari - 9","city":"Jaunauce","zip":"LV-3893"},"dzintari - 10":{"address":"Dzintari - 10","city":"Jaunauce","zip":"LV-3893"},"dzintari - 11":{"address":"Dzintari - 11","city":"Jaunauce","zip":"LV-3893"},"dzintari - 12":{"address":"Dzintari - 12","city":"Jaunauce","zip":"LV-3893"},"dzintari - 13":{"address":"Dzintari - 13","city":"Jaunauce","zip":"LV-3893"},"dzintari - 14":{"address":"Dzintari - 14","city":"Jaunauce","zip":"LV-3893"},"dzintari - 15":{"address":"Dzintari - 15","city":"Jaunauce","zip":"LV-3893"},"dzintari - 16":{"address":"Dzintari - 16","city":"Jaunauce","zip":"LV-3893"},"dzintari - 17":{"address":"Dzintari - 17","city":"Jaunauce","zip":"LV-3893"},"dzintari - 18":{"address":"Dzintari - 18","city":"Jaunauce","zip":"LV-3893"},"bezdelīgas - 1":{"address":"Bezdelīgas - 1","city":"Jaunauce","zip":"LV-3893"},"bezdelīgas - 2":{"address":"Bezdelīgas - 2","city":"Jaunauce","zip":"LV-3893"},"bezdelīgas - 3":{"address":"Bezdelīgas - 3","city":"Jaunauce","zip":"LV-3893"},"bezdelīgas - 4":{"address":"Bezdelīgas - 4","city":"Jaunauce","zip":"LV-3893"},"bezdelīgas - 5":{"address":"Bezdelīgas - 5","city":"Jaunauce","zip":"LV-3893"},"bezdelīgas - 6":{"address":"Bezdelīgas - 6","city":"Jaunauce","zip":"LV-3893"},"bezdelīgas - 7":{"address":"Bezdelīgas - 7","city":"Jaunauce","zip":"LV-3893"},"bezdelīgas - 8":{"address":"Bezdelīgas - 8","city":"Jaunauce","zip":"LV-3893"},"bezdelīgas - 9":{"address":"Bezdelīgas - 9","city":"Jaunauce","zip":"LV-3893"},"bezdelīgas - 10":{"address":"Bezdelīgas - 10","city":"Jaunauce","zip":"LV-3893"},"bezdelīgas - 11":{"address":"Bezdelīgas - 11","city":"Jaunauce","zip":"LV-3893"},"bezdelīgas - 12":{"address":"Bezdelīgas - 12","city":"Jaunauce","zip":"LV-3893"},"bezdelīgas - 13":{"address":"Bezdelīgas - 13","city":"Jaunauce","zip":"LV-3893"},"bezdelīgas - 14":{"address":"Bezdelīgas - 14","city":"Jaunauce","zip":"LV-3893"},"bezdelīgas - 15":{"address":"Bezdelīgas - 15","city":"Jaunauce","zip":"LV-3893"},"bezdelīgas - 16":{"address":"Bezdelīgas - 16","city":"Jaunauce","zip":"LV-3893"},"bezdelīgas - 17":{"address":"Bezdelīgas - 17","city":"Jaunauce","zip":"LV-3893"},"bezdelīgas - 18":{"address":"Bezdelīgas - 18","city":"Jaunauce","zip":"LV-3893"},"cālīši - 1":{"address":"Cālīši - 1","city":"Jaunauce","zip":"LV-3893"},"cālīši - 2":{"address":"Cālīši - 2","city":"Jaunauce","zip":"LV-3893"},"cālīši - 3":{"address":"Cālīši - 3","city":"Jaunauce","zip":"LV-3893"},"cālīši - 4":{"address":"Cālīši - 4","city":"Jaunauce","zip":"LV-3893"},"liepas - 1":{"address":"Liepas - 1","city":"Jaunauce","zip":"LV-3893"},"liepas - 2":{"address":"Liepas - 2","city":"Jaunauce","zip":"LV-3893"},"liepas - 3":{"address":"Liepas - 3","city":"Jaunauce","zip":"LV-3893"},"liepas - 4":{"address":"Liepas - 4","city":"Jaunauce","zip":"LV-3893"},"liepas - 5":{"address":"Liepas - 5","city":"Jaunauce","zip":"LV-3893"},"liepas - 6":{"address":"Liepas - 6","city":"Jaunauce","zip":"LV-3893"},"liepas - 7":{"address":"Liepas - 7","city":"Jaunauce","zip":"LV-3893"},"liepas - 8":{"address":"Liepas - 8","city":"Jaunauce","zip":"LV-3893"},"liepas - 9":{"address":"Liepas - 9","city":"Jaunauce","zip":"LV-3893"},"liepas - 10":{"address":"Liepas - 10","city":"Jaunauce","zip":"LV-3893"},"liepas - 11":{"address":"Liepas - 11","city":"Jaunauce","zip":"LV-3893"},"liepas - 12":{"address":"Liepas - 12","city":"Jaunauce","zip":"LV-3893"},"liepas - 13":{"address":"Liepas - 13","city":"Jaunauce","zip":"LV-3893"},"liepas - 14":{"address":"Liepas - 14","city":"Jaunauce","zip":"LV-3893"},"liepas - 15":{"address":"Liepas - 15","city":"Jaunauce","zip":"LV-3893"},"liepas - 16":{"address":"Liepas - 16","city":"Jaunauce","zip":"LV-3893"},"liepas - 17":{"address":"Liepas - 17","city":"Jaunauce","zip":"LV-3893"},"liepas - 18":{"address":"Liepas - 18","city":"Jaunauce","zip":"LV-3893"},"liepas - 19":{"address":"Liepas - 19","city":"Jaunauce","zip":"LV-3893"},"liepas - 20":{"address":"Liepas - 20","city":"Jaunauce","zip":"LV-3893"},"liepas - 21":{"address":"Liepas - 21","city":"Jaunauce","zip":"LV-3893"},"liepas - 22":{"address":"Liepas - 22","city":"Jaunauce","zip":"LV-3893"}}