{"jaunatnes iela 1 - 1":{"address":"Jaunatnes iela 1 - 1","city":"Uļjanova","zip":"LV-4645"},"jaunatnes iela 1 - 2":{"address":"Jaunatnes iela 1 - 2","city":"Uļjanova","zip":"LV-4645"},"jaunatnes iela 1 - 3":{"address":"Jaunatnes iela 1 - 3","city":"Uļjanova","zip":"LV-4645"},"jaunatnes iela 1 - 4":{"address":"Jaunatnes iela 1 - 4","city":"Uļjanova","zip":"LV-4645"},"jaunatnes iela 1 - 5":{"address":"Jaunatnes iela 1 - 5","city":"Uļjanova","zip":"LV-4645"},"jaunatnes iela 1 - 6":{"address":"Jaunatnes iela 1 - 6","city":"Uļjanova","zip":"LV-4645"},"jaunatnes iela 1 - 7":{"address":"Jaunatnes iela 1 - 7","city":"Uļjanova","zip":"LV-4645"},"jaunatnes iela 1 - 8":{"address":"Jaunatnes iela 1 - 8","city":"Uļjanova","zip":"LV-4645"},"jaunatnes iela 1 - 9":{"address":"Jaunatnes iela 1 - 9","city":"Uļjanova","zip":"LV-4645"},"jaunatnes iela 1 - 10":{"address":"Jaunatnes iela 1 - 10","city":"Uļjanova","zip":"LV-4645"},"jaunatnes iela 1 - 11":{"address":"Jaunatnes iela 1 - 11","city":"Uļjanova","zip":"LV-4645"},"jaunatnes iela 1 - 12":{"address":"Jaunatnes iela 1 - 12","city":"Uļjanova","zip":"LV-4645"},"jaunatnes iela 1 - 13":{"address":"Jaunatnes iela 1 - 13","city":"Uļjanova","zip":"LV-4645"},"jaunatnes iela 1 - 14":{"address":"Jaunatnes iela 1 - 14","city":"Uļjanova","zip":"LV-4645"},"jaunatnes iela 1 - 15":{"address":"Jaunatnes iela 1 - 15","city":"Uļjanova","zip":"LV-4645"},"jaunatnes iela 1 - 16":{"address":"Jaunatnes iela 1 - 16","city":"Uļjanova","zip":"LV-4645"},"jaunatnes iela 1 - 17":{"address":"Jaunatnes iela 1 - 17","city":"Uļjanova","zip":"LV-4645"},"jaunatnes iela 1 - 18":{"address":"Jaunatnes iela 1 - 18","city":"Uļjanova","zip":"LV-4645"},"jaunatnes iela 1 - 19":{"address":"Jaunatnes iela 1 - 19","city":"Uļjanova","zip":"LV-4645"},"jaunatnes iela 1 - 20":{"address":"Jaunatnes iela 1 - 20","city":"Uļjanova","zip":"LV-4645"},"jaunatnes iela 1 - 21":{"address":"Jaunatnes iela 1 - 21","city":"Uļjanova","zip":"LV-4645"},"jaunatnes iela 1 - 22":{"address":"Jaunatnes iela 1 - 22","city":"Uļjanova","zip":"LV-4645"},"jaunatnes iela 1 - 23":{"address":"Jaunatnes iela 1 - 23","city":"Uļjanova","zip":"LV-4645"},"jaunatnes iela 1 - 24":{"address":"Jaunatnes iela 1 - 24","city":"Uļjanova","zip":"LV-4645"},"jaunatnes iela 1 - 25":{"address":"Jaunatnes iela 1 - 25","city":"Uļjanova","zip":"LV-4645"},"jaunatnes iela 1 - 26":{"address":"Jaunatnes iela 1 - 26","city":"Uļjanova","zip":"LV-4645"},"jaunatnes iela 1 - 27":{"address":"Jaunatnes iela 1 - 27","city":"Uļjanova","zip":"LV-4645"},"jaunatnes iela 1 - 28":{"address":"Jaunatnes iela 1 - 28","city":"Uļjanova","zip":"LV-4645"},"jaunatnes iela 1 - 29":{"address":"Jaunatnes iela 1 - 29","city":"Uļjanova","zip":"LV-4645"},"jaunatnes iela 1 - 30":{"address":"Jaunatnes iela 1 - 30","city":"Uļjanova","zip":"LV-4645"},"jaunatnes iela 3 - 1":{"address":"Jaunatnes iela 3 - 1","city":"Puša","zip":"LV-4635"},"jaunatnes iela 3 - 2":{"address":"Jaunatnes iela 3 - 2","city":"Puša","zip":"LV-4635"},"jaunatnes iela 3 - 3":{"address":"Jaunatnes iela 3 - 3","city":"Puša","zip":"LV-4635"},"jaunatnes iela 3 - 4":{"address":"Jaunatnes iela 3 - 4","city":"Puša","zip":"LV-4635"},"jaunatnes iela 3 - 5":{"address":"Jaunatnes iela 3 - 5","city":"Puša","zip":"LV-4635"},"jaunatnes iela 3 - 6":{"address":"Jaunatnes iela 3 - 6","city":"Puša","zip":"LV-4635"},"jaunatnes iela 3 - 7":{"address":"Jaunatnes iela 3 - 7","city":"Puša","zip":"LV-4635"},"jaunatnes iela 3 - 8":{"address":"Jaunatnes iela 3 - 8","city":"Puša","zip":"LV-4635"},"jaunatnes iela 3 - 9":{"address":"Jaunatnes iela 3 - 9","city":"Puša","zip":"LV-4635"},"jaunatnes iela 3 - 10":{"address":"Jaunatnes iela 3 - 10","city":"Puša","zip":"LV-4635"},"jaunatnes iela 3 - 11":{"address":"Jaunatnes iela 3 - 11","city":"Puša","zip":"LV-4635"},"jaunatnes iela 3 - 12":{"address":"Jaunatnes iela 3 - 12","city":"Puša","zip":"LV-4635"},"jaunatnes iela 7 - 1":{"address":"Jaunatnes iela 7 - 1","city":"Uļjanova","zip":"LV-4645"},"jaunatnes iela 7 - 2":{"address":"Jaunatnes iela 7 - 2","city":"Uļjanova","zip":"LV-4645"},"jaunatnes iela 7 - 3":{"address":"Jaunatnes iela 7 - 3","city":"Uļjanova","zip":"LV-4645"},"jaunatnes iela 7 - 4":{"address":"Jaunatnes iela 7 - 4","city":"Uļjanova","zip":"LV-4645"},"jaunatnes iela 7 - 5":{"address":"Jaunatnes iela 7 - 5","city":"Uļjanova","zip":"LV-4645"},"jaunatnes iela 7 - 6":{"address":"Jaunatnes iela 7 - 6","city":"Uļjanova","zip":"LV-4645"},"jaunatnes iela 7 - 7":{"address":"Jaunatnes iela 7 - 7","city":"Uļjanova","zip":"LV-4645"},"jaunatnes iela 7 - 8":{"address":"Jaunatnes iela 7 - 8","city":"Uļjanova","zip":"LV-4645"},"jaunatnes iela 7 - 9":{"address":"Jaunatnes iela 7 - 9","city":"Uļjanova","zip":"LV-4645"},"jaunatnes iela 7 - 10":{"address":"Jaunatnes iela 7 - 10","city":"Uļjanova","zip":"LV-4645"},"jaunatnes iela 7 - 11":{"address":"Jaunatnes iela 7 - 11","city":"Uļjanova","zip":"LV-4645"},"jaunatnes iela 7 - 12":{"address":"Jaunatnes iela 7 - 12","city":"Uļjanova","zip":"LV-4645"},"jaunatnes iela 5 - 1":{"address":"Jaunatnes iela 5 - 1","city":"Uļjanova","zip":"LV-4645"},"jaunatnes iela 5 - 2":{"address":"Jaunatnes iela 5 - 2","city":"Uļjanova","zip":"LV-4645"},"jaunatnes iela 5 - 3":{"address":"Jaunatnes iela 5 - 3","city":"Uļjanova","zip":"LV-4645"},"jaunatnes iela 5 - 4":{"address":"Jaunatnes iela 5 - 4","city":"Uļjanova","zip":"LV-4645"},"jaunatnes iela 5 - 5":{"address":"Jaunatnes iela 5 - 5","city":"Uļjanova","zip":"LV-4645"},"jaunatnes iela 5 - 6":{"address":"Jaunatnes iela 5 - 6","city":"Uļjanova","zip":"LV-4645"},"jaunatnes iela 5 - 7":{"address":"Jaunatnes iela 5 - 7","city":"Uļjanova","zip":"LV-4645"},"jaunatnes iela 5 - 8":{"address":"Jaunatnes iela 5 - 8","city":"Uļjanova","zip":"LV-4645"},"jaunatnes iela 5 - 9":{"address":"Jaunatnes iela 5 - 9","city":"Uļjanova","zip":"LV-4645"},"jaunatnes iela 5 - 10":{"address":"Jaunatnes iela 5 - 10","city":"Uļjanova","zip":"LV-4645"},"jaunatnes iela 5 - 11":{"address":"Jaunatnes iela 5 - 11","city":"Uļjanova","zip":"LV-4645"},"jaunatnes iela 5 - 12":{"address":"Jaunatnes iela 5 - 12","city":"Uļjanova","zip":"LV-4645"},"jaunatnes iela 2 - 2":{"address":"Jaunatnes iela 2 - 2","city":"Puša","zip":"LV-4635"},"jaunatnes iela 2 - 4":{"address":"Jaunatnes iela 2 - 4","city":"Puša","zip":"LV-4635"},"jaunatnes iela 2 - 5":{"address":"Jaunatnes iela 2 - 5","city":"Puša","zip":"LV-4635"},"jaunatnes iela 2 - 6":{"address":"Jaunatnes iela 2 - 6","city":"Puša","zip":"LV-4635"},"jaunatnes iela 2 - 7":{"address":"Jaunatnes iela 2 - 7","city":"Puša","zip":"LV-4635"},"jaunatnes iela 2 - 8":{"address":"Jaunatnes iela 2 - 8","city":"Puša","zip":"LV-4635"},"jaunatnes iela 2 - 9":{"address":"Jaunatnes iela 2 - 9","city":"Puša","zip":"LV-4635"},"jaunatnes iela 2 - 11":{"address":"Jaunatnes iela 2 - 11","city":"Puša","zip":"LV-4635"},"jaunatnes iela 2 - 13":{"address":"Jaunatnes iela 2 - 13","city":"Puša","zip":"LV-4635"},"jaunatnes iela 2 - 14":{"address":"Jaunatnes iela 2 - 14","city":"Puša","zip":"LV-4635"},"jaunatnes iela 2 - 15":{"address":"Jaunatnes iela 2 - 15","city":"Puša","zip":"LV-4635"},"jaunatnes iela 2 - 16":{"address":"Jaunatnes iela 2 - 16","city":"Puša","zip":"LV-4635"},"jaunatnes iela 2 - 17":{"address":"Jaunatnes iela 2 - 17","city":"Puša","zip":"LV-4635"},"jaunatnes iela 2 - 18":{"address":"Jaunatnes iela 2 - 18","city":"Puša","zip":"LV-4635"},"jaunatnes iela 2 - 3":{"address":"Jaunatnes iela 2 - 3","city":"Puša","zip":"LV-4635"},"jaunatnes iela 2 - 12":{"address":"Jaunatnes iela 2 - 12","city":"Puša","zip":"LV-4635"},"jaunatnes iela 2 - 1":{"address":"Jaunatnes iela 2 - 1","city":"Puša","zip":"LV-4635"},"jaunatnes iela 2 - 10":{"address":"Jaunatnes iela 2 - 10","city":"Puša","zip":"LV-4635"},"jaunatnes iela 3 - 13":{"address":"Jaunatnes iela 3 - 13","city":"Puša","zip":"LV-4635"},"jaunatnes iela 3 - 14":{"address":"Jaunatnes iela 3 - 14","city":"Puša","zip":"LV-4635"},"jaunatnes iela 3 - 15":{"address":"Jaunatnes iela 3 - 15","city":"Puša","zip":"LV-4635"},"jaunatnes iela 3 - 16":{"address":"Jaunatnes iela 3 - 16","city":"Puša","zip":"LV-4635"}}