{"vienkopas - 1":{"address":"Vienkopas - 1","city":"Jurizdika","zip":"LV-5701"},"vienkopas - 2":{"address":"Vienkopas - 2","city":"Jurizdika","zip":"LV-5701"},"juri":{"address":"Juri","city":"Mazā Medišova","zip":"LV-5706"},"jurīši":{"address":"Jurīši","city":"Jureiši","zip":"LV-5329"},"jūriņas":{"address":"Jūriņas","city":"Upesgrīva","zip":"LV-3284"},"jurija iela 1":{"address":"Jurija iela 1","city":"Mežezeri","zip":"LV-2121"},"jurija iela 2":{"address":"Jurija iela 2","city":"Mežezeri","zip":"LV-2121"},"jurija iela 3":{"address":"Jurija iela 3","city":"Mežezeri","zip":"LV-2121"},"jurija iela 4":{"address":"Jurija iela 4","city":"Mežezeri","zip":"LV-2121"},"jurija iela 5":{"address":"Jurija iela 5","city":"Mežezeri","zip":"LV-2121"},"jurija iela 6":{"address":"Jurija iela 6","city":"Mežezeri","zip":"LV-2121"},"jurija iela 7":{"address":"Jurija iela 7","city":"Mežezeri","zip":"LV-2121"},"jurija iela 8":{"address":"Jurija iela 8","city":"Mežezeri","zip":"LV-2121"},"jurija iela 9":{"address":"Jurija iela 9","city":"Mežezeri","zip":"LV-2121"},"jurija iela 10":{"address":"Jurija iela 10","city":"Mežezeri","zip":"LV-2121"},"jurija iela 11":{"address":"Jurija iela 11","city":"Mežezeri","zip":"LV-2121"},"jurija iela 12":{"address":"Jurija iela 12","city":"Mežezeri","zip":"LV-2121"},"jurija iela 13":{"address":"Jurija iela 13","city":"Mežezeri","zip":"LV-2121"},"jurija iela 14":{"address":"Jurija iela 14","city":"Mežezeri","zip":"LV-2121"},"jurija iela 15":{"address":"Jurija iela 15","city":"Mežezeri","zip":"LV-2121"},"jurija iela 16":{"address":"Jurija iela 16","city":"Mežezeri","zip":"LV-2121"},"jurija iela 17":{"address":"Jurija iela 17","city":"Mežezeri","zip":"LV-2121"},"vismaņu juri":{"address":"Vismaņu Juri","city":"Kaģi","zip":"LV-2107"},"kaziņu juri":{"address":"Kaziņu Juri","city":"Gātciems","zip":"LV-2105"},"juriņenoki":{"address":"Juriņenoki","city":"Ņivņiki","zip":"LV-5707"},"gaisma":{"address":"Gaisma","city":"Jurizdika","zip":"LV-5701"},"juriņi":{"address":"Juriņi","city":"Dimzukalns","zip":"LV-3913"},"veras":{"address":"Veras","city":"Meža Juri","zip":"LV-4636"},"juri 1":{"address":"Juri 1","city":"Lubāni","zip":"LV-5329"},"paļmira":{"address":"Paļmira","city":"Meža Juri","zip":"LV-4636"},"virvītes":{"address":"Virvītes","city":"Meža Juri","zip":"LV-4636"},"vēlumi":{"address":"Vēlumi","city":"Meža Juri","zip":"LV-4636"},"ludza":{"address":"Ludza","city":"Jurizdika","zip":"LV-5701"},"veras 1":{"address":"Veras 1","city":"Meža Juri","zip":"LV-4636"},"juringi":{"address":"Juringi","city":"Čudarīne","zip":"LV-4594"},"vienkopas":{"address":"Vienkopas","city":"Jurizdika","zip":"LV-5701"},"vientuļnieki":{"address":"Vientuļnieki","city":"Jurizdika","zip":"LV-5701"},"ezermājas":{"address":"Ezermājas","city":"Jurizdika","zip":"LV-5701"},"muita":{"address":"Muita","city":"Jurizdika","zip":"LV-5701"},"saulgoži":{"address":"Saulgoži","city":"Jurizdika","zip":"LV-5701"},"senarāji":{"address":"Senarāji","city":"Jurizdika","zip":"LV-5701"},"sirēnas":{"address":"Sirēnas","city":"Jurizdika","zip":"LV-5701"},"tauriņi":{"address":"Tauriņi","city":"Jurizdika","zip":"LV-5701"},"asariņi":{"address":"Asariņi","city":"Jurizdika","zip":"LV-5701"},"bojāri":{"address":"Bojāri","city":"Jurizdika","zip":"LV-5701"}}