{"jurīši":{"address":"Jurīši","city":"Danči","zip":"LV-4619"},"bērzpilis":{"address":"Bērzpilis","city":"Jurīši","zip":"LV-5462"},"brakši":{"address":"Brakši","city":"Jurīši","zip":"LV-5462"},"gaišumi":{"address":"Gaišumi","city":"Jurīši","zip":"LV-5462"},"ieviņas":{"address":"Ieviņas","city":"Jurīši","zip":"LV-5462"},"ivanīnas":{"address":"Ivanīnas","city":"Jurīši","zip":"LV-5462"},"jāņtārpiņi":{"address":"Jāņtārpiņi","city":"Jurīši","zip":"LV-5462"},"jāzepa saimniecība":{"address":"Jāzepa saimniecība","city":"Jurīši","zip":"LV-5462"},"jūlija":{"address":"Jūlija","city":"Jurīši","zip":"LV-5462"},"jurīši 1":{"address":"Jurīši 1","city":"Jurīši","zip":"LV-5462"},"jurīši 2":{"address":"Jurīši 2","city":"Jurīši","zip":"LV-5462"},"jurīši 3":{"address":"Jurīši 3","city":"Jurīši","zip":"LV-5462"},"jurīši 4":{"address":"Jurīši 4","city":"Jurīši","zip":"LV-5462"},"jurīši 5":{"address":"Jurīši 5","city":"Jurīši","zip":"LV-5462"},"jurīši 6":{"address":"Jurīši 6","city":"Jurīši","zip":"LV-5462"},"jurīši 7":{"address":"Jurīši 7","city":"Jurīši","zip":"LV-5462"},"jurīši 9":{"address":"Jurīši 9","city":"Jurīši","zip":"LV-5462"},"jurīši 12":{"address":"Jurīši 12","city":"Jurīši","zip":"LV-5462"},"jurīši 22":{"address":"Jurīši 22","city":"Jurīši","zip":"LV-5462"},"jurīši 30":{"address":"Jurīši 30","city":"Jurīši","zip":"LV-5462"},"jurīši 31a":{"address":"Jurīši 31A","city":"Jurīši","zip":"LV-5462"},"jurīši 31b":{"address":"Jurīši 31B","city":"Jurīši","zip":"LV-5462"},"kasparāni":{"address":"Kasparāni","city":"Jurīši","zip":"LV-5462"},"kokzāģētavas":{"address":"Kokzāģētavas","city":"Jurīši","zip":"LV-5462"},"lotosi":{"address":"Lotosi","city":"Jurīši","zip":"LV-5462"},"ļukeniški 30":{"address":"Ļukeniški 30","city":"Jurīši","zip":"LV-5462"},"purmales":{"address":"Purmales","city":"Jurīši","zip":"LV-5462"},"stevijas":{"address":"Stevijas","city":"Jurīši","zip":"LV-5462"},"diļeviči 5":{"address":"Diļeviči 5","city":"Jurīši","zip":"LV-5462"},"kovšeliški 1":{"address":"Kovšeliški 1","city":"Jurīši","zip":"LV-5462"},"juriši":{"address":"Juriši","city":"Reiņiški","zip":"LV-5440"}}