{"jāņukalns":{"address":"Jāņukalns","city":"Stabļova","zip":"LV-4587"},"vecais pagasta nams":{"address":"Vecais pagasta nams","city":"Jāņukalns","zip":"LV-4860"},"ķušnēri":{"address":"Ķušnēri","city":"Jāņukalns","zip":"LV-4860"},"jaudzumi":{"address":"Jaudzumi","city":"Jāņukalns","zip":"LV-4860"},"noras":{"address":"Noras","city":"Jāņukalns","zip":"LV-4860"},"jaunrocēni":{"address":"Jaunrocēni","city":"Jāņukalns","zip":"LV-4860"},"strauta iela 1":{"address":"Strauta iela 1","city":"Jāņukalns","zip":"LV-4860"},"strauta iela 2":{"address":"Strauta iela 2","city":"Jāņukalns","zip":"LV-4860"},"strauta iela 3":{"address":"Strauta iela 3","city":"Jāņukalns","zip":"LV-4860"},"strauta iela 4":{"address":"Strauta iela 4","city":"Jāņukalns","zip":"LV-4860"},"strauta iela 5":{"address":"Strauta iela 5","city":"Jāņukalns","zip":"LV-4860"},"strauta iela 6":{"address":"Strauta iela 6","city":"Jāņukalns","zip":"LV-4860"},"strauta iela 7":{"address":"Strauta iela 7","city":"Jāņukalns","zip":"LV-4860"},"strauta iela 8":{"address":"Strauta iela 8","city":"Jāņukalns","zip":"LV-4860"},"strauta iela 9":{"address":"Strauta iela 9","city":"Jāņukalns","zip":"LV-4860"},"strauta iela 11":{"address":"Strauta iela 11","city":"Jāņukalns","zip":"LV-4860"},"birzītes":{"address":"Birzītes","city":"Jāņukalns","zip":"LV-4860"},"jāņukalna baznīca":{"address":"Jāņukalna baznīca","city":"Jāņukalns","zip":"LV-4860"},"jāņukalna skola":{"address":"Jāņukalna skola","city":"Jāņukalns","zip":"LV-4860"}}