{"jāņukrogs 1 - 1":{"address":"Jāņukrogs 1 - 1","city":"Jāņukrogs","zip":"LV-3921"},"jāņukrogs 1 - 2":{"address":"Jāņukrogs 1 - 2","city":"Jāņukrogs","zip":"LV-3921"},"jāņukrogs 1 - 3":{"address":"Jāņukrogs 1 - 3","city":"Jāņukrogs","zip":"LV-3921"},"jāņukrogs 1 - 4":{"address":"Jāņukrogs 1 - 4","city":"Jāņukrogs","zip":"LV-3921"},"jāņukrogs 2 - 1":{"address":"Jāņukrogs 2 - 1","city":"Jāņukrogs","zip":"LV-3921"},"jāņukrogs 2 - 2":{"address":"Jāņukrogs 2 - 2","city":"Jāņukrogs","zip":"LV-3921"},"ziediņi 55 - 1":{"address":"Ziediņi 55 - 1","city":"Jāņupe","zip":"LV-2127"},"liepu iela 24 - 1":{"address":"Liepu iela 24 - 1","city":"Jāņuciems","zip":"LV-5442"},"liepu iela 24 - 2":{"address":"Liepu iela 24 - 2","city":"Jāņuciems","zip":"LV-5442"},"liepu iela 24 - 3":{"address":"Liepu iela 24 - 3","city":"Jāņuciems","zip":"LV-5442"},"liepu iela 24 - 4":{"address":"Liepu iela 24 - 4","city":"Jāņuciems","zip":"LV-5442"},"liepu iela 24 - 5":{"address":"Liepu iela 24 - 5","city":"Jāņuciems","zip":"LV-5442"},"liepu iela 24 - 6":{"address":"Liepu iela 24 - 6","city":"Jāņuciems","zip":"LV-5442"},"liepu iela 24 - 7":{"address":"Liepu iela 24 - 7","city":"Jāņuciems","zip":"LV-5442"},"liepu iela 24 - 8":{"address":"Liepu iela 24 - 8","city":"Jāņuciems","zip":"LV-5442"},"liepu iela 24 - 9":{"address":"Liepu iela 24 - 9","city":"Jāņuciems","zip":"LV-5442"},"liepu iela 24 - 10":{"address":"Liepu iela 24 - 10","city":"Jāņuciems","zip":"LV-5442"},"liepu iela 24 - 11":{"address":"Liepu iela 24 - 11","city":"Jāņuciems","zip":"LV-5442"},"liepu iela 24 - 12":{"address":"Liepu iela 24 - 12","city":"Jāņuciems","zip":"LV-5442"},"liepu iela 23 - 1":{"address":"Liepu iela 23 - 1","city":"Jāņuciems","zip":"LV-5442"},"liepu iela 23 - 2":{"address":"Liepu iela 23 - 2","city":"Jāņuciems","zip":"LV-5442"},"liepu iela 23 - 3":{"address":"Liepu iela 23 - 3","city":"Jāņuciems","zip":"LV-5442"},"liepu iela 23 - 4":{"address":"Liepu iela 23 - 4","city":"Jāņuciems","zip":"LV-5442"},"liepu iela 23 - 5":{"address":"Liepu iela 23 - 5","city":"Jāņuciems","zip":"LV-5442"},"liepu iela 23 - 6":{"address":"Liepu iela 23 - 6","city":"Jāņuciems","zip":"LV-5442"},"liepu iela 29 - 1":{"address":"Liepu iela 29 - 1","city":"Jāņuciems","zip":"LV-5442"},"liepu iela 29 - 2":{"address":"Liepu iela 29 - 2","city":"Jāņuciems","zip":"LV-5442"},"liepu iela 29 - 3":{"address":"Liepu iela 29 - 3","city":"Jāņuciems","zip":"LV-5442"},"liepu iela 30 - 1":{"address":"Liepu iela 30 - 1","city":"Jāņuciems","zip":"LV-5442"},"liepu iela 30 - 2":{"address":"Liepu iela 30 - 2","city":"Jāņuciems","zip":"LV-5442"},"jāņu iela 11 - 1":{"address":"Jāņu iela 11 - 1","city":"Nereta","zip":"LV-5118"},"jāņu iela 11 - 2":{"address":"Jāņu iela 11 - 2","city":"Nereta","zip":"LV-5118"},"jāņu iela 11 - 3":{"address":"Jāņu iela 11 - 3","city":"Nereta","zip":"LV-5118"},"jāņu iela 11 - 4":{"address":"Jāņu iela 11 - 4","city":"Nereta","zip":"LV-5118"},"jāņu iela 9 - 1":{"address":"Jāņu iela 9 - 1","city":"Nereta","zip":"LV-5118"},"jāņu iela 9 - 2":{"address":"Jāņu iela 9 - 2","city":"Nereta","zip":"LV-5118"},"jāņu iela 9 - 3":{"address":"Jāņu iela 9 - 3","city":"Nereta","zip":"LV-5118"},"jāņu iela 9 - 4":{"address":"Jāņu iela 9 - 4","city":"Nereta","zip":"LV-5118"},"jāņu iela 7 - 1":{"address":"Jāņu iela 7 - 1","city":"Nereta","zip":"LV-5118"},"jāņu iela 7 - 2":{"address":"Jāņu iela 7 - 2","city":"Nereta","zip":"LV-5118"},"jāņu iela 7 - 3":{"address":"Jāņu iela 7 - 3","city":"Nereta","zip":"LV-5118"},"jāņu iela 7 - 4":{"address":"Jāņu iela 7 - 4","city":"Nereta","zip":"LV-5118"},"jāņu iela 7 - 5":{"address":"Jāņu iela 7 - 5","city":"Nereta","zip":"LV-5118"},"jāņu iela 7 - 6":{"address":"Jāņu iela 7 - 6","city":"Nereta","zip":"LV-5118"},"jāņu iela 7 - 7":{"address":"Jāņu iela 7 - 7","city":"Nereta","zip":"LV-5118"},"jāņu iela 7 - 8":{"address":"Jāņu iela 7 - 8","city":"Nereta","zip":"LV-5118"},"jāņu iela 13 - 1":{"address":"Jāņu iela 13 - 1","city":"Nereta","zip":"LV-5118"},"jāņu iela 13 - 2":{"address":"Jāņu iela 13 - 2","city":"Nereta","zip":"LV-5118"},"jāņu iela 13 - 3":{"address":"Jāņu iela 13 - 3","city":"Nereta","zip":"LV-5118"},"jāņu iela 13 - 4":{"address":"Jāņu iela 13 - 4","city":"Nereta","zip":"LV-5118"},"jāņu iela 2 - 1":{"address":"Jāņu iela 2 - 1","city":"Nereta","zip":"LV-5118"},"jāņu iela 2 - 2":{"address":"Jāņu iela 2 - 2","city":"Nereta","zip":"LV-5118"},"jāņu iela 2 - 3":{"address":"Jāņu iela 2 - 3","city":"Nereta","zip":"LV-5118"},"jāņu iela 2 - 4":{"address":"Jāņu iela 2 - 4","city":"Nereta","zip":"LV-5118"},"jāņu iela 2 - 5":{"address":"Jāņu iela 2 - 5","city":"Nereta","zip":"LV-5118"},"jāņu iela 1 - 2":{"address":"Jāņu iela 1 - 2","city":"Nereta","zip":"LV-5118"},"jāņu iela 1 - 3":{"address":"Jāņu iela 1 - 3","city":"Nereta","zip":"LV-5118"},"jāņu iela 1 - 5":{"address":"Jāņu iela 1 - 5","city":"Nereta","zip":"LV-5118"},"jāņu iela 1 - 6":{"address":"Jāņu iela 1 - 6","city":"Nereta","zip":"LV-5118"},"jāņu iela 1 - 9":{"address":"Jāņu iela 1 - 9","city":"Nereta","zip":"LV-5118"},"jāņu iela 1 - 10":{"address":"Jāņu iela 1 - 10","city":"Nereta","zip":"LV-5118"},"jāņu mājas":{"address":"Jāņu mājas","city":"Lejastači","zip":"LV-4587"},"jāņu muiža":{"address":"Jāņu muiža","city":"Gudeļi","zip":"LV-4627"},"jāņumājas":{"address":"Jāņumājas","city":"Viduči","zip":"LV-4586"},"jāņu kalns":{"address":"Jāņu kalns","city":"Dricāni","zip":"LV-4615"},"jāņu sēta":{"address":"Jāņu sēta","city":"Mālnieki","zip":"LV-4614"},"jāņukalns":{"address":"Jāņukalns","city":"Līgo","zip":"LV-4421"},"jāņukalni":{"address":"Jāņukalni","city":"Skockova","zip":"LV-4583"},"jāņu zāles":{"address":"Jāņu zāles","city":"Pāliņi","zip":"LV-4576"},"cinīši":{"address":"Cinīši","city":"Jāņusala","zip":"LV-4566"},"degšņi":{"address":"Degšņi","city":"Jāņusala","zip":"LV-4566"},"jāņsaliņas":{"address":"Jāņsaliņas","city":"Jāņusala","zip":"LV-4566"},"salmaņi":{"address":"Salmaņi","city":"Jāņusala","zip":"LV-4566"},"vimersku mājas":{"address":"Vimersku mājas","city":"Jāņusala","zip":"LV-4566"},"jāņusētas":{"address":"Jāņusētas","city":"Centramuiža","zip":"LV-4501"}}