{"kadiķi - 1":{"address":"Kadiķi - 1","city":"Laizani","zip":"LV-4652"},"kadiķi - 2":{"address":"Kadiķi - 2","city":"Laizani","zip":"LV-4652"},"kadiķi - 3":{"address":"Kadiķi - 3","city":"Meirāni","zip":"LV-4826"},"kadiķi - 4":{"address":"Kadiķi - 4","city":"Meirāni","zip":"LV-4826"},"kadiķi - 5":{"address":"Kadiķi - 5","city":"Meirāni","zip":"LV-4826"},"kadiķi - 6":{"address":"Kadiķi - 6","city":"Meirāni","zip":"LV-4826"},"kadiķi - 7":{"address":"Kadiķi - 7","city":"Madliena","zip":"LV-5045"},"kadiķi - 8":{"address":"Kadiķi - 8","city":"Madliena","zip":"LV-5045"},"kadiķi - 9":{"address":"Kadiķi - 9","city":"Madliena","zip":"LV-5045"},"kadiķi - 10":{"address":"Kadiķi - 10","city":"Madliena","zip":"LV-5045"},"kadiķi - 11":{"address":"Kadiķi - 11","city":"Madliena","zip":"LV-5045"},"kadiķi - 12":{"address":"Kadiķi - 12","city":"Madliena","zip":"LV-5045"},"kadiķi - 13":{"address":"Kadiķi - 13","city":"Madliena","zip":"LV-5045"},"kadiķi - 14":{"address":"Kadiķi - 14","city":"Madliena","zip":"LV-5045"},"kadiķi - 15":{"address":"Kadiķi - 15","city":"Madliena","zip":"LV-5045"},"kadiķi - 16":{"address":"Kadiķi - 16","city":"Madliena","zip":"LV-5045"},"kadiķi - 17":{"address":"Kadiķi - 17","city":"Ozolmuiža","zip":"LV-4633"},"kadiķi - 18":{"address":"Kadiķi - 18","city":"Ozolmuiža","zip":"LV-4633"},"kadiķīši - 1":{"address":"Kadiķīši - 1","city":"Sātiņi","zip":"LV-3801"},"kadiķīši - 2":{"address":"Kadiķīši - 2","city":"Sātiņi","zip":"LV-3801"},"kadiķīši - 3":{"address":"Kadiķīši - 3","city":"Sātiņi","zip":"LV-3801"},"kadiķi - 19":{"address":"Kadiķi - 19","city":"Madliena","zip":"LV-5045"},"kadiķi - 20":{"address":"Kadiķi - 20","city":"Madliena","zip":"LV-5045"},"kadiķi - 21":{"address":"Kadiķi - 21","city":"Madliena","zip":"LV-5045"},"kadiķi - 22":{"address":"Kadiķi - 22","city":"Madliena","zip":"LV-5045"},"kadiķi - 23":{"address":"Kadiķi - 23","city":"Madliena","zip":"LV-5045"},"kadiķi - 24":{"address":"Kadiķi - 24","city":"Madliena","zip":"LV-5045"},"kadiķi - 26":{"address":"Kadiķi - 26","city":"Madliena","zip":"LV-5045"},"kadiķi - 27":{"address":"Kadiķi - 27","city":"Madliena","zip":"LV-5045"},"kadiķi - 30":{"address":"Kadiķi - 30","city":"Madliena","zip":"LV-5045"},"kadiķi - 31":{"address":"Kadiķi - 31","city":"Madliena","zip":"LV-5045"},"kadiķi - 32":{"address":"Kadiķi - 32","city":"Madliena","zip":"LV-5045"},"kadiķi - 33":{"address":"Kadiķi - 33","city":"Madliena","zip":"LV-5045"},"kadiķi - 34":{"address":"Kadiķi - 34","city":"Madliena","zip":"LV-5045"},"kadiķi - 35":{"address":"Kadiķi - 35","city":"Madliena","zip":"LV-5045"},"kadiķi":{"address":"Kadiķi","city":"Pleikšņi","zip":"LV-4601"},"kadiķīši":{"address":"Kadiķīši","city":"Dekšāres","zip":"LV-4614"}}