{"kaijas - 1":{"address":"Kaijas - 1","city":"Rūnaiši","zip":"LV-3326"},"kaijas - 2":{"address":"Kaijas - 2","city":"Rūnaiši","zip":"LV-3326"},"kaijas - 3":{"address":"Kaijas - 3","city":"Rūnaiši","zip":"LV-3326"},"kaijas - 4":{"address":"Kaijas - 4","city":"Rūnaiši","zip":"LV-3326"},"kaijas - 5":{"address":"Kaijas - 5","city":"Rūnaiši","zip":"LV-3326"},"kaijas - 6":{"address":"Kaijas - 6","city":"Rūnaiši","zip":"LV-3326"},"kaijas - 7":{"address":"Kaijas - 7","city":"Rūnaiši","zip":"LV-3326"},"kaijas - 8":{"address":"Kaijas - 8","city":"Rūnaiši","zip":"LV-3326"},"kaijas - 9":{"address":"Kaijas - 9","city":"Rūnaiši","zip":"LV-3326"},"kaijas - 10":{"address":"Kaijas - 10","city":"Rūnaiši","zip":"LV-3326"},"kaijas - 11":{"address":"Kaijas - 11","city":"Rūnaiši","zip":"LV-3326"},"kaijas - 12":{"address":"Kaijas - 12","city":"Rūnaiši","zip":"LV-3326"},"plieņciema kaijas - 3":{"address":"Plieņciema Kaijas - 3","city":"Plieņciems","zip":"LV-3113"},"plieņciema kaijas - 4":{"address":"Plieņciema Kaijas - 4","city":"Plieņciems","zip":"LV-3113"},"plieņciema kaijas - 5":{"address":"Plieņciema Kaijas - 5","city":"Plieņciems","zip":"LV-3113"},"plieņciema kaijas - 6":{"address":"Plieņciema Kaijas - 6","city":"Plieņciems","zip":"LV-3113"},"plieņciema kaijas - 1":{"address":"Plieņciema Kaijas - 1","city":"Plieņciems","zip":"LV-3113"},"plieņciema kaijas - 2":{"address":"Plieņciema Kaijas - 2","city":"Plieņciems","zip":"LV-3113"}}