{"gaidas - 1":{"address":"Gaidas - 1","city":"Kaive","zip":"LV-4144"},"gaidas - 2":{"address":"Gaidas - 2","city":"Kaive","zip":"LV-4144"},"gaidas - 3":{"address":"Gaidas - 3","city":"Kaive","zip":"LV-4144"},"gaidas - 4":{"address":"Gaidas - 4","city":"Kaive","zip":"LV-4144"},"gaidas - 5":{"address":"Gaidas - 5","city":"Kaive","zip":"LV-4144"},"gaidas - 6":{"address":"Gaidas - 6","city":"Kaive","zip":"LV-4144"},"gaidas - 7":{"address":"Gaidas - 7","city":"Kaive","zip":"LV-4144"},"gaidas - 8":{"address":"Gaidas - 8","city":"Kaive","zip":"LV-4144"},"gaidas - 9":{"address":"Gaidas - 9","city":"Kaive","zip":"LV-4144"},"gaidas - 10":{"address":"Gaidas - 10","city":"Kaive","zip":"LV-4144"},"gaidas - 11":{"address":"Gaidas - 11","city":"Kaive","zip":"LV-4144"},"gaidas - 12":{"address":"Gaidas - 12","city":"Kaive","zip":"LV-4144"},"gaidas - 13":{"address":"Gaidas - 13","city":"Kaive","zip":"LV-4144"},"gaidas - 14":{"address":"Gaidas - 14","city":"Kaive","zip":"LV-4144"},"gaidas - 15":{"address":"Gaidas - 15","city":"Kaive","zip":"LV-4144"},"gaidas - 16":{"address":"Gaidas - 16","city":"Kaive","zip":"LV-4144"},"gaidas - 17":{"address":"Gaidas - 17","city":"Kaive","zip":"LV-4144"},"gaidas - 18":{"address":"Gaidas - 18","city":"Kaive","zip":"LV-4144"},"kaives up朝tes - 1":{"address":"Kaives Up朝tes - 1","city":"Kaive","zip":"LV-3139"},"kaives up朝tes - 2":{"address":"Kaives Up朝tes - 2","city":"Kaive","zip":"LV-3139"}}