{"kalmes - 1":{"address":"Kalmes - 1","city":"Ezernieki","zip":"LV-5692"},"kalmes - 2":{"address":"Kalmes - 2","city":"Ezernieki","zip":"LV-5692"},"kalmes - 3":{"address":"Kalmes - 3","city":"Laidze","zip":"LV-3280"},"kalmes - 4":{"address":"Kalmes - 4","city":"Laidze","zip":"LV-3280"},"kalmes - 5":{"address":"Kalmes - 5","city":"Laidze","zip":"LV-3280"},"kalmes - 6":{"address":"Kalmes - 6","city":"Laidze","zip":"LV-3280"},"kalmes - 7":{"address":"Kalmes - 7","city":"Dursupe","zip":"LV-3287"},"kalmes - 8":{"address":"Kalmes - 8","city":"Dursupe","zip":"LV-3287"},"kalmes - 9":{"address":"Kalmes - 9","city":"Dursupe","zip":"LV-3287"},"kalmes - 10":{"address":"Kalmes - 10","city":"Dursupe","zip":"LV-3287"},"kalmes - 11":{"address":"Kalmes - 11","city":"Dursupe","zip":"LV-3287"},"kalmes - 12":{"address":"Kalmes - 12","city":"Dursupe","zip":"LV-3287"},"kalmes - 13":{"address":"Kalmes - 13","city":"Auciems","zip":"LV-4146"},"kalmes - 14":{"address":"Kalmes - 14","city":"Auciems","zip":"LV-4146"},"kalmes - 15":{"address":"Kalmes - 15","city":"Auciems","zip":"LV-4146"},"kalmes - 16":{"address":"Kalmes - 16","city":"Auciems","zip":"LV-4146"},"kalmes - 17":{"address":"Kalmes - 17","city":"Auciems","zip":"LV-4146"},"kalmes - 18":{"address":"Kalmes - 18","city":"Auciems","zip":"LV-4146"},"kalmes - 19":{"address":"Kalmes - 19","city":"Auciems","zip":"LV-4146"},"kalmes - 20":{"address":"Kalmes - 20","city":"Auciems","zip":"LV-4146"},"kalmes - 21":{"address":"Kalmes - 21","city":"Auciems","zip":"LV-4146"},"kalmes - 22":{"address":"Kalmes - 22","city":"Auciems","zip":"LV-4146"},"kalmes - 23":{"address":"Kalmes - 23","city":"Auciems","zip":"LV-4146"},"kalmes - 24":{"address":"Kalmes - 24","city":"Auciems","zip":"LV-4146"},"kalmes":{"address":"Kalmes","city":"VecstƒÅmeriena","zip":"LV-4406"}}