{"kalna iela 1 - 1":{"address":"Kalna iela 1 - 1","city":"Sakstagals","zip":"LV-4638"},"kalna iela 1 - 2":{"address":"Kalna iela 1 - 2","city":"Sakstagals","zip":"LV-4638"},"kalna iela 1 - 3":{"address":"Kalna iela 1 - 3","city":"Sakstagals","zip":"LV-4638"},"kalna iela 1 - 4":{"address":"Kalna iela 1 - 4","city":"Sakstagals","zip":"LV-4638"},"kalna iela 1 - 5":{"address":"Kalna iela 1 - 5","city":"Sakstagals","zip":"LV-4638"},"kalna iela 1 - 6":{"address":"Kalna iela 1 - 6","city":"Sakstagals","zip":"LV-4638"},"kalna iela 1 - 7":{"address":"Kalna iela 1 - 7","city":"Sakstagals","zip":"LV-4638"},"kalna iela 1 - 8":{"address":"Kalna iela 1 - 8","city":"Sakstagals","zip":"LV-4638"},"kalna iela 1 - 9":{"address":"Kalna iela 1 - 9","city":"Sakstagals","zip":"LV-4638"},"kalna iela 1 - 10":{"address":"Kalna iela 1 - 10","city":"Sakstagals","zip":"LV-4638"},"kalna iela 1 - 11":{"address":"Kalna iela 1 - 11","city":"Sakstagals","zip":"LV-4638"},"kalna iela 1 - 12":{"address":"Kalna iela 1 - 12","city":"Sakstagals","zip":"LV-4638"},"kalna iela 1 - 13":{"address":"Kalna iela 1 - 13","city":"Sakstagals","zip":"LV-4638"},"kalna iela 1 - 14":{"address":"Kalna iela 1 - 14","city":"Sakstagals","zip":"LV-4638"},"kalna iela 1 - 15":{"address":"Kalna iela 1 - 15","city":"Sakstagals","zip":"LV-4638"},"kalna iela 1 - 16":{"address":"Kalna iela 1 - 16","city":"Sakstagals","zip":"LV-4638"},"kalna iela 1 - 17":{"address":"Kalna iela 1 - 17","city":"Sakstagals","zip":"LV-4638"},"kalna iela 1 - 18":{"address":"Kalna iela 1 - 18","city":"Sakstagals","zip":"LV-4638"},"kalna vēverīši - 1":{"address":"Kalna Vēverīši - 1","city":"Feimaņi","zip":"LV-4623"},"kalna vēverīši - 2":{"address":"Kalna Vēverīši - 2","city":"Feimaņi","zip":"LV-4623"},"kalna iela 5 - 1":{"address":"Kalna iela 5 - 1","city":"Ilzeskalns","zip":"LV-4619"},"kalna iela 5 - 2":{"address":"Kalna iela 5 - 2","city":"Ilzeskalns","zip":"LV-4619"},"kalna iela 5 - 3":{"address":"Kalna iela 5 - 3","city":"Ilzeskalns","zip":"LV-4619"},"kalna iela 5 - 4":{"address":"Kalna iela 5 - 4","city":"Ilzeskalns","zip":"LV-4619"},"kalna iela 5 - 5":{"address":"Kalna iela 5 - 5","city":"Ilzeskalns","zip":"LV-4619"},"kalna iela 5 - 6":{"address":"Kalna iela 5 - 6","city":"Ilzeskalns","zip":"LV-4619"},"kalna iela 5 - 7":{"address":"Kalna iela 5 - 7","city":"Ilzeskalns","zip":"LV-4619"},"kalna iela 5 - 8":{"address":"Kalna iela 5 - 8","city":"Ilzeskalns","zip":"LV-4619"},"kalna iela 5 - 9":{"address":"Kalna iela 5 - 9","city":"Ilzeskalns","zip":"LV-4619"},"kalna iela 5 - 10":{"address":"Kalna iela 5 - 10","city":"Ilzeskalns","zip":"LV-4619"},"kalna iela 5 - 11":{"address":"Kalna iela 5 - 11","city":"Ilzeskalns","zip":"LV-4619"},"kalna iela 5 - 12":{"address":"Kalna iela 5 - 12","city":"Ilzeskalns","zip":"LV-4619"},"kalna iela 5 - 13":{"address":"Kalna iela 5 - 13","city":"Ilzeskalns","zip":"LV-4619"},"kalna iela 5 - 14":{"address":"Kalna iela 5 - 14","city":"Ilzeskalns","zip":"LV-4619"},"kalna iela 5 - 15":{"address":"Kalna iela 5 - 15","city":"Ilzeskalns","zip":"LV-4619"},"kalna iela 5 - 16":{"address":"Kalna iela 5 - 16","city":"Ilzeskalns","zip":"LV-4619"},"kalna iela 5 - 17":{"address":"Kalna iela 5 - 17","city":"Ilzeskalns","zip":"LV-4619"},"kalna iela 5 - 18":{"address":"Kalna iela 5 - 18","city":"Ilzeskalns","zip":"LV-4619"},"kalna iela 5 - 19":{"address":"Kalna iela 5 - 19","city":"Ilzeskalns","zip":"LV-4619"},"kalna iela 5 - 20":{"address":"Kalna iela 5 - 20","city":"Ilzeskalns","zip":"LV-4619"},"kalna iela 5 - 21":{"address":"Kalna iela 5 - 21","city":"Ilzeskalns","zip":"LV-4619"},"kalna iela 5 - 22":{"address":"Kalna iela 5 - 22","city":"Ilzeskalns","zip":"LV-4619"},"kalna iela 5 - 23":{"address":"Kalna iela 5 - 23","city":"Ilzeskalns","zip":"LV-4619"},"kalna iela 5 - 24":{"address":"Kalna iela 5 - 24","city":"Ilzeskalns","zip":"LV-4619"},"kalna iela 5 - 25":{"address":"Kalna iela 5 - 25","city":"Ilzeskalns","zip":"LV-4619"},"kalna iela 5 - 26":{"address":"Kalna iela 5 - 26","city":"Ilzeskalns","zip":"LV-4619"},"kalna iela 5 - 27":{"address":"Kalna iela 5 - 27","city":"Ilzeskalns","zip":"LV-4619"},"kalna iela 5 - 28":{"address":"Kalna iela 5 - 28","city":"Ilzeskalns","zip":"LV-4619"},"kalna iela 5 - 29":{"address":"Kalna iela 5 - 29","city":"Ilzeskalns","zip":"LV-4619"},"kalna iela 5 - 30":{"address":"Kalna iela 5 - 30","city":"Ilzeskalns","zip":"LV-4619"},"kalna iela 4 - 18":{"address":"Kalna iela 4 - 18","city":"Dubuļi","zip":"LV-4616"},"kalna iela 4 - 21":{"address":"Kalna iela 4 - 21","city":"Dubuļi","zip":"LV-4616"},"kalna iela 4 - 25":{"address":"Kalna iela 4 - 25","city":"Dubuļi","zip":"LV-4616"},"kalna iela 4 - 15":{"address":"Kalna iela 4 - 15","city":"Dubuļi","zip":"LV-4616"},"kalna iela 4 - 1":{"address":"Kalna iela 4 - 1","city":"Dubuļi","zip":"LV-4616"},"kalna iela 4 - 2":{"address":"Kalna iela 4 - 2","city":"Dubuļi","zip":"LV-4616"},"kalna iela 4 - 3":{"address":"Kalna iela 4 - 3","city":"Dubuļi","zip":"LV-4616"},"kalna iela 4 - 4":{"address":"Kalna iela 4 - 4","city":"Dubuļi","zip":"LV-4616"},"kalna iela 4 - 5":{"address":"Kalna iela 4 - 5","city":"Dubuļi","zip":"LV-4616"},"kalna iela 4 - 6":{"address":"Kalna iela 4 - 6","city":"Dubuļi","zip":"LV-4616"},"kalna iela 4 - 7":{"address":"Kalna iela 4 - 7","city":"Dubuļi","zip":"LV-4616"},"kalna iela 4 - 8":{"address":"Kalna iela 4 - 8","city":"Dubuļi","zip":"LV-4616"},"kalna iela 4 - 9":{"address":"Kalna iela 4 - 9","city":"Dubuļi","zip":"LV-4616"},"kalna iela 4 - 10":{"address":"Kalna iela 4 - 10","city":"Dubuļi","zip":"LV-4616"},"kalna iela 4 - 11":{"address":"Kalna iela 4 - 11","city":"Dubuļi","zip":"LV-4616"},"kalna iela 4 - 12":{"address":"Kalna iela 4 - 12","city":"Dubuļi","zip":"LV-4616"},"kalna iela 4 - 13":{"address":"Kalna iela 4 - 13","city":"Dubuļi","zip":"LV-4616"},"kalna iela 4 - 14":{"address":"Kalna iela 4 - 14","city":"Dubuļi","zip":"LV-4616"},"kalna iela 4 - 16":{"address":"Kalna iela 4 - 16","city":"Dubuļi","zip":"LV-4616"},"kalna iela 4 - 17":{"address":"Kalna iela 4 - 17","city":"Dubuļi","zip":"LV-4616"},"kalna iela 4 - 19":{"address":"Kalna iela 4 - 19","city":"Dubuļi","zip":"LV-4616"},"kalna iela 4 - 20":{"address":"Kalna iela 4 - 20","city":"Dubuļi","zip":"LV-4616"},"kalna iela 4 - 22":{"address":"Kalna iela 4 - 22","city":"Dubuļi","zip":"LV-4616"},"kalna iela 4 - 23":{"address":"Kalna iela 4 - 23","city":"Dubuļi","zip":"LV-4616"},"kalna iela 4 - 24":{"address":"Kalna iela 4 - 24","city":"Dubuļi","zip":"LV-4616"},"kalna iela 4 - 26":{"address":"Kalna iela 4 - 26","city":"Dubuļi","zip":"LV-4616"},"kalna iela 4 - 27":{"address":"Kalna iela 4 - 27","city":"Dubuļi","zip":"LV-4616"},"kalna iela 4 - 28":{"address":"Kalna iela 4 - 28","city":"Dubuļi","zip":"LV-4616"},"kalna iela 4 - 29":{"address":"Kalna iela 4 - 29","city":"Dubuļi","zip":"LV-4616"},"kalna iela 4 - 30":{"address":"Kalna iela 4 - 30","city":"Dubuļi","zip":"LV-4616"},"kalna iela 13 - 1":{"address":"Kalna iela 13 - 1","city":"Kubuli","zip":"LV-4566"},"kalna iela 13 - 2":{"address":"Kalna iela 13 - 2","city":"Kubuli","zip":"LV-4566"},"kalna iela 13 - 3":{"address":"Kalna iela 13 - 3","city":"Kubuli","zip":"LV-4566"},"kalna iela 13 - 4":{"address":"Kalna iela 13 - 4","city":"Kubuli","zip":"LV-4566"},"kalna iela 13 - 5":{"address":"Kalna iela 13 - 5","city":"Kubuli","zip":"LV-4566"},"kalna iela 13 - 6":{"address":"Kalna iela 13 - 6","city":"Kubuli","zip":"LV-4566"},"kalna iela 13 - 7":{"address":"Kalna iela 13 - 7","city":"Kubuli","zip":"LV-4566"},"kalna iela 13 - 8":{"address":"Kalna iela 13 - 8","city":"Kubuli","zip":"LV-4566"},"kalna iela 13 - 9":{"address":"Kalna iela 13 - 9","city":"Kubuli","zip":"LV-4566"},"kalna iela 13 - 10":{"address":"Kalna iela 13 - 10","city":"Kubuli","zip":"LV-4566"},"kalna iela 13 - 11":{"address":"Kalna iela 13 - 11","city":"Kubuli","zip":"LV-4566"},"kalna iela 13 - 12":{"address":"Kalna iela 13 - 12","city":"Kubuli","zip":"LV-4566"},"kalna iela 11 - 1":{"address":"Kalna iela 11 - 1","city":"Kubuli","zip":"LV-4566"},"kalna iela 11 - 2":{"address":"Kalna iela 11 - 2","city":"Kubuli","zip":"LV-4566"},"kalna iela 11 - 3":{"address":"Kalna iela 11 - 3","city":"Kubuli","zip":"LV-4566"},"kalna iela 11 - 4":{"address":"Kalna iela 11 - 4","city":"Kubuli","zip":"LV-4566"},"kalna iela 11 - 5":{"address":"Kalna iela 11 - 5","city":"Kubuli","zip":"LV-4566"},"kalna iela 11 - 6":{"address":"Kalna iela 11 - 6","city":"Kubuli","zip":"LV-4566"},"kalna iela 11 - 7":{"address":"Kalna iela 11 - 7","city":"Kubuli","zip":"LV-4566"},"kalna iela 11 - 8":{"address":"Kalna iela 11 - 8","city":"Kubuli","zip":"LV-4566"}}