{"jaunbitenieki - 1":{"address":"Jaunbitenieki - 1","city":"Kalnišķi","zip":"LV-3476"},"jaunbitenieki - 2":{"address":"Jaunbitenieki - 2","city":"Kalnišķi","zip":"LV-3476"},"rāmiņi - 1":{"address":"Rāmiņi - 1","city":"Kalnišķi","zip":"LV-3476"},"rāmiņi - 2":{"address":"Rāmiņi - 2","city":"Kalnišķi","zip":"LV-3476"},"kalnišķu baloži - 1":{"address":"Kalnišķu Baloži - 1","city":"Kalnišķi","zip":"LV-3476"},"kalnišķu baloži - 2":{"address":"Kalnišķu Baloži - 2","city":"Kalnišķi","zip":"LV-3476"},"kalnišķu baloži - 3":{"address":"Kalnišķu Baloži - 3","city":"Kalnišķi","zip":"LV-3476"},"kalnišķu baloži - 4":{"address":"Kalnišķu Baloži - 4","city":"Kalnišķi","zip":"LV-3476"},"kalnišķu dimanti - 1":{"address":"Kalnišķu Dimanti - 1","city":"Kalnišķi","zip":"LV-3476"},"kalnišķu dimanti - 2":{"address":"Kalnišķu Dimanti - 2","city":"Kalnišķi","zip":"LV-3476"},"kalnišķu dimanti - 3":{"address":"Kalnišķu Dimanti - 3","city":"Kalnišķi","zip":"LV-3476"},"kalnišķu dimanti - 4":{"address":"Kalnišķu Dimanti - 4","city":"Kalnišķi","zip":"LV-3476"},"kalnišķu dimanti - 5":{"address":"Kalnišķu Dimanti - 5","city":"Kalnišķi","zip":"LV-3476"},"kalnišķu dimanti - 6":{"address":"Kalnišķu Dimanti - 6","city":"Kalnišķi","zip":"LV-3476"},"kalnišķu dimanti - 7":{"address":"Kalnišķu Dimanti - 7","city":"Kalnišķi","zip":"LV-3476"},"kalnišķu dimanti - 8":{"address":"Kalnišķu Dimanti - 8","city":"Kalnišķi","zip":"LV-3476"},"kalnišķu dimanti - 9":{"address":"Kalnišķu Dimanti - 9","city":"Kalnišķi","zip":"LV-3476"},"kalnišķu dimanti - 10":{"address":"Kalnišķu Dimanti - 10","city":"Kalnišķi","zip":"LV-3476"},"kalnišķu dimanti - 11":{"address":"Kalnišķu Dimanti - 11","city":"Kalnišķi","zip":"LV-3476"},"kalnišķu dimanti - 12":{"address":"Kalnišķu Dimanti - 12","city":"Kalnišķi","zip":"LV-3476"},"aizpurieši - 8":{"address":"Aizpurieši - 8","city":"Kalnišķi","zip":"LV-5463"},"aizpurieši - 7":{"address":"Aizpurieši - 7","city":"Kalnišķi","zip":"LV-5463"},"aizpurieši - 6":{"address":"Aizpurieši - 6","city":"Kalnišķi","zip":"LV-5463"},"aizpurieši - 5":{"address":"Aizpurieši - 5","city":"Kalnišķi","zip":"LV-5463"},"aizpurieši - 4":{"address":"Aizpurieši - 4","city":"Kalnišķi","zip":"LV-5463"},"aizpurieši - 3":{"address":"Aizpurieši - 3","city":"Kalnišķi","zip":"LV-5463"},"aizpurieši - 2":{"address":"Aizpurieši - 2","city":"Kalnišķi","zip":"LV-5463"},"aizpurieši - 1":{"address":"Aizpurieši - 1","city":"Kalnišķi","zip":"LV-5463"},"mežniecības māja - 5":{"address":"Mežniecības māja - 5","city":"Kalnišķi","zip":"LV-5463"},"mežniecības māja - 1":{"address":"Mežniecības māja - 1","city":"Kalnišķi","zip":"LV-5463"},"baltā māja - 1":{"address":"Baltā māja - 1","city":"Kalniški","zip":"LV-5456"},"baltā māja - 2":{"address":"Baltā māja - 2","city":"Kalniški","zip":"LV-5456"},"baltā māja - 3":{"address":"Baltā māja - 3","city":"Kalniški","zip":"LV-5456"},"baltā māja - 4":{"address":"Baltā māja - 4","city":"Kalniški","zip":"LV-5456"},"baltā māja - 5":{"address":"Baltā māja - 5","city":"Kalniški","zip":"LV-5456"},"baltā māja - 6":{"address":"Baltā māja - 6","city":"Kalniški","zip":"LV-5456"},"baltā māja - 7":{"address":"Baltā māja - 7","city":"Kalniški","zip":"LV-5456"},"baltā māja - 8":{"address":"Baltā māja - 8","city":"Kalniški","zip":"LV-5456"},"kalnišķi":{"address":"Kalnišķi","city":"Kalnišķi","zip":"LV-3476"},"īves":{"address":"Īves","city":"Kalnišķi","zip":"LV-3476"},"jaunbitenieki":{"address":"Jaunbitenieki","city":"Kalnišķi","zip":"LV-3476"},"rāmiņi":{"address":"Rāmiņi","city":"Kalnišķi","zip":"LV-3476"},"smiltiņas":{"address":"Smiltiņas","city":"Kalnišķi","zip":"LV-3476"},"stikliņi":{"address":"Stikliņi","city":"Kalnišķi","zip":"LV-3476"},"štrausi":{"address":"Štrausi","city":"Kalnišķi","zip":"LV-3476"},"tēraudi":{"address":"Tēraudi","city":"Kalnišķi","zip":"LV-3476"},"kalnišķu veikals":{"address":"Kalnišķu veikals","city":"Kalnišķi","zip":"LV-3476"},"valteri":{"address":"Valteri","city":"Kalnišķi","zip":"LV-3476"},"kalnišķu baloži":{"address":"Kalnišķu Baloži","city":"Kalnišķi","zip":"LV-3476"},"kalnišķu dimanti":{"address":"Kalnišķu Dimanti","city":"Kalnišķi","zip":"LV-3476"},"vītoli":{"address":"Vītoli","city":"Kalnišķi","zip":"LV-3476"},"vecie dimanti":{"address":"Vecie Dimanti","city":"Kalnišķi","zip":"LV-5463"},"vārpiņas":{"address":"Vārpiņas","city":"Kalniški","zip":"LV-5456"},"zemeņu ielejas":{"address":"Zemeņu ielejas","city":"Kalniški","zip":"LV-5456"},"aizpurieši":{"address":"Aizpurieši","city":"Kalnišķi","zip":"LV-5463"},"vīzijas":{"address":"Vīzijas","city":"Kalniški","zip":"LV-5456"},"šalkas":{"address":"Šalkas","city":"Kalnišķi","zip":"LV-5463"},"mežniecības māja":{"address":"Mežniecības māja","city":"Kalnišķi","zip":"LV-5463"},"lamari":{"address":"Lamari","city":"Kalnišķi","zip":"LV-5463"},"liepu mājas":{"address":"Liepu mājas","city":"Kalniški","zip":"LV-5456"},"atmoda":{"address":"Atmoda","city":"Kalniški","zip":"LV-5456"},"gobas":{"address":"Gobas","city":"Kalniški","zip":"LV-5456"},"laimes mājas":{"address":"Laimes mājas","city":"Kalniški","zip":"LV-5456"},"kalniški 2":{"address":"Kalniški 2","city":"Kalniški","zip":"LV-5456"},"zemzari":{"address":"Zemzari","city":"Kalnišķi","zip":"LV-5463"},"zvaigznītes":{"address":"Zvaigznītes","city":"Kalnišķi","zip":"LV-5463"},"betānija":{"address":"Betānija","city":"Kalnišķi","zip":"LV-5463"},"ozoli":{"address":"Ozoli","city":"Kalnišķi","zip":"LV-5463"},"robežnieki":{"address":"Robežnieki","city":"Kalnišķi","zip":"LV-5463"},"rozītes":{"address":"Rozītes","city":"Kalnišķi","zip":"LV-5463"},"tīrumi":{"address":"Tīrumi","city":"Kalnišķi","zip":"LV-5463"},"vecvanagi":{"address":"Vecvanagi","city":"Kalnišķi","zip":"LV-5463"},"vizuļi":{"address":"Vizuļi","city":"Kalnišķi","zip":"LV-5463"},"ausmas":{"address":"Ausmas","city":"Kalnišķi","zip":"LV-5463"},"grāveri":{"address":"Grāveri","city":"Kalnišķi","zip":"LV-5463"},"griezes":{"address":"Griezes","city":"Kalnišķi","zip":"LV-5463"},"kalītes":{"address":"Kalītes","city":"Kalnišķi","zip":"LV-5463"},"kalnastrautiņi":{"address":"Kalnastrautiņi","city":"Kalnišķi","zip":"LV-5463"},"kalniņi 1":{"address":"Kalniņi 1","city":"Kalnišķi","zip":"LV-5463"},"kociņi":{"address":"Kociņi","city":"Kalnišķi","zip":"LV-5463"},"kumelītes":{"address":"Kumelītes","city":"Kalnišķi","zip":"LV-5463"},"lauri":{"address":"Lauri","city":"Kalnišķi","zip":"LV-5463"}}