{"kalnsētas - 1":{"address":"Kalnsētas - 1","city":"Vidriži","zip":"LV-4013"},"kalnsētas - 2":{"address":"Kalnsētas - 2","city":"Vidriži","zip":"LV-4013"},"kalnsētas - 3":{"address":"Kalnsētas - 3","city":"Vidriži","zip":"LV-4013"},"kalnsētas - 4":{"address":"Kalnsētas - 4","city":"Vidriži","zip":"LV-4013"},"kalnsētas - 5":{"address":"Kalnsētas - 5","city":"Vidriži","zip":"LV-4013"},"kalnsētas - 6":{"address":"Kalnsētas - 6","city":"Vidriži","zip":"LV-4013"},"kalnsētas - 7":{"address":"Kalnsētas - 7","city":"Vidriži","zip":"LV-4013"},"kalnsētas - 8":{"address":"Kalnsētas - 8","city":"Vidriži","zip":"LV-4013"},"kalnsētas - 9":{"address":"Kalnsētas - 9","city":"Straupe","zip":"LV-4152"},"kalnsētas - 10":{"address":"Kalnsētas - 10","city":"Straupe","zip":"LV-4152"},"kalnsētas - 11":{"address":"Kalnsētas - 11","city":"Straupe","zip":"LV-4152"},"kalnsētas - 12":{"address":"Kalnsētas - 12","city":"Straupe","zip":"LV-4152"},"kalnsētas - 13":{"address":"Kalnsētas - 13","city":"Straupe","zip":"LV-4152"},"kalnsētas - 14":{"address":"Kalnsētas - 14","city":"Straupe","zip":"LV-4152"},"kalnsētas - 15":{"address":"Kalnsētas - 15","city":"Straupe","zip":"LV-4152"},"kalnsētas - 16":{"address":"Kalnsētas - 16","city":"Straupe","zip":"LV-4152"},"kalnsētas - 17":{"address":"Kalnsētas - 17","city":"Straupe","zip":"LV-4152"},"kalnsētas - 18":{"address":"Kalnsētas - 18","city":"Straupe","zip":"LV-4152"},"kalnsētas - 19":{"address":"Kalnsētas - 19","city":"Straupe","zip":"LV-4152"},"dūži - 1":{"address":"Dūži - 1","city":"Kalnsētas","zip":"LV-3851"},"dūži - 2":{"address":"Dūži - 2","city":"Kalnsētas","zip":"LV-3851"},"dūži - 3":{"address":"Dūži - 3","city":"Kalnsētas","zip":"LV-3851"},"dūži - 4":{"address":"Dūži - 4","city":"Kalnsētas","zip":"LV-3851"},"cieceres dzirnavas - 1":{"address":"Cieceres dzirnavas - 1","city":"Kalnsētas","zip":"LV-3851"},"cieceres dzirnavas - 2":{"address":"Cieceres dzirnavas - 2","city":"Kalnsētas","zip":"LV-3851"},"cieceres dzirnavas - 3":{"address":"Cieceres dzirnavas - 3","city":"Kalnsētas","zip":"LV-3851"},"dzirnavas - 1":{"address":"Dzirnavas - 1","city":"Kalnsētas","zip":"LV-3851"},"dzirnavas - 2":{"address":"Dzirnavas - 2","city":"Kalnsētas","zip":"LV-3851"},"dzirnavas - 3":{"address":"Dzirnavas - 3","city":"Kalnsētas","zip":"LV-3851"}}