{"kalnāji - 1":{"address":"Kalnāji - 1","city":"Madliena","zip":"LV-5045"},"kalnāji - 2":{"address":"Kalnāji - 2","city":"Madliena","zip":"LV-5045"},"kalnāji - 3":{"address":"Kalnāji - 3","city":"Madliena","zip":"LV-5045"},"kalnāji - 4":{"address":"Kalnāji - 4","city":"Madliena","zip":"LV-5045"},"kalnāji - 5":{"address":"Kalnāji - 5","city":"Madliena","zip":"LV-5045"},"kalnāji - 6":{"address":"Kalnāji - 6","city":"Madliena","zip":"LV-5045"},"kalnāji - 7":{"address":"Kalnāji - 7","city":"Madliena","zip":"LV-5045"},"kalnāji - 8":{"address":"Kalnāji - 8","city":"Madliena","zip":"LV-5045"},"bērzu iela 4 - 1":{"address":"Bērzu iela 4 - 1","city":"Kalnāji","zip":"LV-5015"},"bērzu iela 4 - 2":{"address":"Bērzu iela 4 - 2","city":"Kalnāji","zip":"LV-5015"},"bērzu iela 4 - 3":{"address":"Bērzu iela 4 - 3","city":"Kalnāji","zip":"LV-5015"},"kalnāji":{"address":"Kalnāji","city":"Kalniena","zip":"LV-4406"},"amatnieki":{"address":"Amatnieki","city":"Kalnāji","zip":"LV-4617"},"kļavas":{"address":"Kļavas","city":"Kalnāji","zip":"LV-4617"},"ozolmājas":{"address":"Ozolmājas","city":"Kalnāji","zip":"LV-4617"},"sergejs":{"address":"Sergejs","city":"Kalnāji","zip":"LV-4617"},"skaistkalne":{"address":"Skaistkalne","city":"Kalnāji","zip":"LV-4617"},"skaņkalni":{"address":"Skaņkalni","city":"Kalnāji","zip":"LV-4617"}}