{"kalnišķu baloži - 1":{"address":"Kalnišķu Baloži - 1","city":"Kalnišķi","zip":"LV-3476"},"kalnišķu baloži - 2":{"address":"Kalnišķu Baloži - 2","city":"Kalnišķi","zip":"LV-3476"},"kalnišķu baloži - 3":{"address":"Kalnišķu Baloži - 3","city":"Kalnišķi","zip":"LV-3476"},"kalnišķu baloži - 4":{"address":"Kalnišķu Baloži - 4","city":"Kalnišķi","zip":"LV-3476"},"kalnišķu dimanti - 1":{"address":"Kalnišķu Dimanti - 1","city":"Kalnišķi","zip":"LV-3476"},"kalnišķu dimanti - 2":{"address":"Kalnišķu Dimanti - 2","city":"Kalnišķi","zip":"LV-3476"},"kalnišķu dimanti - 3":{"address":"Kalnišķu Dimanti - 3","city":"Kalnišķi","zip":"LV-3476"},"kalnišķu dimanti - 4":{"address":"Kalnišķu Dimanti - 4","city":"Kalnišķi","zip":"LV-3476"},"kalnišķu dimanti - 5":{"address":"Kalnišķu Dimanti - 5","city":"Kalnišķi","zip":"LV-3476"},"kalnišķu dimanti - 6":{"address":"Kalnišķu Dimanti - 6","city":"Kalnišķi","zip":"LV-3476"},"kalnišķu dimanti - 7":{"address":"Kalnišķu Dimanti - 7","city":"Kalnišķi","zip":"LV-3476"},"kalnišķu dimanti - 8":{"address":"Kalnišķu Dimanti - 8","city":"Kalnišķi","zip":"LV-3476"},"kalnišķu dimanti - 9":{"address":"Kalnišķu Dimanti - 9","city":"Kalnišķi","zip":"LV-3476"},"kalnišķu dimanti - 10":{"address":"Kalnišķu Dimanti - 10","city":"Kalnišķi","zip":"LV-3476"},"kalnišķu dimanti - 11":{"address":"Kalnišķu Dimanti - 11","city":"Kalnišķi","zip":"LV-3476"},"kalnišķu dimanti - 12":{"address":"Kalnišķu Dimanti - 12","city":"Kalnišķi","zip":"LV-3476"},"kalnišķu veikals":{"address":"Kalnišķu veikals","city":"Kalnišķi","zip":"LV-3476"},"kalnišķu baloži":{"address":"Kalnišķu Baloži","city":"Kalnišķi","zip":"LV-3476"},"kalnišķu dimanti":{"address":"Kalnišķu Dimanti","city":"Kalnišķi","zip":"LV-3476"}}