{"kalniņi 1 - 1":{"address":"Kalniņi 1 - 1","city":"Makšinava","zip":"LV-4582"},"kalniņi 1 - 2":{"address":"Kalniņi 1 - 2","city":"Makšinava","zip":"LV-4582"},"kalniņi - 1":{"address":"Kalniņi - 1","city":"Kabile","zip":"LV-3314"},"kalniņi - 2":{"address":"Kalniņi - 2","city":"Kabile","zip":"LV-3314"},"kalniņi - 3":{"address":"Kalniņi - 3","city":"Kabile","zip":"LV-3314"},"kalniņi - 4":{"address":"Kalniņi - 4","city":"Kabile","zip":"LV-3314"},"kalniņi - 1a":{"address":"Kalniņi - 1A","city":"Mūrmuiža","zip":"LV-4224"},"kalniņi - 1b":{"address":"Kalniņi - 1B","city":"Mūrmuiža","zip":"LV-4224"},"kalna kalniņi - 1":{"address":"Kalna Kalniņi - 1","city":"Vecpiebalga","zip":"LV-4122"},"kalna kalniņi - 2":{"address":"Kalna Kalniņi - 2","city":"Vecpiebalga","zip":"LV-4122"},"rožlejas kalniņi - 1":{"address":"Rožlejas Kalniņi - 1","city":"Virga","zip":"LV-3433"},"rožlejas kalniņi - 2":{"address":"Rožlejas Kalniņi - 2","city":"Virga","zip":"LV-3433"},"rožlejas kalniņi - 3":{"address":"Rožlejas Kalniņi - 3","city":"Virga","zip":"LV-3433"},"rožlejas kalniņi - 4":{"address":"Rožlejas Kalniņi - 4","city":"Virga","zip":"LV-3433"},"rožlejas kalniņi - 5":{"address":"Rožlejas Kalniņi - 5","city":"Virga","zip":"LV-3433"},"rožlejas kalniņi - 6":{"address":"Rožlejas Kalniņi - 6","city":"Virga","zip":"LV-3433"},"kalniņi - 5":{"address":"Kalniņi - 5","city":"Kabile","zip":"LV-3314"},"kalniņi - 6":{"address":"Kalniņi - 6","city":"Kabile","zip":"LV-3314"},"kalniņi - 9":{"address":"Kalniņi - 9","city":"Kabile","zip":"LV-3314"},"kalniņi - 10":{"address":"Kalniņi - 10","city":"Kabile","zip":"LV-3314"},"kalniņi - 7":{"address":"Kalniņi - 7","city":"Kabile","zip":"LV-3314"},"kalniņi - 8":{"address":"Kalniņi - 8","city":"Kabile","zip":"LV-3314"},"kalniņi - 11":{"address":"Kalniņi - 11","city":"Kabile","zip":"LV-3314"},"kalniņi - 12":{"address":"Kalniņi - 12","city":"Kabile","zip":"LV-3314"},"kalniņi - 13":{"address":"Kalniņi - 13","city":"Kabile","zip":"LV-3314"},"kalniņi - 14":{"address":"Kalniņi - 14","city":"Kabile","zip":"LV-3314"},"kalniņi - 15":{"address":"Kalniņi - 15","city":"Kabile","zip":"LV-3314"},"kalniņi - 16":{"address":"Kalniņi - 16","city":"Kabile","zip":"LV-3314"},"kalniņi - 17":{"address":"Kalniņi - 17","city":"Kabile","zip":"LV-3314"},"kalniņi - 18":{"address":"Kalniņi - 18","city":"Kabile","zip":"LV-3314"}}