{"kalnieši - 1":{"address":"Kalnieši - 1","city":"Vecbebri","zip":"LV-5135"},"kalnieši - 2":{"address":"Kalnieši - 2","city":"Vecbebri","zip":"LV-5135"},"kalnieši - 3":{"address":"Kalnieši - 3","city":"Vecbebri","zip":"LV-5135"},"kalnieši - 4":{"address":"Kalnieši - 4","city":"Vecbebri","zip":"LV-5135"},"kalnieši - 5":{"address":"Kalnieši - 5","city":"Vecbebri","zip":"LV-5135"},"kalnieši - 6":{"address":"Kalnieši - 6","city":"Vecbebri","zip":"LV-5135"},"kalnieši - 7":{"address":"Kalnieši - 7","city":"Litene","zip":"LV-4405"},"kalnieši - 8":{"address":"Kalnieši - 8","city":"Litene","zip":"LV-4405"},"šterenbergas - 1":{"address":"Šterenbergas - 1","city":"Kalnieši","zip":"LV-5660"},"šterenbergas - 2":{"address":"Šterenbergas - 2","city":"Kalnieši","zip":"LV-5660"},"lejas - 1":{"address":"Lejas - 1","city":"Kalnieši","zip":"LV-5660"},"lejas - 2":{"address":"Lejas - 2","city":"Kalnieši","zip":"LV-5660"},"vasaras - 1":{"address":"Vasaras - 1","city":"Kalnieši","zip":"LV-5660"},"vasaras - 2":{"address":"Vasaras - 2","city":"Kalnieši","zip":"LV-5660"},"šterenhaus - 1":{"address":"Šterenhaus - 1","city":"Kalnieši","zip":"LV-5660"},"šterenhaus - 2":{"address":"Šterenhaus - 2","city":"Kalnieši","zip":"LV-5660"},"šterenhaus - 3":{"address":"Šterenhaus - 3","city":"Kalnieši","zip":"LV-5660"},"kalnieši":{"address":"Kalnieši","city":"Dzērbene","zip":"LV-4118"}}