{"kalniņi 1 - 1":{"address":"Kalniņi 1 - 1","city":"Makšinava","zip":"LV-4582"},"kalniņi 1 - 2":{"address":"Kalniņi 1 - 2","city":"Makšinava","zip":"LV-4582"},"kalnāji - 1":{"address":"Kalnāji - 1","city":"Kalniena","zip":"LV-4406"},"kalnāji - 2":{"address":"Kalnāji - 2","city":"Kalniena","zip":"LV-4406"},"kalnāji - 3":{"address":"Kalnāji - 3","city":"Kalniena","zip":"LV-4406"},"kalnāji - 4":{"address":"Kalnāji - 4","city":"Kalniena","zip":"LV-4406"},"kalnāji - 5":{"address":"Kalnāji - 5","city":"Kalniena","zip":"LV-4406"},"kalnāji - 6":{"address":"Kalnāji - 6","city":"Kalniena","zip":"LV-4406"},"kalnāji - 7":{"address":"Kalnāji - 7","city":"Kalniena","zip":"LV-4406"},"kalnāji - 8":{"address":"Kalnāji - 8","city":"Kalniena","zip":"LV-4406"},"mežsētas - 1":{"address":"Mežsētas - 1","city":"Kalniena","zip":"LV-4406"},"mežsētas - 2":{"address":"Mežsētas - 2","city":"Kalniena","zip":"LV-4406"},"mežsētas - 3":{"address":"Mežsētas - 3","city":"Kalniena","zip":"LV-4406"},"mežsētas - 4":{"address":"Mežsētas - 4","city":"Kalniena","zip":"LV-4406"},"mežsētas - 5":{"address":"Mežsētas - 5","city":"Kalniena","zip":"LV-4406"},"skolas māja - 1":{"address":"Skolas māja - 1","city":"Kalniena","zip":"LV-4406"},"skolas māja - 2":{"address":"Skolas māja - 2","city":"Kalniena","zip":"LV-4406"},"skolas māja - 3":{"address":"Skolas māja - 3","city":"Kalniena","zip":"LV-4406"},"skolas māja - 4":{"address":"Skolas māja - 4","city":"Kalniena","zip":"LV-4406"},"skolas māja - 5":{"address":"Skolas māja - 5","city":"Kalniena","zip":"LV-4406"},"skolas māja - 6":{"address":"Skolas māja - 6","city":"Kalniena","zip":"LV-4406"},"skolas māja - 7":{"address":"Skolas māja - 7","city":"Kalniena","zip":"LV-4406"},"skolas māja - 8":{"address":"Skolas māja - 8","city":"Kalniena","zip":"LV-4406"},"alejas - 1":{"address":"Alejas - 1","city":"Kalniena","zip":"LV-4406"},"alejas - 2":{"address":"Alejas - 2","city":"Kalniena","zip":"LV-4406"},"alejas - 3":{"address":"Alejas - 3","city":"Kalniena","zip":"LV-4406"},"alejas - 4":{"address":"Alejas - 4","city":"Kalniena","zip":"LV-4406"},"alejas - 5":{"address":"Alejas - 5","city":"Kalniena","zip":"LV-4406"},"alejas - 6":{"address":"Alejas - 6","city":"Kalniena","zip":"LV-4406"},"alejas - 7":{"address":"Alejas - 7","city":"Kalniena","zip":"LV-4406"},"alejas - 8":{"address":"Alejas - 8","city":"Kalniena","zip":"LV-4406"},"alejas - 9":{"address":"Alejas - 9","city":"Kalniena","zip":"LV-4406"},"alejas - 10":{"address":"Alejas - 10","city":"Kalniena","zip":"LV-4406"},"alejas - 11":{"address":"Alejas - 11","city":"Kalniena","zip":"LV-4406"},"alejas - 12":{"address":"Alejas - 12","city":"Kalniena","zip":"LV-4406"},"avotiņi - 1":{"address":"Avotiņi - 1","city":"Kalniena","zip":"LV-4406"},"avotiņi - 2":{"address":"Avotiņi - 2","city":"Kalniena","zip":"LV-4406"},"avotiņi - 3":{"address":"Avotiņi - 3","city":"Kalniena","zip":"LV-4406"},"avotiņi - 4":{"address":"Avotiņi - 4","city":"Kalniena","zip":"LV-4406"},"avotiņi - 5":{"address":"Avotiņi - 5","city":"Kalniena","zip":"LV-4406"},"avotiņi - 6":{"address":"Avotiņi - 6","city":"Kalniena","zip":"LV-4406"},"avotiņi - 7":{"address":"Avotiņi - 7","city":"Kalniena","zip":"LV-4406"},"avotiņi - 8":{"address":"Avotiņi - 8","city":"Kalniena","zip":"LV-4406"},"avotiņi - 9":{"address":"Avotiņi - 9","city":"Kalniena","zip":"LV-4406"},"avotiņi - 10":{"address":"Avotiņi - 10","city":"Kalniena","zip":"LV-4406"},"avotiņi - 11":{"address":"Avotiņi - 11","city":"Kalniena","zip":"LV-4406"},"avotiņi - 12":{"address":"Avotiņi - 12","city":"Kalniena","zip":"LV-4406"},"avotiņi - 13":{"address":"Avotiņi - 13","city":"Kalniena","zip":"LV-4406"},"avotiņi - 14":{"address":"Avotiņi - 14","city":"Kalniena","zip":"LV-4406"},"avotiņi - 15":{"address":"Avotiņi - 15","city":"Kalniena","zip":"LV-4406"},"avotiņi - 16":{"address":"Avotiņi - 16","city":"Kalniena","zip":"LV-4406"},"avotiņi - 17":{"address":"Avotiņi - 17","city":"Kalniena","zip":"LV-4406"},"avotiņi - 18":{"address":"Avotiņi - 18","city":"Kalniena","zip":"LV-4406"},"kalnieši - 1":{"address":"Kalnieši - 1","city":"Litene","zip":"LV-4405"},"kalnieši - 2":{"address":"Kalnieši - 2","city":"Litene","zip":"LV-4405"},"kalnieši - 3":{"address":"Kalnieši - 3","city":"Litene","zip":"LV-4405"},"kalnieši - 4":{"address":"Kalnieši - 4","city":"Litene","zip":"LV-4405"},"kalnieši - 5":{"address":"Kalnieši - 5","city":"Litene","zip":"LV-4405"},"kalnieši - 6":{"address":"Kalnieši - 6","city":"Litene","zip":"LV-4405"},"kalnieši - 7":{"address":"Kalnieši - 7","city":"Litene","zip":"LV-4405"},"kalnieši - 8":{"address":"Kalnieši - 8","city":"Litene","zip":"LV-4405"},"kalniņi - 1":{"address":"Kalniņi - 1","city":"Cempi","zip":"LV-4245"},"kalniņi - 2":{"address":"Kalniņi - 2","city":"Cempi","zip":"LV-4245"},"kalniņi - 3":{"address":"Kalniņi - 3","city":"Cempi","zip":"LV-4245"},"kalniņi - 4":{"address":"Kalniņi - 4","city":"Cempi","zip":"LV-4245"},"kalniņi - 1a":{"address":"Kalniņi - 1A","city":"Mūrmuiža","zip":"LV-4224"},"kalniņi - 1b":{"address":"Kalniņi - 1B","city":"Mūrmuiža","zip":"LV-4224"},"kalna kalniņi - 1":{"address":"Kalna Kalniņi - 1","city":"Vecpiebalga","zip":"LV-4122"},"kalna kalniņi - 2":{"address":"Kalna Kalniņi - 2","city":"Vecpiebalga","zip":"LV-4122"}}