{"kalnu iela 8 - 1":{"address":"Kalnu iela 8 - 1","city":"Malta","zip":"LV-4630"},"kalnu iela 8 - 2":{"address":"Kalnu iela 8 - 2","city":"Malta","zip":"LV-4630"},"kalnu iela 8 - 3":{"address":"Kalnu iela 8 - 3","city":"Malta","zip":"LV-4630"},"kalnu iela 8 - 4":{"address":"Kalnu iela 8 - 4","city":"Malta","zip":"LV-4630"},"kalnu iela 8 - 5":{"address":"Kalnu iela 8 - 5","city":"Malta","zip":"LV-4630"},"kalnu iela 8 - 6":{"address":"Kalnu iela 8 - 6","city":"Malta","zip":"LV-4630"},"kalnu iela 8 - 7":{"address":"Kalnu iela 8 - 7","city":"Malta","zip":"LV-4630"},"kalnu iela 8 - 8":{"address":"Kalnu iela 8 - 8","city":"Malta","zip":"LV-4630"},"kalnu iela 1 - 1":{"address":"Kalnu iela 1 - 1","city":"Malta","zip":"LV-4630"},"kalnu iela 1 - 2":{"address":"Kalnu iela 1 - 2","city":"Malta","zip":"LV-4630"},"kalnu iela 1 - 3":{"address":"Kalnu iela 1 - 3","city":"Malta","zip":"LV-4630"},"kalnu iela 1 - 4":{"address":"Kalnu iela 1 - 4","city":"Malta","zip":"LV-4630"},"kalnu iela 1 - 5":{"address":"Kalnu iela 1 - 5","city":"Malta","zip":"LV-4630"},"kalnu iela 1 - 6":{"address":"Kalnu iela 1 - 6","city":"Malta","zip":"LV-4630"},"kalnu iela 1 - 7":{"address":"Kalnu iela 1 - 7","city":"Malta","zip":"LV-4630"},"kalnu iela 1 - 8":{"address":"Kalnu iela 1 - 8","city":"Malta","zip":"LV-4630"},"kalnu iela 1 - 9":{"address":"Kalnu iela 1 - 9","city":"Malta","zip":"LV-4630"},"kalnu iela 1 - 10":{"address":"Kalnu iela 1 - 10","city":"Malta","zip":"LV-4630"},"kalnu iela 1 - 11":{"address":"Kalnu iela 1 - 11","city":"Malta","zip":"LV-4630"},"kalnu iela 1 - 12":{"address":"Kalnu iela 1 - 12","city":"Malta","zip":"LV-4630"},"kalnu iela 1 - 13":{"address":"Kalnu iela 1 - 13","city":"Malta","zip":"LV-4630"},"kalnu iela 1 - 14":{"address":"Kalnu iela 1 - 14","city":"Malta","zip":"LV-4630"},"kalnu iela 1 - 15":{"address":"Kalnu iela 1 - 15","city":"Malta","zip":"LV-4630"},"kalnu iela 1 - 16":{"address":"Kalnu iela 1 - 16","city":"Malta","zip":"LV-4630"},"kalnu iela 1 - 17":{"address":"Kalnu iela 1 - 17","city":"Malta","zip":"LV-4630"},"kalnu iela 1 - 18":{"address":"Kalnu iela 1 - 18","city":"Malta","zip":"LV-4630"},"kalnu iela 1 - 19":{"address":"Kalnu iela 1 - 19","city":"Malta","zip":"LV-4630"},"kalnu iela 1 - 20":{"address":"Kalnu iela 1 - 20","city":"Malta","zip":"LV-4630"},"kalnu iela 1 - 21":{"address":"Kalnu iela 1 - 21","city":"Malta","zip":"LV-4630"},"kalnu iela 1 - 22":{"address":"Kalnu iela 1 - 22","city":"Malta","zip":"LV-4630"},"kalnu iela 1 - 23":{"address":"Kalnu iela 1 - 23","city":"Malta","zip":"LV-4630"},"kalnu iela 1 - 24":{"address":"Kalnu iela 1 - 24","city":"Malta","zip":"LV-4630"},"kalnu iela 3 - 1":{"address":"Kalnu iela 3 - 1","city":"Malta","zip":"LV-4630"},"kalnu iela 3 - 2":{"address":"Kalnu iela 3 - 2","city":"Malta","zip":"LV-4630"},"kalnu iela 3 - 3":{"address":"Kalnu iela 3 - 3","city":"Malta","zip":"LV-4630"},"kalnu iela 3 - 4":{"address":"Kalnu iela 3 - 4","city":"Malta","zip":"LV-4630"},"kalnu iela 3 - 5":{"address":"Kalnu iela 3 - 5","city":"Malta","zip":"LV-4630"},"kalnu iela 3 - 6":{"address":"Kalnu iela 3 - 6","city":"Malta","zip":"LV-4630"},"kalnu iela 3 - 7":{"address":"Kalnu iela 3 - 7","city":"Malta","zip":"LV-4630"},"kalnu iela 3 - 8":{"address":"Kalnu iela 3 - 8","city":"Malta","zip":"LV-4630"},"kalnu iela 3 - 9":{"address":"Kalnu iela 3 - 9","city":"Malta","zip":"LV-4630"},"kalnu iela 3 - 10":{"address":"Kalnu iela 3 - 10","city":"Malta","zip":"LV-4630"},"kalnu iela 3 - 11":{"address":"Kalnu iela 3 - 11","city":"Malta","zip":"LV-4630"},"kalnu iela 3 - 12":{"address":"Kalnu iela 3 - 12","city":"Malta","zip":"LV-4630"},"kalnu iela 3 - 13":{"address":"Kalnu iela 3 - 13","city":"Malta","zip":"LV-4630"},"kalnu iela 3 - 14":{"address":"Kalnu iela 3 - 14","city":"Malta","zip":"LV-4630"},"kalnu iela 3 - 15":{"address":"Kalnu iela 3 - 15","city":"Malta","zip":"LV-4630"},"kalnu iela 3 - 16":{"address":"Kalnu iela 3 - 16","city":"Malta","zip":"LV-4630"},"kalnu iela 3 - 17":{"address":"Kalnu iela 3 - 17","city":"Malta","zip":"LV-4630"},"kalnu iela 3 - 18":{"address":"Kalnu iela 3 - 18","city":"Malta","zip":"LV-4630"},"kalnu iela 3 - 19":{"address":"Kalnu iela 3 - 19","city":"Malta","zip":"LV-4630"},"kalnu iela 3 - 20":{"address":"Kalnu iela 3 - 20","city":"Malta","zip":"LV-4630"},"kalnu iela 3 - 21":{"address":"Kalnu iela 3 - 21","city":"Malta","zip":"LV-4630"},"kalnu iela 3 - 22":{"address":"Kalnu iela 3 - 22","city":"Malta","zip":"LV-4630"},"kalnu iela 3 - 23":{"address":"Kalnu iela 3 - 23","city":"Malta","zip":"LV-4630"},"kalnu iela 3 - 24":{"address":"Kalnu iela 3 - 24","city":"Malta","zip":"LV-4630"},"kalnu iela 3 - 25":{"address":"Kalnu iela 3 - 25","city":"Malta","zip":"LV-4630"},"kalnu iela 3 - 26":{"address":"Kalnu iela 3 - 26","city":"Malta","zip":"LV-4630"},"kalnu iela 3 - 27":{"address":"Kalnu iela 3 - 27","city":"Malta","zip":"LV-4630"},"kalnu iela 3 - 28":{"address":"Kalnu iela 3 - 28","city":"Malta","zip":"LV-4630"},"kalnu iela 3 - 29":{"address":"Kalnu iela 3 - 29","city":"Malta","zip":"LV-4630"},"kalnu iela 3 - 30":{"address":"Kalnu iela 3 - 30","city":"Malta","zip":"LV-4630"},"kalnu iela 5 - 1":{"address":"Kalnu iela 5 - 1","city":"Malta","zip":"LV-4630"},"kalnu iela 5 - 2":{"address":"Kalnu iela 5 - 2","city":"Malta","zip":"LV-4630"},"kalnu iela 5 - 3":{"address":"Kalnu iela 5 - 3","city":"Malta","zip":"LV-4630"},"kalnu iela 5 - 4":{"address":"Kalnu iela 5 - 4","city":"Malta","zip":"LV-4630"},"kalnu iela 5 - 5":{"address":"Kalnu iela 5 - 5","city":"Malta","zip":"LV-4630"},"kalnu iela 5 - 6":{"address":"Kalnu iela 5 - 6","city":"Malta","zip":"LV-4630"},"kalnu iela 5 - 7":{"address":"Kalnu iela 5 - 7","city":"Malta","zip":"LV-4630"},"kalnu iela 5 - 8":{"address":"Kalnu iela 5 - 8","city":"Malta","zip":"LV-4630"},"kalnu iela 6 - 1":{"address":"Kalnu iela 6 - 1","city":"Malta","zip":"LV-4630"},"kalnu iela 6 - 2":{"address":"Kalnu iela 6 - 2","city":"Malta","zip":"LV-4630"},"kalnu iela 6 - 3":{"address":"Kalnu iela 6 - 3","city":"Malta","zip":"LV-4630"},"kalnu iela 6 - 4":{"address":"Kalnu iela 6 - 4","city":"Malta","zip":"LV-4630"},"kalnu iela 6 - 5":{"address":"Kalnu iela 6 - 5","city":"Malta","zip":"LV-4630"},"kalnu iela 6 - 6":{"address":"Kalnu iela 6 - 6","city":"Malta","zip":"LV-4630"},"kalnu iela 6 - 7":{"address":"Kalnu iela 6 - 7","city":"Malta","zip":"LV-4630"},"kalnu iela 6 - 8":{"address":"Kalnu iela 6 - 8","city":"Malta","zip":"LV-4630"},"kalnu iela 6 - 9":{"address":"Kalnu iela 6 - 9","city":"Malta","zip":"LV-4630"},"kalnu iela 6 - 10":{"address":"Kalnu iela 6 - 10","city":"Malta","zip":"LV-4630"},"kalnu iela 6 - 11":{"address":"Kalnu iela 6 - 11","city":"Malta","zip":"LV-4630"},"kalnu iela 6 - 12":{"address":"Kalnu iela 6 - 12","city":"Malta","zip":"LV-4630"},"kalnu mājas - 1":{"address":"Kalnu mājas - 1","city":"Ritiņi","zip":"LV-4601"},"kalnu mājas - 2":{"address":"Kalnu mājas - 2","city":"Ritiņi","zip":"LV-4601"}}