{"kalvāni":{"address":"Kalvāni","city":"Vecgailumi","zip":"LV-4619"},"jaunie oši":{"address":"Jaunie Oši","city":"Kalvāni","zip":"LV-5463"},"vēstnieki":{"address":"Vēstnieki","city":"Kalvāni","zip":"LV-5305"},"jānīši":{"address":"Jānīši","city":"Kalvāni","zip":"LV-5316"},"jasinoviči":{"address":"Jasinoviči","city":"Kalvāni","zip":"LV-5316"},"lieknes":{"address":"Lieknes","city":"Kalvāni","zip":"LV-5316"},"tulpītes":{"address":"Tulpītes","city":"Kalvāni","zip":"LV-5305"},"brieži":{"address":"Brieži","city":"Kalvāni","zip":"LV-5305"},"araiši":{"address":"Araiši","city":"Kalvāni","zip":"LV-5316"},"kalnieši":{"address":"Kalnieši","city":"Kalvāni","zip":"LV-5316"},"kalves":{"address":"Kalves","city":"Kalvāni","zip":"LV-5316"},"kalvāni 1":{"address":"Kalvāni 1","city":"Liepu Mukāni","zip":"LV-5477"},"pupāju kalns":{"address":"Pupāju kalns","city":"Kalvāni","zip":"LV-5316"},"akmentiņi":{"address":"Akmentiņi","city":"Kalvāni","zip":"LV-5463"},"dūnas":{"address":"Dūnas","city":"Kalvāni","zip":"LV-5463"},"enkuri":{"address":"Enkuri","city":"Kalvāni","zip":"LV-5463"},"gāršas":{"address":"Gāršas","city":"Kalvāni","zip":"LV-5463"},"kauliņi":{"address":"Kauliņi","city":"Kalvāni","zip":"LV-5463"},"kļavas":{"address":"Kļavas","city":"Kalvāni","zip":"LV-5463"},"ligzdas":{"address":"Ligzdas","city":"Kalvāni","zip":"LV-5463"},"oši":{"address":"Oši","city":"Kalvāni","zip":"LV-5463"},"skaidras":{"address":"Skaidras","city":"Kalvāni","zip":"LV-5463"},"lācenieku kalvāni":{"address":"Lācenieku Kalvāni","city":"Locinieki","zip":"LV-5323"},"daugavieši":{"address":"Daugavieši","city":"Kalvāni","zip":"LV-5316"},"eglītes":{"address":"Eglītes","city":"Kalvāni","zip":"LV-5316"},"jasmīni":{"address":"Jasmīni","city":"Kalvāni","zip":"LV-5316"},"pakalnieši":{"address":"Pakalnieši","city":"Kalvāni","zip":"LV-5316"},"kapteiņi":{"address":"Kapteiņi","city":"Kalvāni","zip":"LV-5316"},"strazdi":{"address":"Strazdi","city":"Kalvāni","zip":"LV-5316"},"vārpas":{"address":"Vārpas","city":"Kalvāni","zip":"LV-5316"},"liepukalns":{"address":"Liepukalns","city":"Kalvāni","zip":"LV-5305"},"mežrozes":{"address":"Mežrozes","city":"Kalvāni","zip":"LV-5305"},"oliņi":{"address":"Oliņi","city":"Kalvāni","zip":"LV-5305"},"skroderi":{"address":"Skroderi","city":"Kalvāni","zip":"LV-5305"},"smiltnieki":{"address":"Smiltnieki","city":"Kalvāni","zip":"LV-5305"},"teciņas":{"address":"Teciņas","city":"Kalvāni","zip":"LV-5305"},"vārkļi":{"address":"Vārkļi","city":"Kalvāni","zip":"LV-5305"},"vilnīši":{"address":"Vilnīši","city":"Kalvāni","zip":"LV-5305"}}