{"kamenes - 1":{"address":"Kamenes - 1","city":"Vecbebri","zip":"LV-5135"},"kamenes - 2":{"address":"Kamenes - 2","city":"Vecbebri","zip":"LV-5135"},"kamenes - 3":{"address":"Kamenes - 3","city":"Vecbebri","zip":"LV-5135"},"kamenes - 4":{"address":"Kamenes - 4","city":"Laidi","zip":"LV-3317"},"kamenes - 5":{"address":"Kamenes - 5","city":"Laidi","zip":"LV-3317"},"kamenes - 6":{"address":"Kamenes - 6","city":"Laidi","zip":"LV-3317"},"kamenes - 7":{"address":"Kamenes - 7","city":"Laidi","zip":"LV-3317"},"kamenes - 8":{"address":"Kamenes - 8","city":"Laidi","zip":"LV-3317"},"kamenes - 9":{"address":"Kamenes - 9","city":"Laidi","zip":"LV-3317"},"kamenes - 10":{"address":"Kamenes - 10","city":"Laidi","zip":"LV-3317"},"kamenes - 11":{"address":"Kamenes - 11","city":"Laidi","zip":"LV-3317"},"kamenes - 12":{"address":"Kamenes - 12","city":"Laidi","zip":"LV-3317"},"kamenes - 13":{"address":"Kamenes - 13","city":"Laidi","zip":"LV-3317"},"kamenes - 14":{"address":"Kamenes - 14","city":"Laidi","zip":"LV-3317"},"kamenes - 15":{"address":"Kamenes - 15","city":"Laidi","zip":"LV-3317"},"kamenes - 16":{"address":"Kamenes - 16","city":"Laidi","zip":"LV-3317"},"kamenes - 17":{"address":"Kamenes - 17","city":"Laidi","zip":"LV-3317"},"kamenes - 18":{"address":"Kamenes - 18","city":"Laidi","zip":"LV-3317"},"kamenes - 19":{"address":"Kamenes - 19","city":"Pabaži","zip":"LV-2162"},"kamenes - 20":{"address":"Kamenes - 20","city":"Pabaži","zip":"LV-2162"},"kamenes - 21":{"address":"Kamenes - 21","city":"Pabaži","zip":"LV-2162"},"kamenes - 22":{"address":"Kamenes - 22","city":"Pabaži","zip":"LV-2162"},"kamenes - 23":{"address":"Kamenes - 23","city":"Pabaži","zip":"LV-2162"},"kamenes - 24":{"address":"Kamenes - 24","city":"Pabaži","zip":"LV-2162"}}