{"kastaņi - 1":{"address":"Kastaņi - 1","city":"Mēri","zip":"LV-4706"},"kastaņi - 2":{"address":"Kastaņi - 2","city":"Mēri","zip":"LV-4706"},"kastaņi - 3":{"address":"Kastaņi - 3","city":"Mēri","zip":"LV-4706"},"kastaņi - 4":{"address":"Kastaņi - 4","city":"Mēri","zip":"LV-4706"},"kastaņi - 5":{"address":"Kastaņi - 5","city":"Mēri","zip":"LV-4706"},"kastaņi - 6":{"address":"Kastaņi - 6","city":"Mēri","zip":"LV-4706"},"kastaņi - 7":{"address":"Kastaņi - 7","city":"Mēri","zip":"LV-4706"},"kastaņi - 8":{"address":"Kastaņi - 8","city":"Mēri","zip":"LV-4706"},"kastaņi - 9":{"address":"Kastaņi - 9","city":"Mēri","zip":"LV-4706"},"kastaņi - 10":{"address":"Kastaņi - 10","city":"Mēri","zip":"LV-4706"},"kastaņi - 11":{"address":"Kastaņi - 11","city":"Mēri","zip":"LV-4706"},"kastaņi - 12":{"address":"Kastaņi - 12","city":"Mēri","zip":"LV-4706"},"kastaņi - 13":{"address":"Kastaņi - 13","city":"Mēri","zip":"LV-4706"},"kastaņi - 14":{"address":"Kastaņi - 14","city":"Mēri","zip":"LV-4706"},"kastaņi - 15":{"address":"Kastaņi - 15","city":"Mēri","zip":"LV-4706"},"kastaņi - 16":{"address":"Kastaņi - 16","city":"Mēri","zip":"LV-4706"},"kastaņi - 17":{"address":"Kastaņi - 17","city":"Mēri","zip":"LV-4706"},"kastaņi - 18":{"address":"Kastaņi - 18","city":"Mēri","zip":"LV-4706"},"kastaņi":{"address":"Kastaņi","city":"Beja","zip":"LV-4350"}}