{"kaļvi - 1":{"address":"Kaļvi - 1","city":"Mazie Kuseņi","zip":"LV-5438"},"kaļvi - 2":{"address":"Kaļvi - 2","city":"Mazie Kuseņi","zip":"LV-5438"},"ceriņkrasts":{"address":"Ceriņkrasts","city":"Kaļvi","zip":"LV-4648"},"eglītes":{"address":"Eglītes","city":"Kaļvi","zip":"LV-4648"},"lazdas":{"address":"Lazdas","city":"Kaļvi","zip":"LV-4648"},"lielkrasti":{"address":"Lielkrasti","city":"Kaļvi","zip":"LV-4648"},"liepas":{"address":"Liepas","city":"Kaļvi","zip":"LV-4648"},"mogoņkolns":{"address":"Mogoņkolns","city":"Kaļvi","zip":"LV-4648"},"ozolu mājas":{"address":"Ozolu mājas","city":"Kaļvi","zip":"LV-4648"},"kaļvi":{"address":"Kaļvi","city":"Goliševa","zip":"LV-5704"},"kaļvi 1":{"address":"Kaļvi 1","city":"Kaļvi","zip":"LV-4623"},"kalvīši":{"address":"Kalvīši","city":"Mērdzene","zip":"LV-5726"},"kalvīšu māja":{"address":"Kalvīšu māja","city":"Ezergailīši","zip":"LV-4623"},"kaļvīšu mājas":{"address":"Kaļvīšu mājas","city":"Šaurītes","zip":"LV-4618"},"andrevi":{"address":"Andrevi","city":"Kaļvi","zip":"LV-4611"},"ozoliņi":{"address":"Ozoliņi","city":"Kaļvi","zip":"LV-4611"},"kalvītes":{"address":"Kalvītes","city":"Klapkalnciems","zip":"LV-3113"},"kalviņi":{"address":"Kalviņi","city":"Vēde","zip":"LV-3614"},"kalviņas":{"address":"Kalviņas","city":"Jūrmalciems","zip":"LV-3473"},"ezerkaijas":{"address":"Ezerkaijas","city":"Kaļvi","zip":"LV-5752"},"liepulejas":{"address":"Liepulejas","city":"Kaļvīši","zip":"LV-5716"},"caunas":{"address":"Caunas","city":"Kaļvīši","zip":"LV-5716"},"jakubi":{"address":"Jakubi","city":"Kaļviņa","zip":"LV-5740"},"prikuļi":{"address":"Prikuļi","city":"Kaļvi","zip":"LV-5335"},"mežloki":{"address":"Mežloki","city":"Kaļvi","zip":"LV-5335"},"zīļu mājas":{"address":"Zīļu mājas","city":"Kaļvi","zip":"LV-5335"},"jaunlauki":{"address":"Jaunlauki","city":"Kaļviņa","zip":"LV-5740"},"dzirnavnieki":{"address":"Dzirnavnieki","city":"Kaļviņa","zip":"LV-5740"},"zālāni":{"address":"Zālāni","city":"Kaļvi","zip":"LV-4648"},"ozoli":{"address":"Ozoli","city":"Kaļvi","zip":"LV-4648"},"mētras":{"address":"Mētras","city":"Kaļvi","zip":"LV-4648"},"dzintari":{"address":"Dzintari","city":"Kaļvi","zip":"LV-4648"},"janovka":{"address":"Janovka","city":"Kaļvi","zip":"LV-5752"},"kalvine":{"address":"Kalvine","city":"Otrie Mežvidi","zip":"LV-5737"},"kalviņi 1":{"address":"Kalviņi 1","city":"Vēde","zip":"LV-3614"},"zīles":{"address":"Zīles","city":"Kaļvi","zip":"LV-5335"},"kalviškalni":{"address":"Kalviškalni","city":"Kovaļova","zip":"LV-5655"},"priežu mājas 2":{"address":"Priežu mājas 2","city":"Kalviši","zip":"LV-5681"},"mežgaļi":{"address":"Mežgaļi","city":"Kaļvi","zip":"LV-5335"},"pūkas":{"address":"Pūkas","city":"Kaļvi","zip":"LV-5752"},"karpiņas":{"address":"Karpiņas","city":"Kaļviņa","zip":"LV-5740"},"korītes":{"address":"Korītes","city":"Kaļviņa","zip":"LV-5740"},"putenīši":{"address":"Putenīši","city":"Kaļviņa","zip":"LV-5740"},"rubeņi":{"address":"Rubeņi","city":"Kaļviņa","zip":"LV-5740"},"medeo":{"address":"Medeo","city":"Kaļvi","zip":"LV-5752"},"kalviši":{"address":"Kalviši","city":"Kalviši","zip":"LV-5698"},"laimavoti":{"address":"Laimavoti","city":"Kalviši","zip":"LV-5681"},"birztaliņas":{"address":"Birztaliņas","city":"Kalviši","zip":"LV-5681"},"dravnieki":{"address":"Dravnieki","city":"Kalviši","zip":"LV-5681"},"drūjas kalni":{"address":"Drūjas kalni","city":"Kalviši","zip":"LV-5681"},"ieviņu mājas":{"address":"Ieviņu mājas","city":"Kalviši","zip":"LV-5681"},"kalnāji":{"address":"Kalnāji","city":"Kalviši","zip":"LV-5681"},"kalnbērzi":{"address":"Kalnbērzi","city":"Kalviši","zip":"LV-5681"},"krūmiņi":{"address":"Krūmiņi","city":"Kalviši","zip":"LV-5681"}}