{"kalvīši":{"address":"Kalvīši","city":"Tarnava","zip":"LV-4612"},"liepulejas":{"address":"Liepulejas","city":"Kaļvīši","zip":"LV-5716"},"caunas":{"address":"Caunas","city":"Kaļvīši","zip":"LV-5716"},"priežu mājas 2":{"address":"Priežu mājas 2","city":"Kalviši","zip":"LV-5681"},"kalviši":{"address":"Kalviši","city":"Naujene","zip":"LV-5462"},"laimavoti":{"address":"Laimavoti","city":"Kalviši","zip":"LV-5681"},"birztaliņas":{"address":"Birztaliņas","city":"Kalviši","zip":"LV-5681"},"dravnieki":{"address":"Dravnieki","city":"Kalviši","zip":"LV-5681"},"drūjas kalni":{"address":"Drūjas kalni","city":"Kalviši","zip":"LV-5681"},"ieviņu mājas":{"address":"Ieviņu mājas","city":"Kalviši","zip":"LV-5681"},"kalnāji":{"address":"Kalnāji","city":"Kalviši","zip":"LV-5681"},"kalnbērzi":{"address":"Kalnbērzi","city":"Kalviši","zip":"LV-5681"},"krūmiņi":{"address":"Krūmiņi","city":"Kalviši","zip":"LV-5681"},"liepas":{"address":"Liepas","city":"Kalviši","zip":"LV-5681"},"mālkalni":{"address":"Mālkalni","city":"Kalviši","zip":"LV-5681"},"melisas":{"address":"Melisas","city":"Kalviši","zip":"LV-5681"},"pārslas":{"address":"Pārslas","city":"Kalviši","zip":"LV-5681"},"priežu mājas":{"address":"Priežu mājas","city":"Kalviši","zip":"LV-5681"},"priežu mājas 1":{"address":"Priežu mājas 1","city":"Kalviši","zip":"LV-5681"},"skalbes":{"address":"Skalbes","city":"Kalviši","zip":"LV-5681"},"ūdensrozes":{"address":"Ūdensrozes","city":"Kalviši","zip":"LV-5681"},"upes malas":{"address":"Upes malas","city":"Kalviši","zip":"LV-5681"},"zirnīšu mājas":{"address":"Zirnīšu mājas","city":"Kalviši","zip":"LV-5681"},"ataugas":{"address":"Ataugas","city":"Kalviši","zip":"LV-5652"},"ezerlīči":{"address":"Ezerlīči","city":"Kalviši","zip":"LV-5652"},"kalvišu mājas":{"address":"Kalvišu mājas","city":"Kalviši","zip":"LV-5652"},"kaļvīši":{"address":"Kaļvīši","city":"Solaskungi","zip":"LV-4650"}}