{"kāļi - 1":{"address":"Kāļi - 1","city":"Renda","zip":"LV-3319"},"kāļi - 2":{"address":"Kāļi - 2","city":"Renda","zip":"LV-3319"},"kāļi - 3":{"address":"Kāļi - 3","city":"Renda","zip":"LV-3319"},"kalīši 7 - 1":{"address":"Kalīši 7 - 1","city":"Kalīši","zip":"LV-5449"},"kalīši 7 - 2":{"address":"Kalīši 7 - 2","city":"Kalīši","zip":"LV-5449"},"kāļi":{"address":"Kāļi","city":"Piliskolns","zip":"LV-4634"},"kalimbas":{"address":"Kalimbas","city":"Mērsrags","zip":"LV-3284"},"kālija iela 2":{"address":"Kālija iela 2","city":"Gauja","zip":"LV-2163"},"kālija iela 4":{"address":"Kālija iela 4","city":"Gauja","zip":"LV-2163"},"kālija iela 6":{"address":"Kālija iela 6","city":"Gauja","zip":"LV-2163"},"kālija iela 8":{"address":"Kālija iela 8","city":"Gauja","zip":"LV-2163"},"kālija iela 10":{"address":"Kālija iela 10","city":"Gauja","zip":"LV-2163"},"jaunā kalinovka":{"address":"Jaunā Kalinovka","city":"Silavas","zip":"LV-5316"},"kālīši":{"address":"Kālīši","city":"Janeļeva","zip":"LV-5664"},"kalina":{"address":"Kalina","city":"Koškina","zip":"LV-5685"},"sauleskalns":{"address":"Sauleskalns","city":"Kalīši","zip":"LV-5449"},"kaļinovi":{"address":"Kaļinovi","city":"Kvedervecumi","zip":"LV-5325"},"kalinniki 1":{"address":"Kalinniki 1","city":"Ritiņi","zip":"LV-4601"},"bērzaiņi":{"address":"Bērzaiņi","city":"Kališkas","zip":"LV-5671"},"kalinkēviči":{"address":"Kalinkēviči","city":"Leitāni","zip":"LV-5304"},"avieši":{"address":"Avieši","city":"Kaļinovka","zip":"LV-4616"},"sunīši":{"address":"Sunīši","city":"Kaļinovka","zip":"LV-4616"},"kaļinovka":{"address":"Kaļinovka","city":"Bramaņiški","zip":"LV-5440"},"kaļi kalniņi":{"address":"Kaļi Kalniņi","city":"Kaļinovka","zip":"LV-4616"},"kalieji":{"address":"Kalieji","city":"Kakarvīši","zip":"LV-4615"},"gulbji":{"address":"Gulbji","city":"Kališkas","zip":"LV-5671"},"kaļininas":{"address":"Kaļininas","city":"Ezernieki","zip":"LV-5692"},"kalibri":{"address":"Kalibri","city":"Foļvaroka","zip":"LV-5676"},"caunas":{"address":"Caunas","city":"Kališkas","zip":"LV-5671"},"domnieki":{"address":"Domnieki","city":"Kališkas","zip":"LV-5671"},"dziļlejas":{"address":"Dziļlejas","city":"Kališkas","zip":"LV-5671"},"kališki":{"address":"Kališki","city":"Kališkas","zip":"LV-5671"},"līgotņi":{"address":"Līgotņi","city":"Kališkas","zip":"LV-5671"},"ozolmuiža":{"address":"Ozolmuiža","city":"Kališkas","zip":"LV-5671"},"renātes":{"address":"Renātes","city":"Kališkas","zip":"LV-5671"},"rokpelni":{"address":"Rokpelni","city":"Kališkas","zip":"LV-5671"},"tīrie dīķi":{"address":"Tīrie dīķi","city":"Kališkas","zip":"LV-5671"},"vecstrauti":{"address":"Vecstrauti","city":"Kališkas","zip":"LV-5671"},"kalinkeviči":{"address":"Kalinkeviči","city":"Putāni","zip":"LV-5653"},"kalistrati":{"address":"Kalistrati","city":"Križovka","zip":"LV-5653"},"kalinkas":{"address":"Kalinkas","city":"Borovije","zip":"LV-5653"},"kalinas":{"address":"Kalinas","city":"Jaunā sādža","zip":"LV-5463"},"kalītes":{"address":"Kalītes","city":"Kalnišķi","zip":"LV-5463"},"kalinki":{"address":"Kalinki","city":"Rubeniški","zip":"LV-5459"},"kalinka":{"address":"Kalinka","city":"Tilti","zip":"LV-5456"},"kalīši 7":{"address":"Kalīši 7","city":"Kalīši","zip":"LV-5449"},"čauliņi":{"address":"Čauliņi","city":"Kalīši","zip":"LV-5449"},"kalīši 1":{"address":"Kalīši 1","city":"Kalīši","zip":"LV-5449"},"kalīši 2":{"address":"Kalīši 2","city":"Kalīši","zip":"LV-5449"},"kalīši 3":{"address":"Kalīši 3","city":"Kalīši","zip":"LV-5449"},"kalīši 4":{"address":"Kalīši 4","city":"Kalīši","zip":"LV-5449"},"kalīši 5":{"address":"Kalīši 5","city":"Kalīši","zip":"LV-5449"},"pakalni":{"address":"Pakalni","city":"Kalīši","zip":"LV-5449"},"smilgas":{"address":"Smilgas","city":"Kalīši","zip":"LV-5449"},"kaļinka":{"address":"Kaļinka","city":"Mežkokti","zip":"LV-4640"},"kaļina":{"address":"Kaļina","city":"Skradeļi","zip":"LV-4627"},"kalinovka":{"address":"Kalinovka","city":"Kristceļi","zip":"LV-4628"},"kalinniki":{"address":"Kalinniki","city":"Ritiņi","zip":"LV-4601"}}