{"pļaviņas 1 - 1":{"address":"Pļaviņas 1 - 1","city":"Ķirupe","zip":"LV-5456"},"pļaviņas 1 - 2":{"address":"Pļaviņas 1 - 2","city":"Ķirupe","zip":"LV-5456"},"griezumi":{"address":"Griezumi","city":"Ķirupe","zip":"LV-5456"},"rudzīši":{"address":"Rudzīši","city":"Ķirupe","zip":"LV-5456"},"daiņi 1":{"address":"Daiņi 1","city":"Ķirupe","zip":"LV-5456"},"mežmājas":{"address":"Mežmājas","city":"Ķirupe","zip":"LV-5456"},"reiņi 1":{"address":"Reiņi 1","city":"Ķirupe","zip":"LV-5456"},"tiltnieki":{"address":"Tiltnieki","city":"Ķirupe","zip":"LV-5456"},"jānīši 1":{"address":"Jānīši 1","city":"Ķirupe","zip":"LV-5456"},"ķirupe 3":{"address":"Ķirupe 3","city":"Jukši","zip":"LV-5456"},"pļaviņas 1":{"address":"Pļaviņas 1","city":"Ķirupe","zip":"LV-5456"},"purvāji":{"address":"Purvāji","city":"Ķirupe","zip":"LV-5456"},"reiņi":{"address":"Reiņi","city":"Ķirupe","zip":"LV-5456"},"riekstiņi 1":{"address":"Riekstiņi 1","city":"Ķirupe","zip":"LV-5456"},"rūķīši":{"address":"Rūķīši","city":"Ķirupe","zip":"LV-5456"},"sarkaņu priedītes":{"address":"Sarkaņu Priedītes","city":"Ķirupe","zip":"LV-5456"},"skaistas":{"address":"Skaistas","city":"Ķirupe","zip":"LV-5456"},"vīgriezes":{"address":"Vīgriezes","city":"Ķirupe","zip":"LV-5456"},"zīlītes":{"address":"Zīlītes","city":"Ķirupe","zip":"LV-5456"},"brenči":{"address":"Brenči","city":"Ķirupe","zip":"LV-5456"},"circeņi":{"address":"Circeņi","city":"Ķirupe","zip":"LV-5456"},"daiņi":{"address":"Daiņi","city":"Ķirupe","zip":"LV-5456"},"ērgļi":{"address":"Ērgļi","city":"Ķirupe","zip":"LV-5456"},"ķirupe":{"address":"Ķirupe","city":"Ķirupe","zip":"LV-5456"},"mantinieki":{"address":"Mantinieki","city":"Ķirupe","zip":"LV-5456"},"kirupe":{"address":"Kirupe","city":"Viduči","zip":"LV-4586"}}