{"sofikalna klubs - 1":{"address":"Sofikalna klubs - 1","city":"Sofikalns","zip":"LV-4358"},"rozulas klubs - 1":{"address":"Rozulas Klubs - 1","city":"Rozula","zip":"LV-4151"},"vārves klubs - 1":{"address":"Vārves klubs - 1","city":"Vārve","zip":"LV-3623"},"vārves klubs - 2":{"address":"Vārves klubs - 2","city":"Vārve","zip":"LV-3623"},"vārves klubs - 3":{"address":"Vārves klubs - 3","city":"Vārve","zip":"LV-3623"},"vārves klubs - 4":{"address":"Vārves klubs - 4","city":"Vārve","zip":"LV-3623"},"vārves klubs - 5":{"address":"Vārves klubs - 5","city":"Vārve","zip":"LV-3623"},"vārves klubs - 6":{"address":"Vārves klubs - 6","city":"Vārve","zip":"LV-3623"},"vārves klubs - 7":{"address":"Vārves klubs - 7","city":"Vārve","zip":"LV-3623"},"levestes klubs - 1":{"address":"Levestes klubs - 1","city":"Leveste","zip":"LV-3145"},"levestes klubs - 2":{"address":"Levestes klubs - 2","city":"Leveste","zip":"LV-3145"},"tenisa klubs - 1":{"address":"Tenisa Klubs - 1","city":"Ezernieki","zip":"LV-5692"},"tenisa klubs - 2":{"address":"Tenisa Klubs - 2","city":"Ezernieki","zip":"LV-5692"},"tenisa klubs - 3":{"address":"Tenisa Klubs - 3","city":"Ezernieki","zip":"LV-5692"},"tenisa klubs - 4":{"address":"Tenisa Klubs - 4","city":"Ezernieki","zip":"LV-5692"},"tenisa klubs - 5":{"address":"Tenisa Klubs - 5","city":"Ezernieki","zip":"LV-5692"},"tenisa klubs - 6":{"address":"Tenisa Klubs - 6","city":"Ezernieki","zip":"LV-5692"},"tenisa klubs - 7":{"address":"Tenisa Klubs - 7","city":"Ezernieki","zip":"LV-5692"},"tenisa klubs - 8":{"address":"Tenisa Klubs - 8","city":"Ezernieki","zip":"LV-5692"},"tenisa klubs - 9":{"address":"Tenisa Klubs - 9","city":"Ezernieki","zip":"LV-5692"},"tenisa klubs - 10":{"address":"Tenisa Klubs - 10","city":"Ezernieki","zip":"LV-5692"},"tenisa klubs - 11":{"address":"Tenisa Klubs - 11","city":"Ezernieki","zip":"LV-5692"},"tenisa klubs - 12":{"address":"Tenisa Klubs - 12","city":"Ezernieki","zip":"LV-5692"},"tenisa klubs - 13":{"address":"Tenisa Klubs - 13","city":"Ezernieki","zip":"LV-5692"},"tenisa klubs - 14":{"address":"Tenisa Klubs - 14","city":"Ezernieki","zip":"LV-5692"},"tenisa klubs - 15":{"address":"Tenisa Klubs - 15","city":"Ezernieki","zip":"LV-5692"},"tenisa klubs - 16":{"address":"Tenisa Klubs - 16","city":"Ezernieki","zip":"LV-5692"},"tenisa klubs - 17":{"address":"Tenisa Klubs - 17","city":"Ezernieki","zip":"LV-5692"},"tenisa klubs - 18":{"address":"Tenisa Klubs - 18","city":"Ezernieki","zip":"LV-5692"},"tenisa klubs 1 - 1":{"address":"Tenisa Klubs 1 - 1","city":"Ezernieki","zip":"LV-5692"},"tenisa klubs 1 - 2":{"address":"Tenisa Klubs 1 - 2","city":"Ezernieki","zip":"LV-5692"},"tenisa klubs 1 - 3":{"address":"Tenisa Klubs 1 - 3","city":"Ezernieki","zip":"LV-5692"},"tenisa klubs 1 - 4":{"address":"Tenisa Klubs 1 - 4","city":"Ezernieki","zip":"LV-5692"},"tenisa klubs 1 - 5":{"address":"Tenisa Klubs 1 - 5","city":"Ezernieki","zip":"LV-5692"},"tenisa klubs 1 - 6":{"address":"Tenisa Klubs 1 - 6","city":"Ezernieki","zip":"LV-5692"},"tenisa klubs 1 - 7":{"address":"Tenisa Klubs 1 - 7","city":"Ezernieki","zip":"LV-5692"},"tenisa klubs 1 - 8":{"address":"Tenisa Klubs 1 - 8","city":"Ezernieki","zip":"LV-5692"},"tenisa klubs 1 - 9":{"address":"Tenisa Klubs 1 - 9","city":"Ezernieki","zip":"LV-5692"},"tenisa klubs 1 - 10":{"address":"Tenisa Klubs 1 - 10","city":"Ezernieki","zip":"LV-5692"},"tenisa klubs 1 - 11":{"address":"Tenisa Klubs 1 - 11","city":"Ezernieki","zip":"LV-5692"},"tenisa klubs 1 - 12":{"address":"Tenisa Klubs 1 - 12","city":"Ezernieki","zip":"LV-5692"},"tenisa klubs 1 - 13":{"address":"Tenisa Klubs 1 - 13","city":"Ezernieki","zip":"LV-5692"},"tenisa klubs 1 - 14":{"address":"Tenisa Klubs 1 - 14","city":"Ezernieki","zip":"LV-5692"},"tenisa klubs 1 - 15":{"address":"Tenisa Klubs 1 - 15","city":"Ezernieki","zip":"LV-5692"},"tenisa klubs 1 - 16":{"address":"Tenisa Klubs 1 - 16","city":"Ezernieki","zip":"LV-5692"},"tenisa klubs 1 - 17":{"address":"Tenisa Klubs 1 - 17","city":"Ezernieki","zip":"LV-5692"},"tenisa klubs 1 - 18":{"address":"Tenisa Klubs 1 - 18","city":"Ezernieki","zip":"LV-5692"},"tenisa klubs 1 - 19":{"address":"Tenisa Klubs 1 - 19","city":"Ezernieki","zip":"LV-5692"},"tenisa klubs 1 - 20":{"address":"Tenisa Klubs 1 - 20","city":"Ezernieki","zip":"LV-5692"},"tenisa klubs 1 - 21":{"address":"Tenisa Klubs 1 - 21","city":"Ezernieki","zip":"LV-5692"},"stāmerienas klubs":{"address":"Stāmerienas klubs","city":"Vecstāmeriena","zip":"LV-4406"},"sofikalna klubs":{"address":"Sofikalna klubs","city":"Sofikalns","zip":"LV-4358"},"rozulas klubs":{"address":"Rozulas Klubs","city":"Rozula","zip":"LV-4151"},"vārpas klubs":{"address":"Vārpas klubs","city":"Bērzi","zip":"LV-3914"},"vārves klubs":{"address":"Vārves klubs","city":"Vārve","zip":"LV-3623"},"ulmales klubs":{"address":"Ulmales klubs","city":"Ulmale","zip":"LV-3466"},"vangas klubs":{"address":"Vangas klubs","city":"Vanga","zip":"LV-3317"},"levestes klubs":{"address":"Levestes klubs","city":"Leveste","zip":"LV-3145"},"meža klubs":{"address":"Meža Klubs","city":"Divezeri","zip":"LV-2164"},"pabažu klubs":{"address":"Pabažu klubs","city":"Pabaži","zip":"LV-2162"},"ausmas klubs":{"address":"Ausmas klubs","city":"Allažmuiža","zip":"LV-2154"},"gaismas klubs":{"address":"Gaismas klubs","city":"Gaisma","zip":"LV-3905"},"kaltenes klubs":{"address":"Kaltenes klubs","city":"Kaltene","zip":"LV-3264"},"klubs":{"address":"Klubs","city":"Feimaņi","zip":"LV-4623"},"kalnienas klubs":{"address":"Kalnienas klubs","city":"Kalniena","zip":"LV-4406"},"valgalciema klubs":{"address":"Valgalciema klubs","city":"Valgalciems","zip":"LV-3284"},"pļavu klubs":{"address":"Pļavu klubs","city":"Pļavas","zip":"LV-3285"},"lazdukalna klubs":{"address":"Lazdukalna klubs","city":"Ozolkalns","zip":"LV-4410"},"ploces klubs":{"address":"Ploces klubs","city":"Ploce","zip":"LV-3463"},"bērziņu klubs":{"address":"Bērziņu klubs","city":"Sēlpils","zip":"LV-5232"},"tenisa klubs 1":{"address":"Tenisa Klubs 1","city":"Ezernieki","zip":"LV-5692"},"tenisa klubs":{"address":"Tenisa Klubs","city":"Ezernieki","zip":"LV-5692"},"jaunklidža klubs":{"address":"Jaunklidža klubs","city":"Jaunklidzis","zip":"LV-4727"},"ēveles klubs":{"address":"Ēveles klubs","city":"Ēvele","zip":"LV-4712"}}