{"bārzu kolns - 1":{"address":"Bārzu kolns - 1","city":"Obricki","zip":"LV-4604"},"bārzu kolns - 2":{"address":"Bārzu kolns - 2","city":"Obricki","zip":"LV-4604"},"zīdu kolns 2":{"address":"Zīdu kolns 2","city":"Zīdi","zip":"LV-4617"},"jura kolns":{"address":"Jura kolns","city":"Zambari","zip":"LV-4635"},"solas kolns":{"address":"Solas kolns","city":"Plikpūrmaļi","zip":"LV-4647"},"dolomīta kolns":{"address":"Dolomīta kolns","city":"Liuki","zip":"LV-4635"},"bārzu kolns":{"address":"Bārzu kolns","city":"Obricki","zip":"LV-4604"},"kolns":{"address":"Kolns","city":"Cecerski","zip":"LV-5304"},"kolnsāta":{"address":"Kolnsāta","city":"Čirkas","zip":"LV-4615"},"zīdu kolns 1":{"address":"Zīdu kolns 1","city":"Zīdi","zip":"LV-4617"},"muola kolns":{"address":"Muola kolns","city":"Gaiduļi","zip":"LV-4633"},"divkšu kolns":{"address":"Divkšu Kolns","city":"Divkši","zip":"LV-5736"},"deļa kolns":{"address":"Deļa Kolns","city":"Pipari","zip":"LV-5443"},"zalta kolns":{"address":"Zalta Kolns","city":"Rozalina","zip":"LV-5330"},"greizais kolns":{"address":"Greizais kolns","city":"Škeņeva","zip":"LV-4647"},"prīžu kolns":{"address":"Prīžu kolns","city":"Asaniški","zip":"LV-4642"},"bārza kolns":{"address":"Bārza kolns","city":"Spundžāni","zip":"LV-4601"},"kļovu kolns":{"address":"Kļovu kolns","city":"Kolna Ančupāni","zip":"LV-4604"},"buļvu kolns":{"address":"Buļvu kolns","city":"Ratinieki","zip":"LV-4601"}}