{"krastiņi - 1":{"address":"Krastiņi - 1","city":"Tārgale","zip":"LV-3621"},"krastiņi - 2":{"address":"Krastiņi - 2","city":"Tārgale","zip":"LV-3621"},"krasti - 1":{"address":"Krasti - 1","city":"Stikli","zip":"LV-3613"},"krasti - 2":{"address":"Krasti - 2","city":"Stikli","zip":"LV-3613"},"krasti - 3":{"address":"Krasti - 3","city":"Augstkalne","zip":"LV-3709"},"krasti - 4":{"address":"Krasti - 4","city":"Augstkalne","zip":"LV-3709"},"krastiņi - 3":{"address":"Krastiņi - 3","city":"Trapene","zip":"LV-4348"},"krastiņi - 4":{"address":"Krastiņi - 4","city":"Trapene","zip":"LV-4348"},"krastiņi - 5":{"address":"Krastiņi - 5","city":"Trapene","zip":"LV-4348"},"krastiņi - 6":{"address":"Krastiņi - 6","city":"Trapene","zip":"LV-4348"},"krastiņi - 7":{"address":"Krastiņi - 7","city":"Trapene","zip":"LV-4348"},"krastiņi - 8":{"address":"Krastiņi - 8","city":"Trapene","zip":"LV-4348"},"krasti - 5":{"address":"Krasti - 5","city":"Augstkalne","zip":"LV-3709"},"baznīcas krastiņi - 1":{"address":"Baznīcas Krastiņi - 1","city":"Jelgavkrasti","zip":"LV-4023"},"baznīcas krastiņi - 2":{"address":"Baznīcas Krastiņi - 2","city":"Jelgavkrasti","zip":"LV-4023"},"baznīcas krastiņi - 3":{"address":"Baznīcas Krastiņi - 3","city":"Jelgavkrasti","zip":"LV-4023"},"krasti - 6":{"address":"Krasti - 6","city":"Augstkalne","zip":"LV-3709"},"krasti - 7":{"address":"Krasti - 7","city":"Augstkalne","zip":"LV-3709"},"krasti - 8":{"address":"Krasti - 8","city":"Augstkalne","zip":"LV-3709"},"krasti - 9":{"address":"Krasti - 9","city":"Augstkalne","zip":"LV-3709"},"krasti - 10":{"address":"Krasti - 10","city":"Augstkalne","zip":"LV-3709"},"krasti - 11":{"address":"Krasti - 11","city":"Augstkalne","zip":"LV-3709"},"krasti - 12":{"address":"Krasti - 12","city":"Augstkalne","zip":"LV-3709"},"krasti - 13":{"address":"Krasti - 13","city":"Mežvidi","zip":"LV-3801"},"krasti - 14":{"address":"Krasti - 14","city":"Mežvidi","zip":"LV-3801"},"krasti - 15":{"address":"Krasti - 15","city":"Mežvidi","zip":"LV-3801"},"krasti - 16":{"address":"Krasti - 16","city":"Mežvidi","zip":"LV-3801"},"krasti - 17":{"address":"Krasti - 17","city":"Mežvidi","zip":"LV-3801"},"krasti - 18":{"address":"Krasti - 18","city":"Mežvidi","zip":"LV-3801"},"krasti - 19":{"address":"Krasti - 19","city":"Mežvidi","zip":"LV-3801"},"krasti - 20":{"address":"Krasti - 20","city":"Mežvidi","zip":"LV-3801"},"krasti - 21":{"address":"Krasti - 21","city":"Mežvidi","zip":"LV-3801"},"krasti - 22":{"address":"Krasti - 22","city":"Mežvidi","zip":"LV-3801"},"krasti - 23":{"address":"Krasti - 23","city":"Mežvidi","zip":"LV-3801"},"krasti - 24":{"address":"Krasti - 24","city":"Mežvidi","zip":"LV-3801"}}