{"krastmalas - 1":{"address":"Krastmalas - 1","city":"Kaibala","zip":"LV-5070"},"krastmalas - 2":{"address":"Krastmalas - 2","city":"Kaibala","zip":"LV-5070"},"krastmalas - 3":{"address":"Krastmalas - 3","city":"Kaibala","zip":"LV-5070"},"krastmalas - 4":{"address":"Krastmalas - 4","city":"Kaibala","zip":"LV-5070"},"krastmalas - 7":{"address":"Krastmalas - 7","city":"Kaibala","zip":"LV-5070"},"krastmalas - 14":{"address":"Krastmalas - 14","city":"Kaibala","zip":"LV-5070"},"krastmalas - 5":{"address":"Krastmalas - 5","city":"Kaibala","zip":"LV-5070"},"krastmalas - 6":{"address":"Krastmalas - 6","city":"Kaibala","zip":"LV-5070"},"krastmalas - 8":{"address":"Krastmalas - 8","city":"Kaibala","zip":"LV-5070"},"krastmalas - 9":{"address":"Krastmalas - 9","city":"Kaibala","zip":"LV-5070"},"krastmalas - 10":{"address":"Krastmalas - 10","city":"Kaibala","zip":"LV-5070"},"krastmalas - 11":{"address":"Krastmalas - 11","city":"Kaibala","zip":"LV-5070"},"krastmalas - 12":{"address":"Krastmalas - 12","city":"Kaibala","zip":"LV-5070"},"krastmalas - 13":{"address":"Krastmalas - 13","city":"Kaibala","zip":"LV-5070"},"krastmalas - 15":{"address":"Krastmalas - 15","city":"Kaibala","zip":"LV-5070"},"krastmalas - 16":{"address":"Krastmalas - 16","city":"Kaibala","zip":"LV-5070"},"krastmalas - 17":{"address":"Krastmalas - 17","city":"Kaibala","zip":"LV-5070"},"krastmalas - 18":{"address":"Krastmalas - 18","city":"Kaibala","zip":"LV-5070"},"krastmalas iela 23 - 1":{"address":"Krastmalas iela 23 - 1","city":"Ciemupe","zip":"LV-5041"},"krastmalas iela 23 - 2":{"address":"Krastmalas iela 23 - 2","city":"Ciemupe","zip":"LV-5041"},"krastmalas":{"address":"Krastmalas","city":"Slampe","zip":"LV-3119"},"krastmalas iela 11":{"address":"Krastmalas iela 11","city":"Lapmežciems","zip":"LV-3118"},"krastmalas iela 2":{"address":"Krastmalas iela 2","city":"Lapmežciems","zip":"LV-3118"},"krastmalas iela 10":{"address":"Krastmalas iela 10","city":"Lapmežciems","zip":"LV-3118"},"krastmalas iela 12":{"address":"Krastmalas iela 12","city":"Lapmežciems","zip":"LV-3118"},"krastmalas iela 14":{"address":"Krastmalas iela 14","city":"Lapmežciems","zip":"LV-3118"}}