{"krastiņi - 1":{"address":"Krastiņi - 1","city":"Inčukalns","zip":"LV-2141"},"krastiņi - 2":{"address":"Krastiņi - 2","city":"Inčukalns","zip":"LV-2141"},"krastiņi - 3":{"address":"Krastiņi - 3","city":"Inčukalns","zip":"LV-2141"},"krastiņi - 4":{"address":"Krastiņi - 4","city":"Veclauki","zip":"LV-3145"},"krastiņi - 5":{"address":"Krastiņi - 5","city":"Veclauki","zip":"LV-3145"},"krastiņi - 6":{"address":"Krastiņi - 6","city":"Trapene","zip":"LV-4348"},"krastiņi - 7":{"address":"Krastiņi - 7","city":"Trapene","zip":"LV-4348"},"krastiņi - 8":{"address":"Krastiņi - 8","city":"Trapene","zip":"LV-4348"},"baznīcas krastiņi - 1":{"address":"Baznīcas Krastiņi - 1","city":"Jelgavkrasti","zip":"LV-4023"},"baznīcas krastiņi - 2":{"address":"Baznīcas Krastiņi - 2","city":"Jelgavkrasti","zip":"LV-4023"},"baznīcas krastiņi - 3":{"address":"Baznīcas Krastiņi - 3","city":"Jelgavkrasti","zip":"LV-4023"},"krastiņi 2 - 1":{"address":"Krastiņi 2 - 1","city":"Geraņimova","zip":"LV-5685"},"krastiņi 2 - 2":{"address":"Krastiņi 2 - 2","city":"Geraņimova","zip":"LV-5685"},"krastiņi 4 - 1":{"address":"Krastiņi 4 - 1","city":"Geraņimova","zip":"LV-5685"},"krastiņi 4 - 2":{"address":"Krastiņi 4 - 2","city":"Geraņimova","zip":"LV-5685"},"krastiņi":{"address":"Krastiņi","city":"Lielauce","zip":"LV-3723"},"baznīcas krastiņi":{"address":"Baznīcas Krastiņi","city":"Jelgavkrasti","zip":"LV-4023"}}