{"krasta iela 1 - 1":{"address":"Krasta iela 1 - 1","city":"Ratnieki","zip":"LV-4617"},"krasta iela 1 - 2":{"address":"Krasta iela 1 - 2","city":"Ratnieki","zip":"LV-4617"},"krasta iela 1 - 3":{"address":"Krasta iela 1 - 3","city":"Ratnieki","zip":"LV-4617"},"krasta iela 1 - 4":{"address":"Krasta iela 1 - 4","city":"Ratnieki","zip":"LV-4617"},"krasta iela 1 - 5":{"address":"Krasta iela 1 - 5","city":"Ratnieki","zip":"LV-4617"},"krasta iela 1 - 6":{"address":"Krasta iela 1 - 6","city":"Ratnieki","zip":"LV-4617"},"krasta iela 1 - 7":{"address":"Krasta iela 1 - 7","city":"Ratnieki","zip":"LV-4617"},"krasta iela 1 - 8":{"address":"Krasta iela 1 - 8","city":"Ratnieki","zip":"LV-4617"},"krasta iela 1 - 9":{"address":"Krasta iela 1 - 9","city":"Ratnieki","zip":"LV-4617"},"krasta iela 1 - 10":{"address":"Krasta iela 1 - 10","city":"Ratnieki","zip":"LV-4617"},"krasta iela 1 - 11":{"address":"Krasta iela 1 - 11","city":"Ratnieki","zip":"LV-4617"},"krasta iela 1 - 12":{"address":"Krasta iela 1 - 12","city":"Ratnieki","zip":"LV-4617"},"krasta iela 1 - 13":{"address":"Krasta iela 1 - 13","city":"Ratnieki","zip":"LV-4617"},"krasta iela 1 - 14":{"address":"Krasta iela 1 - 14","city":"Ratnieki","zip":"LV-4617"},"krasta iela 1 - 15":{"address":"Krasta iela 1 - 15","city":"Ratnieki","zip":"LV-4617"},"krasta iela 1 - 16":{"address":"Krasta iela 1 - 16","city":"Ratnieki","zip":"LV-4617"},"krasta iela 1 - 17":{"address":"Krasta iela 1 - 17","city":"Ratnieki","zip":"LV-4617"},"krasta iela 1 - 18":{"address":"Krasta iela 1 - 18","city":"Ratnieki","zip":"LV-4617"},"krasta iela 1 - 19":{"address":"Krasta iela 1 - 19","city":"Ratnieki","zip":"LV-4617"},"krasta iela 1 - 20":{"address":"Krasta iela 1 - 20","city":"Ratnieki","zip":"LV-4617"},"krasta iela 1 - 21":{"address":"Krasta iela 1 - 21","city":"Ratnieki","zip":"LV-4617"},"krasta iela 1 - 22":{"address":"Krasta iela 1 - 22","city":"Ratnieki","zip":"LV-4617"},"krasta iela 1 - 23":{"address":"Krasta iela 1 - 23","city":"Ratnieki","zip":"LV-4617"},"krasta iela 1 - 24":{"address":"Krasta iela 1 - 24","city":"Ratnieki","zip":"LV-4617"},"krasta iela 2 - 1":{"address":"Krasta iela 2 - 1","city":"Ratnieki","zip":"LV-4617"},"krasta iela 2 - 2":{"address":"Krasta iela 2 - 2","city":"Ratnieki","zip":"LV-4617"},"krasta iela 2 - 3":{"address":"Krasta iela 2 - 3","city":"Ratnieki","zip":"LV-4617"},"krasta iela 2 - 4":{"address":"Krasta iela 2 - 4","city":"Ratnieki","zip":"LV-4617"},"krasta iela 2 - 5":{"address":"Krasta iela 2 - 5","city":"Ratnieki","zip":"LV-4617"},"krasta iela 2 - 6":{"address":"Krasta iela 2 - 6","city":"Ratnieki","zip":"LV-4617"},"krasta iela 2 - 7":{"address":"Krasta iela 2 - 7","city":"Ratnieki","zip":"LV-4617"},"krasta iela 2 - 8":{"address":"Krasta iela 2 - 8","city":"Ratnieki","zip":"LV-4617"},"krasta iela 2 - 9":{"address":"Krasta iela 2 - 9","city":"Ratnieki","zip":"LV-4617"},"krasta iela 2 - 10":{"address":"Krasta iela 2 - 10","city":"Ratnieki","zip":"LV-4617"},"krasta iela 2 - 11":{"address":"Krasta iela 2 - 11","city":"Ratnieki","zip":"LV-4617"},"krasta iela 2 - 12":{"address":"Krasta iela 2 - 12","city":"Ratnieki","zip":"LV-4617"},"krasta iela 2 - 13":{"address":"Krasta iela 2 - 13","city":"Ratnieki","zip":"LV-4617"},"krasta iela 2 - 14":{"address":"Krasta iela 2 - 14","city":"Ratnieki","zip":"LV-4617"},"krasta iela 2 - 15":{"address":"Krasta iela 2 - 15","city":"Ratnieki","zip":"LV-4617"},"krasta iela 2 - 16":{"address":"Krasta iela 2 - 16","city":"Ratnieki","zip":"LV-4617"},"krasta iela 2 - 17":{"address":"Krasta iela 2 - 17","city":"Ratnieki","zip":"LV-4617"},"krasta iela 2 - 18":{"address":"Krasta iela 2 - 18","city":"Ratnieki","zip":"LV-4617"},"krasta iela 2 - 19":{"address":"Krasta iela 2 - 19","city":"Ratnieki","zip":"LV-4617"},"krasta iela 2 - 20":{"address":"Krasta iela 2 - 20","city":"Ratnieki","zip":"LV-4617"},"krasta iela 2 - 21":{"address":"Krasta iela 2 - 21","city":"Ratnieki","zip":"LV-4617"},"krasta iela 2 - 22":{"address":"Krasta iela 2 - 22","city":"Ratnieki","zip":"LV-4617"},"krasta iela 2 - 23":{"address":"Krasta iela 2 - 23","city":"Ratnieki","zip":"LV-4617"},"krasta iela 2 - 24":{"address":"Krasta iela 2 - 24","city":"Ratnieki","zip":"LV-4617"},"krasta iela 2 - 25":{"address":"Krasta iela 2 - 25","city":"Ratnieki","zip":"LV-4617"},"krasta iela 2 - 26":{"address":"Krasta iela 2 - 26","city":"Ratnieki","zip":"LV-4617"},"krasta iela 2 - 27":{"address":"Krasta iela 2 - 27","city":"Ratnieki","zip":"LV-4617"},"krasta iela 2 - 28":{"address":"Krasta iela 2 - 28","city":"Ratnieki","zip":"LV-4617"},"krasta iela 2 - 29":{"address":"Krasta iela 2 - 29","city":"Ratnieki","zip":"LV-4617"},"krasta iela 2 - 30":{"address":"Krasta iela 2 - 30","city":"Ratnieki","zip":"LV-4617"},"krasta iela 3 - 1":{"address":"Krasta iela 3 - 1","city":"Ratnieki","zip":"LV-4617"},"krasta iela 3 - 2":{"address":"Krasta iela 3 - 2","city":"Ratnieki","zip":"LV-4617"},"krasta iela 3 - 3":{"address":"Krasta iela 3 - 3","city":"Ratnieki","zip":"LV-4617"},"krasta iela 3 - 4":{"address":"Krasta iela 3 - 4","city":"Ratnieki","zip":"LV-4617"},"krasta iela 3 - 5":{"address":"Krasta iela 3 - 5","city":"Ratnieki","zip":"LV-4617"},"krasta iela 3 - 6":{"address":"Krasta iela 3 - 6","city":"Ratnieki","zip":"LV-4617"},"krasta iela 3 - 7":{"address":"Krasta iela 3 - 7","city":"Ratnieki","zip":"LV-4617"},"krasta iela 3 - 8":{"address":"Krasta iela 3 - 8","city":"Ratnieki","zip":"LV-4617"},"krasta iela 3 - 9":{"address":"Krasta iela 3 - 9","city":"Ratnieki","zip":"LV-4617"},"krasta iela 3 - 10":{"address":"Krasta iela 3 - 10","city":"Ratnieki","zip":"LV-4617"},"krasta iela 3 - 11":{"address":"Krasta iela 3 - 11","city":"Ratnieki","zip":"LV-4617"},"krasta iela 3 - 12":{"address":"Krasta iela 3 - 12","city":"Ratnieki","zip":"LV-4617"},"krasta iela 3 - 13":{"address":"Krasta iela 3 - 13","city":"Ratnieki","zip":"LV-4617"},"krasta iela 3 - 14":{"address":"Krasta iela 3 - 14","city":"Ratnieki","zip":"LV-4617"},"krasta iela 3 - 15":{"address":"Krasta iela 3 - 15","city":"Ratnieki","zip":"LV-4617"},"krasta iela 3 - 16":{"address":"Krasta iela 3 - 16","city":"Ratnieki","zip":"LV-4617"},"krasta iela 3 - 17":{"address":"Krasta iela 3 - 17","city":"Ratnieki","zip":"LV-4617"},"krasta iela 3 - 18":{"address":"Krasta iela 3 - 18","city":"Ratnieki","zip":"LV-4617"}}