{"krastmalas - 1":{"address":"Krastmalas - 1","city":"Užava","zip":"LV-3627"},"krastmalas - 2":{"address":"Krastmalas - 2","city":"Užava","zip":"LV-3627"},"krastmalas - 3":{"address":"Krastmalas - 3","city":"Užava","zip":"LV-3627"},"krastmalas - 4":{"address":"Krastmalas - 4","city":"Užava","zip":"LV-3627"},"krastmalas - 7":{"address":"Krastmalas - 7","city":"Užava","zip":"LV-3627"},"krastmalas - 14":{"address":"Krastmalas - 14","city":"Užava","zip":"LV-3627"},"krastmalas - 5":{"address":"Krastmalas - 5","city":"Užava","zip":"LV-3627"},"krastmalas - 6":{"address":"Krastmalas - 6","city":"Užava","zip":"LV-3627"},"krastmalas - 8":{"address":"Krastmalas - 8","city":"Užava","zip":"LV-3627"},"krastmalas - 9":{"address":"Krastmalas - 9","city":"Užava","zip":"LV-3627"},"krastmalas - 10":{"address":"Krastmalas - 10","city":"Užava","zip":"LV-3627"},"krastmalas - 11":{"address":"Krastmalas - 11","city":"Užava","zip":"LV-3627"},"krastmalas - 12":{"address":"Krastmalas - 12","city":"Užava","zip":"LV-3627"},"krastmalas - 13":{"address":"Krastmalas - 13","city":"Užava","zip":"LV-3627"},"krastmalas - 15":{"address":"Krastmalas - 15","city":"Užava","zip":"LV-3627"},"iecavas krastmala 2 - 1":{"address":"Iecavas krastmala 2 - 1","city":"Ozolnieki","zip":"LV-3018"},"iecavas krastmala 2 - 2":{"address":"Iecavas krastmala 2 - 2","city":"Ozolnieki","zip":"LV-3018"},"iecavas krastmala 2 - 3":{"address":"Iecavas krastmala 2 - 3","city":"Ozolnieki","zip":"LV-3018"},"iecavas krastmala 2 - 4":{"address":"Iecavas krastmala 2 - 4","city":"Ozolnieki","zip":"LV-3018"},"iecavas krastmala 2 - 5":{"address":"Iecavas krastmala 2 - 5","city":"Ozolnieki","zip":"LV-3018"},"iecavas krastmala 2 - 6":{"address":"Iecavas krastmala 2 - 6","city":"Ozolnieki","zip":"LV-3018"},"iecavas krastmala 2 - 7":{"address":"Iecavas krastmala 2 - 7","city":"Ozolnieki","zip":"LV-3018"},"iecavas krastmala 2 - 8":{"address":"Iecavas krastmala 2 - 8","city":"Ozolnieki","zip":"LV-3018"},"iecavas krastmala 3 - 1":{"address":"Iecavas krastmala 3 - 1","city":"Ozolnieki","zip":"LV-3018"},"iecavas krastmala 3 - 2":{"address":"Iecavas krastmala 3 - 2","city":"Ozolnieki","zip":"LV-3018"},"iecavas krastmala 3 - 3":{"address":"Iecavas krastmala 3 - 3","city":"Ozolnieki","zip":"LV-3018"},"iecavas krastmala 3 - 4":{"address":"Iecavas krastmala 3 - 4","city":"Ozolnieki","zip":"LV-3018"},"iecavas krastmala 3 - 5":{"address":"Iecavas krastmala 3 - 5","city":"Ozolnieki","zip":"LV-3018"},"iecavas krastmala 3 - 6":{"address":"Iecavas krastmala 3 - 6","city":"Ozolnieki","zip":"LV-3018"},"iecavas krastmala 3 - 7":{"address":"Iecavas krastmala 3 - 7","city":"Ozolnieki","zip":"LV-3018"},"iecavas krastmala 3 - 8":{"address":"Iecavas krastmala 3 - 8","city":"Ozolnieki","zip":"LV-3018"}}