{"kraukļu tautas nams - 5":{"address":"Kraukļu tautas nams - 5","city":"Kraukļi","zip":"LV-4880"},"kraukļu tautas nams - 1":{"address":"Kraukļu tautas nams - 1","city":"Kraukļi","zip":"LV-4880"},"kraukļu tautas nams - 2":{"address":"Kraukļu tautas nams - 2","city":"Kraukļi","zip":"LV-4880"},"kraukļu tautas nams - 3":{"address":"Kraukļu tautas nams - 3","city":"Kraukļi","zip":"LV-4880"},"kraukļu tautas nams - 4":{"address":"Kraukļu tautas nams - 4","city":"Kraukļi","zip":"LV-4880"},"kraukļu tautas nams - 1a":{"address":"Kraukļu tautas nams - 1A","city":"Kraukļi","zip":"LV-4880"},"kraukļu veikals - 1":{"address":"Kraukļu veikals - 1","city":"Kraukļi","zip":"LV-4880"},"kraukļu veikals - 2":{"address":"Kraukļu veikals - 2","city":"Kraukļi","zip":"LV-4880"},"kraukļu veikals - 3":{"address":"Kraukļu veikals - 3","city":"Kraukļi","zip":"LV-4880"},"kraukļu veikals - 4":{"address":"Kraukļu veikals - 4","city":"Kraukļi","zip":"LV-4880"},"kraukļu iela 1":{"address":"Kraukļu iela 1","city":"Kalngale","zip":"LV-2163"},"kraukļu iela 2":{"address":"Kraukļu iela 2","city":"Kalngale","zip":"LV-2163"},"kraukļu iela 3":{"address":"Kraukļu iela 3","city":"Kalngale","zip":"LV-2163"},"kraukļu iela 4":{"address":"Kraukļu iela 4","city":"Kalngale","zip":"LV-2163"},"kraukļu galdniecība":{"address":"Kraukļu galdniecība","city":"Kraukļi","zip":"LV-4880"},"kraukļu mājas":{"address":"Kraukļu mājas","city":"Līksna","zip":"LV-5456"},"kraukļu dzirnavas":{"address":"Kraukļu dzirnavas","city":"Kraukļi","zip":"LV-4880"},"kraukļu veikals":{"address":"Kraukļu veikals","city":"Kraukļi","zip":"LV-4880"},"kraukļu tautas nams":{"address":"Kraukļu tautas nams","city":"Kraukļi","zip":"LV-4880"}}