{"kraujas - 1":{"address":"Kraujas - 1","city":"Lielvirbi","zip":"LV-3294"},"kraujas - 2":{"address":"Kraujas - 2","city":"Lielvirbi","zip":"LV-3294"},"kraujas - 3":{"address":"Kraujas - 3","city":"Lielvirbi","zip":"LV-3294"},"kraujas - 4":{"address":"Kraujas - 4","city":"Lielvirbi","zip":"LV-3294"},"kraujas - 5":{"address":"Kraujas - 5","city":"Lielvirbi","zip":"LV-3294"},"kraujas - 6":{"address":"Kraujas - 6","city":"Mežvidi","zip":"LV-3801"},"kraujas - 7":{"address":"Kraujas - 7","city":"Mežvidi","zip":"LV-3801"},"kraujas - 8":{"address":"Kraujas - 8","city":"Mežvidi","zip":"LV-3801"},"kraujas - 9":{"address":"Kraujas - 9","city":"Mežvidi","zip":"LV-3801"},"kraujas - 10":{"address":"Kraujas - 10","city":"Mežvidi","zip":"LV-3801"},"kraujas - 11":{"address":"Kraujas - 11","city":"Mežvidi","zip":"LV-3801"},"kraujas - 12":{"address":"Kraujas - 12","city":"Mežvidi","zip":"LV-3801"},"kraujas - 13":{"address":"Kraujas - 13","city":"Mežvidi","zip":"LV-3801"},"kraujas - 14":{"address":"Kraujas - 14","city":"Mežvidi","zip":"LV-3801"},"kraujas - 15":{"address":"Kraujas - 15","city":"Mežvidi","zip":"LV-3801"},"kraujas - 16":{"address":"Kraujas - 16","city":"Mežvidi","zip":"LV-3801"},"kraujas - 17":{"address":"Kraujas - 17","city":"Mežvidi","zip":"LV-3801"},"kraujas - 18":{"address":"Kraujas - 18","city":"Mežvidi","zip":"LV-3801"},"kraujas - 19":{"address":"Kraujas - 19","city":"Mežvidi","zip":"LV-3801"},"kraujas - 20":{"address":"Kraujas - 20","city":"Mežvidi","zip":"LV-3801"},"kraujas - 21":{"address":"Kraujas - 21","city":"Mežvidi","zip":"LV-3801"},"kraujas - 22":{"address":"Kraujas - 22","city":"Mežvidi","zip":"LV-3801"},"kraujas - 23":{"address":"Kraujas - 23","city":"Mežvidi","zip":"LV-3801"},"kraujas - 24":{"address":"Kraujas - 24","city":"Mežvidi","zip":"LV-3801"},"dubulti - 1":{"address":"Dubulti - 1","city":"Kraujas","zip":"LV-3297"},"dubulti - 2":{"address":"Dubulti - 2","city":"Kraujas","zip":"LV-3297"},"noras - 1":{"address":"Noras - 1","city":"Kraujas","zip":"LV-3297"},"noras - 2":{"address":"Noras - 2","city":"Kraujas","zip":"LV-3297"},"noras - 3":{"address":"Noras - 3","city":"Kraujas","zip":"LV-3297"}}