{"krizantēmu iela 2":{"address":"Krizantēmu iela 2","city":"Katlakalns","zip":"LV-2111"},"krizantēmu iela 3":{"address":"Krizantēmu iela 3","city":"Katlakalns","zip":"LV-2111"},"krizantēmu iela 4":{"address":"Krizantēmu iela 4","city":"Katlakalns","zip":"LV-2111"},"krizantēmu iela 5":{"address":"Krizantēmu iela 5","city":"Katlakalns","zip":"LV-2111"},"krizantēmu iela 6":{"address":"Krizantēmu iela 6","city":"Katlakalns","zip":"LV-2111"},"krizantēmu iela 7":{"address":"Krizantēmu iela 7","city":"Katlakalns","zip":"LV-2111"},"krizantēmu iela 8":{"address":"Krizantēmu iela 8","city":"Katlakalns","zip":"LV-2111"},"krizantēmu iela 9":{"address":"Krizantēmu iela 9","city":"Katlakalns","zip":"LV-2111"},"krizantēmu iela 10":{"address":"Krizantēmu iela 10","city":"Katlakalns","zip":"LV-2111"},"krizantēmu iela 11":{"address":"Krizantēmu iela 11","city":"Katlakalns","zip":"LV-2111"},"krizantēmu iela 13":{"address":"Krizantēmu iela 13","city":"Katlakalns","zip":"LV-2111"},"krizantēmu iela 14":{"address":"Krizantēmu iela 14","city":"Katlakalns","zip":"LV-2111"},"krizantēmu iela 15":{"address":"Krizantēmu iela 15","city":"Katlakalns","zip":"LV-2111"},"krizantēmu iela 16":{"address":"Krizantēmu iela 16","city":"Katlakalns","zip":"LV-2111"},"krizantēmu iela 12":{"address":"Krizantēmu iela 12","city":"Katlakalns","zip":"LV-2111"},"krizantēmu iela 1":{"address":"Krizantēmu iela 1","city":"Katlakalns","zip":"LV-2111"},"krizantēmu mājas":{"address":"Krizantēmu mājas","city":"Lielie Dreizi","zip":"LV-4641"}}