{"velna krogs - 1":{"address":"Velna krogs - 1","city":"Lielbērze","zip":"LV-3701"},"velna krogs - 2":{"address":"Velna krogs - 2","city":"Lielbērze","zip":"LV-3701"},"velna krogs - 3":{"address":"Velna krogs - 3","city":"Lielbērze","zip":"LV-3701"},"velna krogs - 4":{"address":"Velna krogs - 4","city":"Lielbērze","zip":"LV-3701"},"zaļais krogs - 1":{"address":"Zaļais Krogs - 1","city":"Cīruļi","zip":"LV-3253"},"zaļais krogs - 2":{"address":"Zaļais Krogs - 2","city":"Cīruļi","zip":"LV-3253"},"rakaru iela 17 - 1":{"address":"Rakaru iela 17 - 1","city":"Krogsils","zip":"LV-2111"},"rakaru iela 17 - 2":{"address":"Rakaru iela 17 - 2","city":"Krogsils","zip":"LV-2111"},"rakaru iela 9 - 1":{"address":"Rakaru iela 9 - 1","city":"Krogsils","zip":"LV-2111"},"rakaru iela 9 - 2":{"address":"Rakaru iela 9 - 2","city":"Krogsils","zip":"LV-2111"},"rakaru iela 14 - 1":{"address":"Rakaru iela 14 - 1","city":"Krogsils","zip":"LV-2111"},"rakaru iela 14 - 2":{"address":"Rakaru iela 14 - 2","city":"Krogsils","zip":"LV-2111"},"rakaru iela 19 - 2":{"address":"Rakaru iela 19 - 2","city":"Krogsils","zip":"LV-2111"},"rakaru iela 7 - 1":{"address":"Rakaru iela 7 - 1","city":"Krogsils","zip":"LV-2111"},"rakaru iela 7 - 2":{"address":"Rakaru iela 7 - 2","city":"Krogsils","zip":"LV-2111"},"vīteņu iela 5 - 1":{"address":"Vīteņu iela 5 - 1","city":"Krogsils","zip":"LV-2111"},"vīteņu iela 5 - 2":{"address":"Vīteņu iela 5 - 2","city":"Krogsils","zip":"LV-2111"},"liepziedu iela 11 - 1":{"address":"Liepziedu iela 11 - 1","city":"Krogsils","zip":"LV-2111"},"liepziedu iela 11 - 2":{"address":"Liepziedu iela 11 - 2","city":"Krogsils","zip":"LV-2111"},"dimzas iela 4 - 1":{"address":"Dimzas iela 4 - 1","city":"Krogsils","zip":"LV-2111"},"dimzas iela 4 - 2":{"address":"Dimzas iela 4 - 2","city":"Krogsils","zip":"LV-2111"},"dimzas iela 1 - 1":{"address":"Dimzas iela 1 - 1","city":"Krogsils","zip":"LV-2111"},"dimzas iela 1 - 2":{"address":"Dimzas iela 1 - 2","city":"Krogsils","zip":"LV-2111"},"dimzas iela 3 - 1":{"address":"Dimzas iela 3 - 1","city":"Krogsils","zip":"LV-2111"},"dimzas iela 3 - 2":{"address":"Dimzas iela 3 - 2","city":"Krogsils","zip":"LV-2111"},"pakalni 3 - 1":{"address":"Pakalni 3 - 1","city":"Krogsils","zip":"LV-2111"},"pakalni 3 - 2":{"address":"Pakalni 3 - 2","city":"Krogsils","zip":"LV-2111"},"runcīšu iela 4 - 1":{"address":"Runcīšu iela 4 - 1","city":"Krogsils","zip":"LV-2111"},"runcīšu iela 4 - 2":{"address":"Runcīšu iela 4 - 2","city":"Krogsils","zip":"LV-2111"},"sapas krogs":{"address":"Sapas krogs","city":"Līči","zip":"LV-4224"},"krasta krogs":{"address":"Krasta krogs","city":"Nīgrande","zip":"LV-3899"},"gaiķu krogs":{"address":"Gaiķu krogs","city":"Gaiķi","zip":"LV-3873"},"velna krogs":{"address":"Velna krogs","city":"Lielbērze","zip":"LV-3701"},"labraga krogs":{"address":"Labraga krogs","city":"Labrags","zip":"LV-3626"},"kaltenes krogs":{"address":"Kaltenes Krogs","city":"Kaltene","zip":"LV-3264"},"kuršu krogs":{"address":"Kuršu krogs","city":"Mācītājmuiža","zip":"LV-3258"},"pūņu krogs":{"address":"Pūņu Krogs","city":"Pūņas","zip":"LV-3253"},"zaļais krogs":{"address":"Zaļais Krogs","city":"Cīruļi","zip":"LV-3253"},"lilastes krogs":{"address":"Lilastes Krogs","city":"Divezeri","zip":"LV-2164"},"sēļi":{"address":"Sēļi","city":"Krogsils","zip":"LV-2111"},"pīlādzīši":{"address":"Pīlādzīši","city":"Krogsils","zip":"LV-2111"},"upeslejas":{"address":"Upeslejas","city":"Krogsils","zip":"LV-2111"}}