{"stalšēni 2 - 1":{"address":"Stalšēni 2 - 1","city":"Krustiņi","zip":"LV-2141"},"stalšēni 2 - 2":{"address":"Stalšēni 2 - 2","city":"Krustiņi","zip":"LV-2141"},"stalšēni 3 - 7":{"address":"Stalšēni 3 - 7","city":"Krustiņi","zip":"LV-2141"},"stalšēni 3 - 1":{"address":"Stalšēni 3 - 1","city":"Krustiņi","zip":"LV-2141"},"stalšēni 3 - 2":{"address":"Stalšēni 3 - 2","city":"Krustiņi","zip":"LV-2141"},"stalšēni 3 - 4":{"address":"Stalšēni 3 - 4","city":"Krustiņi","zip":"LV-2141"},"stalšēni 3 - 3":{"address":"Stalšēni 3 - 3","city":"Krustiņi","zip":"LV-2141"},"stalšēni 3 - 5":{"address":"Stalšēni 3 - 5","city":"Krustiņi","zip":"LV-2141"},"stalšēni 3 - 6":{"address":"Stalšēni 3 - 6","city":"Krustiņi","zip":"LV-2141"},"zīlītes - 1":{"address":"Zīlītes - 1","city":"Krustiņi","zip":"LV-2136"},"zīlītes - 2":{"address":"Zīlītes - 2","city":"Krustiņi","zip":"LV-2136"},"rudzīši 1 - 1":{"address":"Rudzīši 1 - 1","city":"Krustiņi","zip":"LV-2141"},"rudzīši 1 - 2":{"address":"Rudzīši 1 - 2","city":"Krustiņi","zip":"LV-2141"},"rudzīši 1 - 3":{"address":"Rudzīši 1 - 3","city":"Krustiņi","zip":"LV-2141"},"atvasītes - 1":{"address":"Atvasītes - 1","city":"Krustiņi","zip":"LV-2141"},"atvasītes - 2":{"address":"Atvasītes - 2","city":"Krustiņi","zip":"LV-2141"},"atvasītes - 3":{"address":"Atvasītes - 3","city":"Krustiņi","zip":"LV-2141"},"krustiņi - 1":{"address":"Krustiņi - 1","city":"Ķeipene","zip":"LV-5062"},"krustiņi - 2":{"address":"Krustiņi - 2","city":"Ķeipene","zip":"LV-5062"},"krustiņi - 3":{"address":"Krustiņi - 3","city":"Ķeipene","zip":"LV-5062"},"krustiņi":{"address":"Krustiņi","city":"Bernāti","zip":"LV-3473"},"rūči":{"address":"Rūči","city":"Krustiņi","zip":"LV-2141"},"ievkalnu iela 2":{"address":"Ievkalnu iela 2","city":"Krustiņi","zip":"LV-2141"},"mētru iela 4":{"address":"Mētru iela 4","city":"Krustiņi","zip":"LV-2141"},"liepnas":{"address":"Liepnas","city":"Krustiņi","zip":"LV-2141"},"simsoni":{"address":"Simsoni","city":"Krustiņi","zip":"LV-2141"},"skujiņas":{"address":"Skujiņas","city":"Krustiņi","zip":"LV-2141"},"vītiņkalni":{"address":"Vītiņkalni","city":"Krustiņi","zip":"LV-2141"},"varavīksnes":{"address":"Varavīksnes","city":"Krustiņi","zip":"LV-2141"},"šalkas":{"address":"Šalkas","city":"Krustiņi","zip":"LV-2141"},"stalšēni 2":{"address":"Stalšēni 2","city":"Krustiņi","zip":"LV-2141"},"stalšēni":{"address":"Stalšēni","city":"Krustiņi","zip":"LV-2141"},"sapnīši 2":{"address":"Sapnīši 2","city":"Krustiņi","zip":"LV-2141"},"stalšēni 3":{"address":"Stalšēni 3","city":"Krustiņi","zip":"LV-2141"},"šalkas 2":{"address":"Šalkas 2","city":"Krustiņi","zip":"LV-2141"},"šmiti":{"address":"Šmiti","city":"Krustiņi","zip":"LV-2141"},"zīlītes":{"address":"Zīlītes","city":"Krustiņi","zip":"LV-2136"},"sapnīši 1":{"address":"Sapnīši 1","city":"Krustiņi","zip":"LV-2141"},"sosāri":{"address":"Sosāri","city":"Krustiņi","zip":"LV-2141"},"sprīdīši":{"address":"Sprīdīši","city":"Krustiņi","zip":"LV-2141"},"silavas":{"address":"Silavas","city":"Krustiņi","zip":"LV-2141"},"rāmkalni":{"address":"Rāmkalni","city":"Krustiņi","zip":"LV-2141"},"ievkalnu iela 6":{"address":"Ievkalnu iela 6","city":"Krustiņi","zip":"LV-2141"},"rudzīši 1":{"address":"Rudzīši 1","city":"Krustiņi","zip":"LV-2141"},"rudzīši 2":{"address":"Rudzīši 2","city":"Krustiņi","zip":"LV-2141"},"rudzīši 3":{"address":"Rudzīši 3","city":"Krustiņi","zip":"LV-2141"},"ievkalnu iela 15":{"address":"Ievkalnu iela 15","city":"Krustiņi","zip":"LV-2141"},"sāgas":{"address":"Sāgas","city":"Krustiņi","zip":"LV-2141"},"ievkalnu iela 4":{"address":"Ievkalnu iela 4","city":"Krustiņi","zip":"LV-2141"},"ievkalnu iela 12":{"address":"Ievkalnu iela 12","city":"Krustiņi","zip":"LV-2141"},"matīši":{"address":"Matīši","city":"Krustiņi","zip":"LV-2141"},"mazozoliņi":{"address":"Mazozoliņi","city":"Krustiņi","zip":"LV-2141"},"ievkalnu iela 10":{"address":"Ievkalnu iela 10","city":"Krustiņi","zip":"LV-2141"},"ozoliņi 1":{"address":"Ozoliņi 1","city":"Krustiņi","zip":"LV-2141"},"pleskavas šoseja 36. km":{"address":"Pleskavas šoseja 36. km","city":"Krustiņi","zip":"LV-2136"},"silziedu iela 4":{"address":"Silziedu iela 4","city":"Krustiņi","zip":"LV-2141"},"silziedu iela 9":{"address":"Silziedu iela 9","city":"Krustiņi","zip":"LV-2141"},"silziedu iela 10":{"address":"Silziedu iela 10","city":"Krustiņi","zip":"LV-2141"},"silziedu iela 11":{"address":"Silziedu iela 11","city":"Krustiņi","zip":"LV-2141"},"silziedu iela 12":{"address":"Silziedu iela 12","city":"Krustiņi","zip":"LV-2141"},"silziedu iela 14":{"address":"Silziedu iela 14","city":"Krustiņi","zip":"LV-2141"}}