{"mazie krīviņi 6 - 1":{"address":"Mazie Krīviņi 6 - 1","city":"Mazie Krīviņi","zip":"LV-5462"},"mazie krīviņi 6 - 2":{"address":"Mazie Krīviņi 6 - 2","city":"Mazie Krīviņi","zip":"LV-5462"},"baloži":{"address":"Baloži","city":"Krīviņi","zip":"LV-4633"},"bērziņi 2":{"address":"Bērziņi 2","city":"Krīviņi","zip":"LV-4633"},"birznieki":{"address":"Birznieki","city":"Krīviņi","zip":"LV-4633"},"dūjiņas":{"address":"Dūjiņas","city":"Krīviņi","zip":"LV-4633"},"edvarti":{"address":"Edvarti","city":"Krīviņi","zip":"LV-4633"},"egles":{"address":"Egles","city":"Krīviņi","zip":"LV-4633"},"laimiņas":{"address":"Laimiņas","city":"Krīviņi","zip":"LV-4633"},"lapsu bedres":{"address":"Lapsu bedres","city":"Krīviņi","zip":"LV-4633"},"liekņa":{"address":"Liekņa","city":"Krīviņi","zip":"LV-4633"},"mežkalni":{"address":"Mežkalni","city":"Krīviņi","zip":"LV-4633"},"narcises":{"address":"Narcises","city":"Krīviņi","zip":"LV-5601"},"peonijas":{"address":"Peonijas","city":"Krīviņi","zip":"LV-4633"},"rožukalns":{"address":"Rožukalns","city":"Krīviņi","zip":"LV-4633"},"rudzīši":{"address":"Rudzīši","city":"Krīviņi","zip":"LV-4633"},"tulpes":{"address":"Tulpes","city":"Krīviņi","zip":"LV-5601"},"turonoki":{"address":"Turonoki","city":"Krīviņi","zip":"LV-4633"},"mazie krīviņi 3":{"address":"Mazie Krīviņi 3","city":"Mazie Krīviņi","zip":"LV-5462"},"krīviņi":{"address":"Krīviņi","city":"Krīviņi","zip":"LV-5601"},"smuklauki":{"address":"Smuklauki","city":"Krīviņi","zip":"LV-5601"},"pahomovka":{"address":"Pahomovka","city":"Lielie Krivini","zip":"LV-5440"},"liepmājas":{"address":"Liepmājas","city":"Krīviņi","zip":"LV-5601"},"daida":{"address":"Daida","city":"Krīviņi","zip":"LV-5601"},"daba":{"address":"Daba","city":"Krīviņi","zip":"LV-5601"},"fjodori":{"address":"Fjodori","city":"Krīviņi","zip":"LV-5601"},"uguntiņš":{"address":"Uguntiņš","city":"Lielie Krivini","zip":"LV-5440"},"jaunās zemes":{"address":"Jaunās zemes","city":"Mazie Krīviņi","zip":"LV-5462"},"aleksandri":{"address":"Aleksandri","city":"Lielie Krivini","zip":"LV-5440"},"maksims":{"address":"Maksims","city":"Lielie Krivini","zip":"LV-5440"},"anniņas":{"address":"Anniņas","city":"Krīviņi","zip":"LV-5601"},"krikovi":{"address":"Krikovi","city":"Krīviņi","zip":"LV-5601"},"kriķi":{"address":"Kriķi","city":"Krīviņi","zip":"LV-5601"},"igori":{"address":"Igori","city":"Krīviņi","zip":"LV-5601"},"graudi":{"address":"Graudi","city":"Krīviņi","zip":"LV-5601"},"bišmājas":{"address":"Bišmājas","city":"Krīviņi","zip":"LV-5601"},"borisi":{"address":"Borisi","city":"Krīviņi","zip":"LV-5601"},"ciemiņi":{"address":"Ciemiņi","city":"Krīviņi","zip":"LV-5601"},"gailenes":{"address":"Gailenes","city":"Krīviņi","zip":"LV-5601"},"gaļinas":{"address":"Gaļinas","city":"Krīviņi","zip":"LV-5601"},"ļesnaja poļana":{"address":"Ļesnaja poļana","city":"Krīviņi","zip":"LV-5601"},"mežmaliņa":{"address":"Mežmaliņa","city":"Krīviņi","zip":"LV-5601"},"pāveli":{"address":"Pāveli","city":"Krīviņi","zip":"LV-5601"},"strazdiņi":{"address":"Strazdiņi","city":"Krīviņi","zip":"LV-5601"},"vasariņas":{"address":"Vasariņas","city":"Krīviņi","zip":"LV-5601"},"zemenītes":{"address":"Zemenītes","city":"Krīviņi","zip":"LV-5601"},"žanetas":{"address":"Žanetas","city":"Krīviņi","zip":"LV-5601"},"mežmaliņas":{"address":"Mežmaliņas","city":"Krīviņi","zip":"LV-5653"},"sudmaliņas":{"address":"Sudmaliņas","city":"Krīviņi","zip":"LV-5653"},"zalkši":{"address":"Zalkši","city":"Krīviņi","zip":"LV-5653"},"anatoļi":{"address":"Anatoļi","city":"Krīviņi","zip":"LV-5601"},"arinas":{"address":"Arinas","city":"Krīviņi","zip":"LV-5601"},"atvases":{"address":"Atvases","city":"Krīviņi","zip":"LV-5601"},"auseklīši":{"address":"Auseklīši","city":"Krīviņi","zip":"LV-5601"},"avotiņi":{"address":"Avotiņi","city":"Krīviņi","zip":"LV-5601"},"bērziņi":{"address":"Bērziņi","city":"Krīviņi","zip":"LV-5601"},"bitītes":{"address":"Bitītes","city":"Krīviņi","zip":"LV-5601"},"boluži":{"address":"Boluži","city":"Krīviņi","zip":"LV-5601"},"bumbieres":{"address":"Bumbieres","city":"Krīviņi","zip":"LV-5601"},"ceriņi":{"address":"Ceriņi","city":"Krīviņi","zip":"LV-5601"},"dārziņi":{"address":"Dārziņi","city":"Krīviņi","zip":"LV-5601"},"edi":{"address":"Edi","city":"Krīviņi","zip":"LV-5601"},"jāņa kriviņa mājas":{"address":"Jāņa Kriviņa mājas","city":"Krīviņi","zip":"LV-5601"},"jasmīni":{"address":"Jasmīni","city":"Krīviņi","zip":"LV-5601"},"jurīši":{"address":"Jurīši","city":"Krīviņi","zip":"LV-5601"},"kamenes":{"address":"Kamenes","city":"Krīviņi","zip":"LV-5601"},"karinas":{"address":"Karinas","city":"Krīviņi","zip":"LV-5601"},"kastaņziedi":{"address":"Kastaņziedi","city":"Krīviņi","zip":"LV-5601"},"krumani":{"address":"Krumani","city":"Krīviņi","zip":"LV-5601"},"ķemeri":{"address":"Ķemeri","city":"Krīviņi","zip":"LV-5601"},"laimītes":{"address":"Laimītes","city":"Krīviņi","zip":"LV-5601"},"laipas":{"address":"Laipas","city":"Krīviņi","zip":"LV-5601"},"liānas":{"address":"Liānas","city":"Krīviņi","zip":"LV-5601"},"lībieši":{"address":"Lībieši","city":"Krīviņi","zip":"LV-5601"},"martas":{"address":"Martas","city":"Krīviņi","zip":"LV-5601"},"mediņi":{"address":"Mediņi","city":"Krīviņi","zip":"LV-5601"},"mežiņi":{"address":"Mežiņi","city":"Krīviņi","zip":"LV-5601"},"ogulāji":{"address":"Ogulāji","city":"Krīviņi","zip":"LV-5601"},"oluti":{"address":"Oluti","city":"Krīviņi","zip":"LV-5601"},"piedaugavas":{"address":"Piedaugavas","city":"Krīviņi","zip":"LV-5601"},"pipari":{"address":"Pipari","city":"Krīviņi","zip":"LV-5601"},"plūmes":{"address":"Plūmes","city":"Krīviņi","zip":"LV-5601"},"putekļi":{"address":"Putekļi","city":"Krīviņi","zip":"LV-5601"},"rīdziņas":{"address":"Rīdziņas","city":"Krīviņi","zip":"LV-5601"},"rimšāni":{"address":"Rimšāni","city":"Krīviņi","zip":"LV-5601"},"saulupes":{"address":"Saulupes","city":"Krīviņi","zip":"LV-5601"},"senlejas":{"address":"Senlejas","city":"Krīviņi","zip":"LV-5601"},"siliņi":{"address":"Siliņi","city":"Krīviņi","zip":"LV-5601"},"smaidas":{"address":"Smaidas","city":"Krīviņi","zip":"LV-5601"},"smilgas":{"address":"Smilgas","city":"Krīviņi","zip":"LV-5601"},"svetlanas":{"address":"Svetlanas","city":"Krīviņi","zip":"LV-5601"},"tūjiņas":{"address":"Tūjiņas","city":"Krīviņi","zip":"LV-5601"},"valrieksti":{"address":"Valrieksti","city":"Krīviņi","zip":"LV-5601"},"vārpas":{"address":"Vārpas","city":"Krīviņi","zip":"LV-5601"}}