{"nordeki - 1":{"address":"Nordeki - 1","city":"Kārklinieki","zip":"LV-4561"},"nordeki - 2":{"address":"Nordeki - 2","city":"Kārklinieki","zip":"LV-4561"},"nordeki - 3":{"address":"Nordeki - 3","city":"Kārklinieki","zip":"LV-4561"},"kārkliņi 1 - 1":{"address":"Kārkliņi 1 - 1","city":"Vecumnieki","zip":"LV-3933"},"kārkliņi 1 - 2":{"address":"Kārkliņi 1 - 2","city":"Vecumnieki","zip":"LV-3933"},"kārkliņi - 1":{"address":"Kārkliņi - 1","city":"Borisova","zip":"LV-4585"},"kārkliņi - 2":{"address":"Kārkliņi - 2","city":"Borisova","zip":"LV-4585"},"kārkliņi - 3":{"address":"Kārkliņi - 3","city":"Borisova","zip":"LV-4585"},"kārkliņi - 4":{"address":"Kārkliņi - 4","city":"Borisova","zip":"LV-4585"},"kārkliņi - 5":{"address":"Kārkliņi - 5","city":"Borisova","zip":"LV-4585"},"kārkliņi - 6":{"address":"Kārkliņi - 6","city":"Borisova","zip":"LV-4585"},"kārkliņi - 7":{"address":"Kārkliņi - 7","city":"Borisova","zip":"LV-4585"},"kārkliņi - 8":{"address":"Kārkliņi - 8","city":"Borisova","zip":"LV-4585"},"kārkliņi - 9":{"address":"Kārkliņi - 9","city":"Borisova","zip":"LV-4585"},"kārkliņi - 10":{"address":"Kārkliņi - 10","city":"Borisova","zip":"LV-4585"},"kārkliņi - 11":{"address":"Kārkliņi - 11","city":"Borisova","zip":"LV-4585"},"kārkliņi - 12":{"address":"Kārkliņi - 12","city":"Borisova","zip":"LV-4585"},"kārkliņi - 13":{"address":"Kārkliņi - 13","city":"Borisova","zip":"LV-4585"},"kārkliņi - 14":{"address":"Kārkliņi - 14","city":"Borisova","zip":"LV-4585"},"kārkliņi - 15":{"address":"Kārkliņi - 15","city":"Borisova","zip":"LV-4585"},"kārkliņi - 16":{"address":"Kārkliņi - 16","city":"Borisova","zip":"LV-4585"},"kārkliņi - 17":{"address":"Kārkliņi - 17","city":"Borisova","zip":"LV-4585"},"kārkliņi - 18":{"address":"Kārkliņi - 18","city":"Borisova","zip":"LV-4585"},"kārkli":{"address":"Kārkli","city":"Akmeņrūči","zip":"LV-4572"},"kārkliņi":{"address":"Kārkliņi","city":"Vērsis","zip":"LV-4242"},"ozoliņi":{"address":"Ozoliņi","city":"Kārklinieki","zip":"LV-4561"},"ozolu mājas":{"address":"Ozolu mājas","city":"Kārklinieki","zip":"LV-4561"},"priežu mājas":{"address":"Priežu mājas","city":"Kārklinieki","zip":"LV-4561"},"kārklinieki":{"address":"Kārklinieki","city":"Naudaskalns","zip":"LV-4561"},"čipi":{"address":"Čipi","city":"Kārklinieki","zip":"LV-4561"},"drīzuļi":{"address":"Drīzuļi","city":"Kārklinieki","zip":"LV-4561"},"guntari":{"address":"Guntari","city":"Kārklinieki","zip":"LV-4561"},"lilijas":{"address":"Lilijas","city":"Kārklinieki","zip":"LV-4561"},"nordeki":{"address":"Nordeki","city":"Kārklinieki","zip":"LV-4561"}}