{"kļavas - 1":{"address":"Kļavas - 1","city":"Ungurpils","zip":"LV-4064"},"kļavas - 2":{"address":"Kļavas - 2","city":"Ungurpils","zip":"LV-4064"},"kļavas - 3":{"address":"Kļavas - 3","city":"Ungurpils","zip":"LV-4064"},"kļavas - 4":{"address":"Kļavas - 4","city":"Ungurpils","zip":"LV-4064"},"kļavas - 5":{"address":"Kļavas - 5","city":"Ungurpils","zip":"LV-4064"},"kļavas - 6":{"address":"Kļavas - 6","city":"Braslava","zip":"LV-4068"},"kļavas - 7":{"address":"Kļavas - 7","city":"Braslava","zip":"LV-4068"},"kļavas - 8":{"address":"Kļavas - 8","city":"Braslava","zip":"LV-4068"},"kļavas - 9":{"address":"Kļavas - 9","city":"Braslava","zip":"LV-4068"},"kļavas - 10":{"address":"Kļavas - 10","city":"Braslava","zip":"LV-4068"},"kļavas - 11":{"address":"Kļavas - 11","city":"Braslava","zip":"LV-4068"},"kļavas - 12":{"address":"Kļavas - 12","city":"Braslava","zip":"LV-4068"},"kļavas - 13":{"address":"Kļavas - 13","city":"Kalncempji","zip":"LV-4342"},"kļavas - 14":{"address":"Kļavas - 14","city":"Kalncempji","zip":"LV-4342"},"kļavas - 15":{"address":"Kļavas - 15","city":"Kalncempji","zip":"LV-4342"},"kļavas - 16":{"address":"Kļavas - 16","city":"Kalncempji","zip":"LV-4342"},"kļavas - 17":{"address":"Kļavas - 17","city":"Kalncempji","zip":"LV-4342"},"kļavas - 18":{"address":"Kļavas - 18","city":"Kalncempji","zip":"LV-4342"},"kļavas 1 - 4":{"address":"Kļavas 1 - 4","city":"Ineši","zip":"LV-4123"},"kļavas 1 - 3":{"address":"Kļavas 1 - 3","city":"Ineši","zip":"LV-4123"},"kļavas 1 - 2":{"address":"Kļavas 1 - 2","city":"Ineši","zip":"LV-4123"},"kļavas 1 - 1":{"address":"Kļavas 1 - 1","city":"Ineši","zip":"LV-4123"}}