{"lakstīgalu iela 2 - 1":{"address":"Lakstīgalu iela 2 - 1","city":"Vecumnieki","zip":"LV-3933"},"lakstīgalu iela 2 - 2":{"address":"Lakstīgalu iela 2 - 2","city":"Vecumnieki","zip":"LV-3933"},"lakstīgalu iela 2 - 3":{"address":"Lakstīgalu iela 2 - 3","city":"Vecružina","zip":"LV-4636"},"lakstīgalu iela 2 - 4":{"address":"Lakstīgalu iela 2 - 4","city":"Vecružina","zip":"LV-4636"},"lakstīgalu iela 2 - 5":{"address":"Lakstīgalu iela 2 - 5","city":"Vecružina","zip":"LV-4636"},"lakstīgalu iela 2 - 6":{"address":"Lakstīgalu iela 2 - 6","city":"Vecružina","zip":"LV-4636"},"lakstīgalu iela 2 - 7":{"address":"Lakstīgalu iela 2 - 7","city":"Vecružina","zip":"LV-4636"},"lakstīgalu iela 2 - 8":{"address":"Lakstīgalu iela 2 - 8","city":"Vecružina","zip":"LV-4636"},"lakstīgalu iela 2 - 9":{"address":"Lakstīgalu iela 2 - 9","city":"Vecružina","zip":"LV-4636"},"lakstīgalu iela 2 - 10":{"address":"Lakstīgalu iela 2 - 10","city":"Vecružina","zip":"LV-4636"},"lakstīgalu iela 2 - 11":{"address":"Lakstīgalu iela 2 - 11","city":"Vecružina","zip":"LV-4636"},"lakstīgalu iela 2 - 12":{"address":"Lakstīgalu iela 2 - 12","city":"Vecružina","zip":"LV-4636"},"lakstīgalu iela 2 - 13":{"address":"Lakstīgalu iela 2 - 13","city":"Vecružina","zip":"LV-4636"},"lakstīgalu iela 2 - 14":{"address":"Lakstīgalu iela 2 - 14","city":"Vecružina","zip":"LV-4636"},"lakstīgalu iela 2 - 15":{"address":"Lakstīgalu iela 2 - 15","city":"Vecružina","zip":"LV-4636"},"lakstīgalu iela 2 - 16":{"address":"Lakstīgalu iela 2 - 16","city":"Vecružina","zip":"LV-4636"},"lakstīgalu iela 2 - 17":{"address":"Lakstīgalu iela 2 - 17","city":"Vecružina","zip":"LV-4636"},"lakstīgalu iela 2 - 18":{"address":"Lakstīgalu iela 2 - 18","city":"Vecružina","zip":"LV-4636"},"lakstīgalu iela 3 - 5":{"address":"Lakstīgalu iela 3 - 5","city":"Vecružina","zip":"LV-4636"},"lakstīgalu iela 1 - 1":{"address":"Lakstīgalu iela 1 - 1","city":"Vecružina","zip":"LV-4636"},"lakstīgalu iela 1 - 2":{"address":"Lakstīgalu iela 1 - 2","city":"Vecružina","zip":"LV-4636"},"lakstīgalu iela 1 - 3":{"address":"Lakstīgalu iela 1 - 3","city":"Vecružina","zip":"LV-4636"},"lakstīgalu iela 1 - 4":{"address":"Lakstīgalu iela 1 - 4","city":"Vecružina","zip":"LV-4636"},"lakstīgalu iela 1 - 5":{"address":"Lakstīgalu iela 1 - 5","city":"Vecružina","zip":"LV-4636"},"lakstīgalu iela 1 - 6":{"address":"Lakstīgalu iela 1 - 6","city":"Vecružina","zip":"LV-4636"},"lakstīgalu iela 1 - 7":{"address":"Lakstīgalu iela 1 - 7","city":"Vecružina","zip":"LV-4636"},"lakstīgalu iela 1 - 8":{"address":"Lakstīgalu iela 1 - 8","city":"Vecružina","zip":"LV-4636"},"lakstīgalu iela 1 - 9":{"address":"Lakstīgalu iela 1 - 9","city":"Vecružina","zip":"LV-4636"},"lakstīgalu iela 1 - 10":{"address":"Lakstīgalu iela 1 - 10","city":"Vecružina","zip":"LV-4636"},"lakstīgalu iela 1 - 11":{"address":"Lakstīgalu iela 1 - 11","city":"Vecružina","zip":"LV-4636"},"lakstīgalu iela 1 - 12":{"address":"Lakstīgalu iela 1 - 12","city":"Vecružina","zip":"LV-4636"},"lakstīgalu iela 1 - 16":{"address":"Lakstīgalu iela 1 - 16","city":"Vecružina","zip":"LV-4636"},"lakstīgalu iela 1 - 13":{"address":"Lakstīgalu iela 1 - 13","city":"Vecružina","zip":"LV-4636"},"lakstīgalu iela 1 - 14":{"address":"Lakstīgalu iela 1 - 14","city":"Vecružina","zip":"LV-4636"},"lakstīgalu iela 1 - 15":{"address":"Lakstīgalu iela 1 - 15","city":"Vecružina","zip":"LV-4636"},"lakstīgalu iela 1 - 17":{"address":"Lakstīgalu iela 1 - 17","city":"Vecružina","zip":"LV-4636"},"lakstīgalu iela 1 - 18":{"address":"Lakstīgalu iela 1 - 18","city":"Vecružina","zip":"LV-4636"}}