{"jēkabiņi - 1":{"address":"Jēkabiņi - 1","city":"Lakšinīki","zip":"LV-5725"},"jēkabiņi - 2":{"address":"Jēkabiņi - 2","city":"Lakšinīki","zip":"LV-5725"},"lakši":{"address":"Lakši","city":"Barkāni","zip":"LV-5717"},"graviņas":{"address":"Graviņas","city":"Ļaksi","zip":"LV-5671"},"mežvidu katoļu baznīca":{"address":"Mežvidu Katoļu baznīca","city":"Lakšinīki","zip":"LV-5725"},"vanagi":{"address":"Vanagi","city":"Lakšinīki","zip":"LV-5725"},"jēkabiņi":{"address":"Jēkabiņi","city":"Lakšinīki","zip":"LV-5725"},"smilšdobes":{"address":"Smilšdobes","city":"Lakšinīki","zip":"LV-5725"},"čudarāni":{"address":"Čudarāni","city":"Lakšinīki","zip":"LV-5725"},"čuderi":{"address":"Čuderi","city":"Lakšinīki","zip":"LV-5725"},"birztala":{"address":"Birztala","city":"Lakšinīki","zip":"LV-5725"},"kastaņas":{"address":"Kastaņas","city":"Lakšinīki","zip":"LV-5725"},"lapas":{"address":"Lapas","city":"Lakšinīki","zip":"LV-5725"},"pūcītes":{"address":"Pūcītes","city":"Lakšinīki","zip":"LV-5725"},"purmaļi":{"address":"Purmaļi","city":"Lakšinīki","zip":"LV-5725"},"ļaksi":{"address":"Ļaksi","city":"Murāni","zip":"LV-5696"},"baltkalnes":{"address":"Baltkalnes","city":"Ļaksi","zip":"LV-5671"},"kadiķi":{"address":"Kadiķi","city":"Ļaksi","zip":"LV-5671"},"sapņi":{"address":"Sapņi","city":"Ļaksi","zip":"LV-5671"},"ļakši":{"address":"Ļakši","city":"Makarovka","zip":"LV-5311"},"ainava":{"address":"Ainava","city":"Lakši","zip":"LV-4645"},"aizkalni":{"address":"Aizkalni","city":"Lakši","zip":"LV-4645"},"ceļmalas":{"address":"Ceļmalas","city":"Lakši","zip":"LV-4645"},"kalostiņi":{"address":"Kalostiņi","city":"Lakši","zip":"LV-4645"},"efejas":{"address":"Efejas","city":"Lakši","zip":"LV-4645"}}