{"lapegles - 1":{"address":"Lapegles - 1","city":"Muižnieki","zip":"LV-5695"},"lapegles - 2":{"address":"Lapegles - 2","city":"Muižnieki","zip":"LV-5695"},"lapegles - 3":{"address":"Lapegles - 3","city":"Muižnieki","zip":"LV-5695"},"lapegles - 4":{"address":"Lapegles - 4","city":"Muižnieki","zip":"LV-5695"},"lapegles - 5":{"address":"Lapegles - 5","city":"Muižnieki","zip":"LV-5695"},"lapegles - 6":{"address":"Lapegles - 6","city":"Muižnieki","zip":"LV-5695"},"lapegles - 7":{"address":"Lapegles - 7","city":"Muižnieki","zip":"LV-5695"},"lapegles - 8":{"address":"Lapegles - 8","city":"Muižnieki","zip":"LV-5695"},"lapegles - 9":{"address":"Lapegles - 9","city":"Muižnieki","zip":"LV-5695"},"lapegles - 10":{"address":"Lapegles - 10","city":"Muižnieki","zip":"LV-5695"},"lapegles - 11":{"address":"Lapegles - 11","city":"Muižnieki","zip":"LV-5695"},"lapegles - 12":{"address":"Lapegles - 12","city":"Muižnieki","zip":"LV-5695"},"lapegles - 13":{"address":"Lapegles - 13","city":"Rundēni","zip":"LV-5739"},"lapegles - 14":{"address":"Lapegles - 14","city":"Rundēni","zip":"LV-5739"},"lapegles - 15":{"address":"Lapegles - 15","city":"Rundēni","zip":"LV-5739"},"lapegles - 16":{"address":"Lapegles - 16","city":"Rundēni","zip":"LV-5739"},"lapegles - 17":{"address":"Lapegles - 17","city":"Rundēni","zip":"LV-5739"},"lapegles - 18":{"address":"Lapegles - 18","city":"Rundēni","zip":"LV-5739"},"lapegles":{"address":"Lapegles","city":"Cērkste","zip":"LV-3129"},"lapegles 1":{"address":"Lapegles 1","city":"Apari","zip":"LV-4638"},"lapegles iela 11":{"address":"Lapegles iela 11","city":"Vārzas","zip":"LV-4025"},"lapegles iela 6":{"address":"Lapegles iela 6","city":"Vārzas","zip":"LV-4025"},"lapegles iela 5":{"address":"Lapegles iela 5","city":"Vārzas","zip":"LV-4025"},"lapegles iela 3":{"address":"Lapegles iela 3","city":"Vārzas","zip":"LV-4025"}}