{"lauciņi - 1":{"address":"Lauciņi - 1","city":"Ance","zip":"LV-3612"},"lauciņi - 2":{"address":"Lauciņi - 2","city":"Ance","zip":"LV-3612"},"lauciņi - 3":{"address":"Lauciņi - 3","city":"Ceriņi","zip":"LV-3701"},"lauciņi - 4":{"address":"Lauciņi - 4","city":"Ceriņi","zip":"LV-3701"},"lauciņi 2 - 1":{"address":"Lauciņi 2 - 1","city":"Laukmuiža","zip":"LV-3270"},"lauciņi 2 - 2":{"address":"Lauciņi 2 - 2","city":"Laukmuiža","zip":"LV-3270"},"lauciņi 1 - 1":{"address":"Lauciņi 1 - 1","city":"Laukmuiža","zip":"LV-3270"},"lauciņi 1 - 2":{"address":"Lauciņi 1 - 2","city":"Laukmuiža","zip":"LV-3270"},"lauciņi 1 - 3":{"address":"Lauciņi 1 - 3","city":"Laukmuiža","zip":"LV-3270"},"lauciņi 1 - 4":{"address":"Lauciņi 1 - 4","city":"Laukmuiža","zip":"LV-3270"},"lauciņi 1 - 5":{"address":"Lauciņi 1 - 5","city":"Laukmuiža","zip":"LV-3270"},"lauciņi 1 - 6":{"address":"Lauciņi 1 - 6","city":"Laukmuiža","zip":"LV-3270"},"lauciņi 1 - 7":{"address":"Lauciņi 1 - 7","city":"Laukmuiža","zip":"LV-3270"},"lauciņi 1 - 8":{"address":"Lauciņi 1 - 8","city":"Laukmuiža","zip":"LV-3270"},"lauciņi 1 - 9":{"address":"Lauciņi 1 - 9","city":"Laukmuiža","zip":"LV-3270"},"lauciņi 1 - 10":{"address":"Lauciņi 1 - 10","city":"Laukmuiža","zip":"LV-3270"},"lauciņi 1 - 11":{"address":"Lauciņi 1 - 11","city":"Laukmuiža","zip":"LV-3270"},"lauciņi 1 - 12":{"address":"Lauciņi 1 - 12","city":"Laukmuiža","zip":"LV-3270"},"lauciņi 1 - 13":{"address":"Lauciņi 1 - 13","city":"Laukmuiža","zip":"LV-3270"},"lauciņi":{"address":"Lauciņi","city":"Muļči","zip":"LV-5735"},"lauciņi 2":{"address":"Lauciņi 2","city":"Laukmuiža","zip":"LV-3270"},"lauciņi 1":{"address":"Lauciņi 1","city":"Ragaviki","zip":"LV-5334"}}