{"viestura laukums 9 - 35":{"address":"Viestura laukums 9 - 35","city":"Valmiermuiža","zip":"LV-4219"},"viestura laukums 9 - 36":{"address":"Viestura laukums 9 - 36","city":"Valmiermuiža","zip":"LV-4219"},"viestura laukums 9 - 37":{"address":"Viestura laukums 9 - 37","city":"Valmiermuiža","zip":"LV-4219"},"viestura laukums 9 - 38":{"address":"Viestura laukums 9 - 38","city":"Valmiermuiža","zip":"LV-4219"},"viestura laukums 9 - 39":{"address":"Viestura laukums 9 - 39","city":"Valmiermuiža","zip":"LV-4219"},"viestura laukums 9 - 1":{"address":"Viestura laukums 9 - 1","city":"Valmiermuiža","zip":"LV-4219"},"viestura laukums 9 - 2":{"address":"Viestura laukums 9 - 2","city":"Valmiermuiža","zip":"LV-4219"},"viestura laukums 9 - 3":{"address":"Viestura laukums 9 - 3","city":"Valmiermuiža","zip":"LV-4219"},"viestura laukums 9 - 4":{"address":"Viestura laukums 9 - 4","city":"Valmiermuiža","zip":"LV-4219"},"viestura laukums 9 - 5":{"address":"Viestura laukums 9 - 5","city":"Valmiermuiža","zip":"LV-4219"},"viestura laukums 9 - 6":{"address":"Viestura laukums 9 - 6","city":"Valmiermuiža","zip":"LV-4219"},"viestura laukums 9 - 7":{"address":"Viestura laukums 9 - 7","city":"Valmiermuiža","zip":"LV-4219"},"viestura laukums 9 - 8":{"address":"Viestura laukums 9 - 8","city":"Valmiermuiža","zip":"LV-4219"},"viestura laukums 9 - 9":{"address":"Viestura laukums 9 - 9","city":"Valmiermuiža","zip":"LV-4219"},"viestura laukums 9 - 10":{"address":"Viestura laukums 9 - 10","city":"Valmiermuiža","zip":"LV-4219"},"viestura laukums 9 - 11":{"address":"Viestura laukums 9 - 11","city":"Valmiermuiža","zip":"LV-4219"},"viestura laukums 9 - 12":{"address":"Viestura laukums 9 - 12","city":"Valmiermuiža","zip":"LV-4219"},"viestura laukums 9 - 13":{"address":"Viestura laukums 9 - 13","city":"Valmiermuiža","zip":"LV-4219"},"viestura laukums 9 - 14":{"address":"Viestura laukums 9 - 14","city":"Valmiermuiža","zip":"LV-4219"},"viestura laukums 9 - 15":{"address":"Viestura laukums 9 - 15","city":"Valmiermuiža","zip":"LV-4219"},"viestura laukums 9 - 16":{"address":"Viestura laukums 9 - 16","city":"Valmiermuiža","zip":"LV-4219"},"viestura laukums 9 - 17":{"address":"Viestura laukums 9 - 17","city":"Valmiermuiža","zip":"LV-4219"},"viestura laukums 9 - 18":{"address":"Viestura laukums 9 - 18","city":"Valmiermuiža","zip":"LV-4219"},"viestura laukums 9 - 19":{"address":"Viestura laukums 9 - 19","city":"Valmiermuiža","zip":"LV-4219"},"viestura laukums 9 - 20":{"address":"Viestura laukums 9 - 20","city":"Valmiermuiža","zip":"LV-4219"},"viestura laukums 9 - 21":{"address":"Viestura laukums 9 - 21","city":"Valmiermuiža","zip":"LV-4219"},"viestura laukums 9 - 22":{"address":"Viestura laukums 9 - 22","city":"Valmiermuiža","zip":"LV-4219"},"viestura laukums 9 - 23":{"address":"Viestura laukums 9 - 23","city":"Valmiermuiža","zip":"LV-4219"},"viestura laukums 9 - 24":{"address":"Viestura laukums 9 - 24","city":"Valmiermuiža","zip":"LV-4219"},"viestura laukums 9 - 25":{"address":"Viestura laukums 9 - 25","city":"Valmiermuiža","zip":"LV-4219"},"viestura laukums 9 - 26":{"address":"Viestura laukums 9 - 26","city":"Valmiermuiža","zip":"LV-4219"},"viestura laukums 9 - 27":{"address":"Viestura laukums 9 - 27","city":"Valmiermuiža","zip":"LV-4219"},"viestura laukums 9 - 28":{"address":"Viestura laukums 9 - 28","city":"Valmiermuiža","zip":"LV-4219"},"viestura laukums 9 - 29":{"address":"Viestura laukums 9 - 29","city":"Valmiermuiža","zip":"LV-4219"},"viestura laukums 9 - 30":{"address":"Viestura laukums 9 - 30","city":"Valmiermuiža","zip":"LV-4219"},"viestura laukums 9 - 31":{"address":"Viestura laukums 9 - 31","city":"Valmiermuiža","zip":"LV-4219"},"viestura laukums 9 - 32":{"address":"Viestura laukums 9 - 32","city":"Valmiermuiža","zip":"LV-4219"},"viestura laukums 9 - 33":{"address":"Viestura laukums 9 - 33","city":"Valmiermuiža","zip":"LV-4219"},"viestura laukums 6 - 1":{"address":"Viestura laukums 6 - 1","city":"Valmiermuiža","zip":"LV-4219"},"viestura laukums 6 - 2":{"address":"Viestura laukums 6 - 2","city":"Valmiermuiža","zip":"LV-4219"},"viestura laukums 6 - 3":{"address":"Viestura laukums 6 - 3","city":"Valmiermuiža","zip":"LV-4219"},"viestura laukums 6 - 4":{"address":"Viestura laukums 6 - 4","city":"Valmiermuiža","zip":"LV-4219"},"viestura laukums 6 - 5":{"address":"Viestura laukums 6 - 5","city":"Valmiermuiža","zip":"LV-4219"},"viestura laukums 6 - 6":{"address":"Viestura laukums 6 - 6","city":"Valmiermuiža","zip":"LV-4219"},"viestura laukums 6 - 7":{"address":"Viestura laukums 6 - 7","city":"Valmiermuiža","zip":"LV-4219"},"viestura laukums 6 - 8":{"address":"Viestura laukums 6 - 8","city":"Valmiermuiža","zip":"LV-4219"},"viestura laukums 6 - 9":{"address":"Viestura laukums 6 - 9","city":"Valmiermuiža","zip":"LV-4219"},"viestura laukums 6 - 10":{"address":"Viestura laukums 6 - 10","city":"Valmiermuiža","zip":"LV-4219"},"viestura laukums 6 - 11":{"address":"Viestura laukums 6 - 11","city":"Valmiermuiža","zip":"LV-4219"},"viestura laukums 6 - 12":{"address":"Viestura laukums 6 - 12","city":"Valmiermuiža","zip":"LV-4219"},"viestura laukums 6 - 13":{"address":"Viestura laukums 6 - 13","city":"Valmiermuiža","zip":"LV-4219"},"viestura laukums 6 - 14":{"address":"Viestura laukums 6 - 14","city":"Valmiermuiža","zip":"LV-4219"},"viestura laukums 6 - 15":{"address":"Viestura laukums 6 - 15","city":"Valmiermuiža","zip":"LV-4219"},"viestura laukums 6 - 16":{"address":"Viestura laukums 6 - 16","city":"Valmiermuiža","zip":"LV-4219"},"viestura laukums 6 - 17":{"address":"Viestura laukums 6 - 17","city":"Valmiermuiža","zip":"LV-4219"},"viestura laukums 6 - 18":{"address":"Viestura laukums 6 - 18","city":"Valmiermuiža","zip":"LV-4219"},"viestura laukums 1 - 1":{"address":"Viestura laukums 1 - 1","city":"Valmiermuiža","zip":"LV-4219"},"viestura laukums 1 - 2":{"address":"Viestura laukums 1 - 2","city":"Valmiermuiža","zip":"LV-4219"},"viestura laukums 1 - 3":{"address":"Viestura laukums 1 - 3","city":"Valmiermuiža","zip":"LV-4219"},"viestura laukums 1 - 4":{"address":"Viestura laukums 1 - 4","city":"Valmiermuiža","zip":"LV-4219"},"viestura laukums 1 - 5":{"address":"Viestura laukums 1 - 5","city":"Valmiermuiža","zip":"LV-4219"},"viestura laukums 1 - 6":{"address":"Viestura laukums 1 - 6","city":"Valmiermuiža","zip":"LV-4219"},"viestura laukums 1 - 7":{"address":"Viestura laukums 1 - 7","city":"Valmiermuiža","zip":"LV-4219"},"viestura laukums 1 - 8":{"address":"Viestura laukums 1 - 8","city":"Valmiermuiža","zip":"LV-4219"},"viestura laukums 1 - 9":{"address":"Viestura laukums 1 - 9","city":"Valmiermuiža","zip":"LV-4219"},"viestura laukums 1 - 10":{"address":"Viestura laukums 1 - 10","city":"Valmiermuiža","zip":"LV-4219"},"viestura laukums 1 - 11":{"address":"Viestura laukums 1 - 11","city":"Valmiermuiža","zip":"LV-4219"},"viestura laukums 1 - 12":{"address":"Viestura laukums 1 - 12","city":"Valmiermuiža","zip":"LV-4219"},"viestura laukums 1 - 13":{"address":"Viestura laukums 1 - 13","city":"Valmiermuiža","zip":"LV-4219"},"viestura laukums 1 - 14":{"address":"Viestura laukums 1 - 14","city":"Valmiermuiža","zip":"LV-4219"},"viestura laukums 1 - 15":{"address":"Viestura laukums 1 - 15","city":"Valmiermuiža","zip":"LV-4219"},"viestura laukums 1 - 16":{"address":"Viestura laukums 1 - 16","city":"Valmiermuiža","zip":"LV-4219"},"viestura laukums 1 - 17":{"address":"Viestura laukums 1 - 17","city":"Valmiermuiža","zip":"LV-4219"},"viestura laukums 1 - 18":{"address":"Viestura laukums 1 - 18","city":"Valmiermuiža","zip":"LV-4219"},"viestura laukums 2 - 1":{"address":"Viestura laukums 2 - 1","city":"Valmiermuiža","zip":"LV-4219"},"viestura laukums 2 - 2":{"address":"Viestura laukums 2 - 2","city":"Valmiermuiža","zip":"LV-4219"},"viestura laukums 2 - 3":{"address":"Viestura laukums 2 - 3","city":"Valmiermuiža","zip":"LV-4219"},"viestura laukums 2 - 4":{"address":"Viestura laukums 2 - 4","city":"Valmiermuiža","zip":"LV-4219"},"viestura laukums 2 - 5":{"address":"Viestura laukums 2 - 5","city":"Valmiermuiža","zip":"LV-4219"},"viestura laukums 2 - 6":{"address":"Viestura laukums 2 - 6","city":"Valmiermuiža","zip":"LV-4219"},"viestura laukums 2 - 7":{"address":"Viestura laukums 2 - 7","city":"Valmiermuiža","zip":"LV-4219"},"viestura laukums 2 - 8":{"address":"Viestura laukums 2 - 8","city":"Valmiermuiža","zip":"LV-4219"},"viestura laukums 2 - 9":{"address":"Viestura laukums 2 - 9","city":"Valmiermuiža","zip":"LV-4219"},"viestura laukums 2 - 10":{"address":"Viestura laukums 2 - 10","city":"Valmiermuiža","zip":"LV-4219"},"viestura laukums 2 - 11":{"address":"Viestura laukums 2 - 11","city":"Valmiermuiža","zip":"LV-4219"},"viestura laukums 2 - 12":{"address":"Viestura laukums 2 - 12","city":"Valmiermuiža","zip":"LV-4219"},"viestura laukums 2 - 13":{"address":"Viestura laukums 2 - 13","city":"Valmiermuiža","zip":"LV-4219"},"viestura laukums 2 - 14":{"address":"Viestura laukums 2 - 14","city":"Valmiermuiža","zip":"LV-4219"},"viestura laukums 2 - 15":{"address":"Viestura laukums 2 - 15","city":"Valmiermuiža","zip":"LV-4219"},"viestura laukums 2 - 16":{"address":"Viestura laukums 2 - 16","city":"Valmiermuiža","zip":"LV-4219"},"viestura laukums 2 - 17":{"address":"Viestura laukums 2 - 17","city":"Valmiermuiža","zip":"LV-4219"},"viestura laukums 2 - 18":{"address":"Viestura laukums 2 - 18","city":"Valmiermuiža","zip":"LV-4219"},"viestura laukums 3 - 1":{"address":"Viestura laukums 3 - 1","city":"Valmiermuiža","zip":"LV-4219"},"viestura laukums 3 - 2":{"address":"Viestura laukums 3 - 2","city":"Valmiermuiža","zip":"LV-4219"},"viestura laukums 3 - 3":{"address":"Viestura laukums 3 - 3","city":"Valmiermuiža","zip":"LV-4219"},"viestura laukums 3 - 4":{"address":"Viestura laukums 3 - 4","city":"Valmiermuiža","zip":"LV-4219"},"viestura laukums 3 - 5":{"address":"Viestura laukums 3 - 5","city":"Valmiermuiža","zip":"LV-4219"},"viestura laukums 3 - 6":{"address":"Viestura laukums 3 - 6","city":"Valmiermuiža","zip":"LV-4219"},"viestura laukums 3 - 7":{"address":"Viestura laukums 3 - 7","city":"Valmiermuiža","zip":"LV-4219"},"viestura laukums 3 - 8":{"address":"Viestura laukums 3 - 8","city":"Valmiermuiža","zip":"LV-4219"}}