{"skorpionu lauks - 1":{"address":"Skorpionu lauks - 1","city":"Lielie Garanči","zip":"LV-4601"},"skorpionu lauks - 2":{"address":"Skorpionu lauks - 2","city":"Lielie Garanči","zip":"LV-4601"},"lauksaimniecības skola 18 - 1":{"address":"Lauksaimniecības Skola 18 - 1","city":"Jaungulbene","zip":"LV-4420"},"lauksaimniecības skola 18 - 2":{"address":"Lauksaimniecības Skola 18 - 2","city":"Jaungulbene","zip":"LV-4420"},"lauksaimniecības skola 18 - 3":{"address":"Lauksaimniecības Skola 18 - 3","city":"Jaungulbene","zip":"LV-4420"},"lauksaimniecības skola 18 - 4":{"address":"Lauksaimniecības Skola 18 - 4","city":"Jaungulbene","zip":"LV-4420"},"lauksaimniecības skola 28 - 1":{"address":"Lauksaimniecības Skola 28 - 1","city":"Jaungulbene","zip":"LV-4420"},"lauksaimniecības skola 28 - 2":{"address":"Lauksaimniecības Skola 28 - 2","city":"Jaungulbene","zip":"LV-4420"},"lauksaimniecības skola 20a - 1":{"address":"Lauksaimniecības Skola 20A - 1","city":"Jaungulbene","zip":"LV-4420"},"lauksaimniecības skola 20a - 2":{"address":"Lauksaimniecības Skola 20A - 2","city":"Jaungulbene","zip":"LV-4420"},"lauksaimniecības skola 20a - 3":{"address":"Lauksaimniecības Skola 20A - 3","city":"Jaungulbene","zip":"LV-4420"},"lauksaimniecības skola 20a - 4":{"address":"Lauksaimniecības Skola 20A - 4","city":"Jaungulbene","zip":"LV-4420"},"lauksaimniecības skola 20a - 5":{"address":"Lauksaimniecības Skola 20A - 5","city":"Jaungulbene","zip":"LV-4420"},"lauksaimniecības skola 20a - 6":{"address":"Lauksaimniecības Skola 20A - 6","city":"Jaungulbene","zip":"LV-4420"},"lauksaimniecības skola 20a - 7":{"address":"Lauksaimniecības Skola 20A - 7","city":"Jaungulbene","zip":"LV-4420"},"lauksaimniecības skola 20a - 8":{"address":"Lauksaimniecības Skola 20A - 8","city":"Jaungulbene","zip":"LV-4420"},"lauksaimniecības skola 20a - 9":{"address":"Lauksaimniecības Skola 20A - 9","city":"Jaungulbene","zip":"LV-4420"},"lauksaimniecības skola 20a - 10":{"address":"Lauksaimniecības Skola 20A - 10","city":"Jaungulbene","zip":"LV-4420"},"lauksaimniecības skola 20a - 11":{"address":"Lauksaimniecības Skola 20A - 11","city":"Jaungulbene","zip":"LV-4420"},"lauksaimniecības skola 20a - 12":{"address":"Lauksaimniecības Skola 20A - 12","city":"Jaungulbene","zip":"LV-4420"},"lauksaimniecības skola 20a - 13":{"address":"Lauksaimniecības Skola 20A - 13","city":"Jaungulbene","zip":"LV-4420"},"lauksaimniecības skola 20a - 14":{"address":"Lauksaimniecības Skola 20A - 14","city":"Jaungulbene","zip":"LV-4420"},"lauksaimniecības skola 20a - 15":{"address":"Lauksaimniecības Skola 20A - 15","city":"Jaungulbene","zip":"LV-4420"},"lauksaimniecības skola 20a - 16":{"address":"Lauksaimniecības Skola 20A - 16","city":"Jaungulbene","zip":"LV-4420"},"lauksaimniecības skola 20a - 17":{"address":"Lauksaimniecības Skola 20A - 17","city":"Jaungulbene","zip":"LV-4420"},"lauksaimniecības skola 20a - 18":{"address":"Lauksaimniecības Skola 20A - 18","city":"Jaungulbene","zip":"LV-4420"},"lauksaimniecības skola 15 - 1":{"address":"Lauksaimniecības Skola 15 - 1","city":"Jaungulbene","zip":"LV-4420"},"lauksaimniecības skola 15 - 2":{"address":"Lauksaimniecības Skola 15 - 2","city":"Jaungulbene","zip":"LV-4420"},"lauksaimniecības skola 15 - 3":{"address":"Lauksaimniecības Skola 15 - 3","city":"Jaungulbene","zip":"LV-4420"},"lauksaimniecības skola 13 - 1":{"address":"Lauksaimniecības Skola 13 - 1","city":"Jaungulbene","zip":"LV-4420"},"lauksaimniecības skola 13 - 2":{"address":"Lauksaimniecības Skola 13 - 2","city":"Jaungulbene","zip":"LV-4420"},"lauksaimniecības skola 13 - 3":{"address":"Lauksaimniecības Skola 13 - 3","city":"Jaungulbene","zip":"LV-4420"},"lauksaimniecības skola 16 - 1":{"address":"Lauksaimniecības Skola 16 - 1","city":"Jaungulbene","zip":"LV-4420"},"lauksaimniecības skola 16 - 2":{"address":"Lauksaimniecības Skola 16 - 2","city":"Jaungulbene","zip":"LV-4420"},"lauksaimniecības skola 16 - 3":{"address":"Lauksaimniecības Skola 16 - 3","city":"Jaungulbene","zip":"LV-4420"},"lauksaimniecības skola 16 - 4":{"address":"Lauksaimniecības Skola 16 - 4","city":"Jaungulbene","zip":"LV-4420"},"lauksaimniecības skola 16 - 5":{"address":"Lauksaimniecības Skola 16 - 5","city":"Jaungulbene","zip":"LV-4420"},"lauksaimniecības skola 16 - 6":{"address":"Lauksaimniecības Skola 16 - 6","city":"Jaungulbene","zip":"LV-4420"},"lauksaimniecības skola 16 - 7":{"address":"Lauksaimniecības Skola 16 - 7","city":"Jaungulbene","zip":"LV-4420"},"lauksaimniecības skola 16 - 8":{"address":"Lauksaimniecības Skola 16 - 8","city":"Jaungulbene","zip":"LV-4420"},"lauksaimniecības skola 16 - 9":{"address":"Lauksaimniecības Skola 16 - 9","city":"Jaungulbene","zip":"LV-4420"},"lauksaimniecības skola 16 - 10":{"address":"Lauksaimniecības Skola 16 - 10","city":"Jaungulbene","zip":"LV-4420"},"lauksaimniecības skola 16 - 11":{"address":"Lauksaimniecības Skola 16 - 11","city":"Jaungulbene","zip":"LV-4420"},"lauksaimniecības skola 16 - 12":{"address":"Lauksaimniecības Skola 16 - 12","city":"Jaungulbene","zip":"LV-4420"},"lauksaimniecības skola 20 - 12":{"address":"Lauksaimniecības Skola 20 - 12","city":"Jaungulbene","zip":"LV-4420"},"lauksaimniecības skola 20 - 7":{"address":"Lauksaimniecības Skola 20 - 7","city":"Jaungulbene","zip":"LV-4420"},"lauksaimniecības skola 20 - 16":{"address":"Lauksaimniecības Skola 20 - 16","city":"Jaungulbene","zip":"LV-4420"},"lauksaimniecības skola 20 - 6":{"address":"Lauksaimniecības Skola 20 - 6","city":"Jaungulbene","zip":"LV-4420"},"lauksaimniecības skola 20 - 18":{"address":"Lauksaimniecības Skola 20 - 18","city":"Jaungulbene","zip":"LV-4420"},"lauksaimniecības skola 20 - 1":{"address":"Lauksaimniecības Skola 20 - 1","city":"Jaungulbene","zip":"LV-4420"},"lauksaimniecības skola 20 - 2":{"address":"Lauksaimniecības Skola 20 - 2","city":"Jaungulbene","zip":"LV-4420"},"lauksaimniecības skola 20 - 3":{"address":"Lauksaimniecības Skola 20 - 3","city":"Jaungulbene","zip":"LV-4420"},"lauksaimniecības skola 20 - 4":{"address":"Lauksaimniecības Skola 20 - 4","city":"Jaungulbene","zip":"LV-4420"},"lauksaimniecības skola 20 - 5":{"address":"Lauksaimniecības Skola 20 - 5","city":"Jaungulbene","zip":"LV-4420"},"lauksaimniecības skola 20 - 8":{"address":"Lauksaimniecības Skola 20 - 8","city":"Jaungulbene","zip":"LV-4420"},"lauksaimniecības skola 20 - 9":{"address":"Lauksaimniecības Skola 20 - 9","city":"Jaungulbene","zip":"LV-4420"},"lauksaimniecības skola 20 - 10":{"address":"Lauksaimniecības Skola 20 - 10","city":"Jaungulbene","zip":"LV-4420"},"lauksaimniecības skola 20 - 11":{"address":"Lauksaimniecības Skola 20 - 11","city":"Jaungulbene","zip":"LV-4420"},"lauksaimniecības skola 20 - 13":{"address":"Lauksaimniecības Skola 20 - 13","city":"Jaungulbene","zip":"LV-4420"},"lauksaimniecības skola 20 - 14":{"address":"Lauksaimniecības Skola 20 - 14","city":"Jaungulbene","zip":"LV-4420"},"lauksaimniecības skola 20 - 15":{"address":"Lauksaimniecības Skola 20 - 15","city":"Jaungulbene","zip":"LV-4420"},"lauksaimniecības skola 20 - 17":{"address":"Lauksaimniecības Skola 20 - 17","city":"Jaungulbene","zip":"LV-4420"},"lauksaimniecības skola 5a - 1":{"address":"Lauksaimniecības Skola 5A - 1","city":"Jaungulbene","zip":"LV-4420"},"lauksaimniecības skola 5a - 2":{"address":"Lauksaimniecības Skola 5A - 2","city":"Jaungulbene","zip":"LV-4420"},"lauksaimniecības skola 5a - 3":{"address":"Lauksaimniecības Skola 5A - 3","city":"Jaungulbene","zip":"LV-4420"},"lauksaimniecības skola 5a - 4":{"address":"Lauksaimniecības Skola 5A - 4","city":"Jaungulbene","zip":"LV-4420"},"lauksaimniecības skola 5a - 5":{"address":"Lauksaimniecības Skola 5A - 5","city":"Jaungulbene","zip":"LV-4420"},"lauksaimniecības skola 5a - 6":{"address":"Lauksaimniecības Skola 5A - 6","city":"Jaungulbene","zip":"LV-4420"},"lauksaimniecības skola 6 - 1":{"address":"Lauksaimniecības Skola 6 - 1","city":"Jaungulbene","zip":"LV-4420"},"lauksaimniecības skola 6 - 2":{"address":"Lauksaimniecības Skola 6 - 2","city":"Jaungulbene","zip":"LV-4420"},"lauksaimniecības skola 6 - 3":{"address":"Lauksaimniecības Skola 6 - 3","city":"Jaungulbene","zip":"LV-4420"},"lauksaimniecības skola 6 - 4":{"address":"Lauksaimniecības Skola 6 - 4","city":"Jaungulbene","zip":"LV-4420"},"lauksaimniecības skola 6 - 5":{"address":"Lauksaimniecības Skola 6 - 5","city":"Jaungulbene","zip":"LV-4420"},"lauksaimniecības skola 6 - 6":{"address":"Lauksaimniecības Skola 6 - 6","city":"Jaungulbene","zip":"LV-4420"},"lauksaimniecības skola 6 - 7":{"address":"Lauksaimniecības Skola 6 - 7","city":"Jaungulbene","zip":"LV-4420"},"lauksaimniecības skola 6 - 8":{"address":"Lauksaimniecības Skola 6 - 8","city":"Jaungulbene","zip":"LV-4420"},"lauksaimniecības skola 6 - 9":{"address":"Lauksaimniecības Skola 6 - 9","city":"Jaungulbene","zip":"LV-4420"},"lauksaimniecības skola 6 - 10":{"address":"Lauksaimniecības Skola 6 - 10","city":"Jaungulbene","zip":"LV-4420"},"lauksaimniecības skola 6 - 11":{"address":"Lauksaimniecības Skola 6 - 11","city":"Jaungulbene","zip":"LV-4420"},"lauksaimniecības skola 6 - 12":{"address":"Lauksaimniecības Skola 6 - 12","city":"Jaungulbene","zip":"LV-4420"},"lauksaimniecības skola 6 - 13":{"address":"Lauksaimniecības Skola 6 - 13","city":"Jaungulbene","zip":"LV-4420"},"lauksaimniecības skola 6 - 14":{"address":"Lauksaimniecības Skola 6 - 14","city":"Jaungulbene","zip":"LV-4420"},"lauksaimniecības skola 6 - 15":{"address":"Lauksaimniecības Skola 6 - 15","city":"Jaungulbene","zip":"LV-4420"},"lauksaimniecības skola 6 - 16":{"address":"Lauksaimniecības Skola 6 - 16","city":"Jaungulbene","zip":"LV-4420"},"lauksaimniecības skola 4 - 1":{"address":"Lauksaimniecības Skola 4 - 1","city":"Jaungulbene","zip":"LV-4420"},"lauksaimniecības skola 4 - 2":{"address":"Lauksaimniecības Skola 4 - 2","city":"Jaungulbene","zip":"LV-4420"},"lauksaimniecības skola 4 - 3":{"address":"Lauksaimniecības Skola 4 - 3","city":"Jaungulbene","zip":"LV-4420"},"lauksaimniecības skola 5 - 1":{"address":"Lauksaimniecības Skola 5 - 1","city":"Jaungulbene","zip":"LV-4420"},"lauksaimniecības skola 5 - 2":{"address":"Lauksaimniecības Skola 5 - 2","city":"Jaungulbene","zip":"LV-4420"},"lauksaimniecības skola 5 - 3":{"address":"Lauksaimniecības Skola 5 - 3","city":"Jaungulbene","zip":"LV-4420"},"lauksaimniecības skola 5 - 4":{"address":"Lauksaimniecības Skola 5 - 4","city":"Jaungulbene","zip":"LV-4420"},"lauksaimniecības skola 5 - 5":{"address":"Lauksaimniecības Skola 5 - 5","city":"Jaungulbene","zip":"LV-4420"},"lauksaimniecības skola 5 - 6":{"address":"Lauksaimniecības Skola 5 - 6","city":"Jaungulbene","zip":"LV-4420"},"lauksaimniecības skola 5 - 7":{"address":"Lauksaimniecības Skola 5 - 7","city":"Jaungulbene","zip":"LV-4420"},"lauksaimniecības skola 5 - 8":{"address":"Lauksaimniecības Skola 5 - 8","city":"Jaungulbene","zip":"LV-4420"},"lauksaimniecības skola 5 - 9":{"address":"Lauksaimniecības Skola 5 - 9","city":"Jaungulbene","zip":"LV-4420"},"lauksaimniecības skola 5 - 1a":{"address":"Lauksaimniecības Skola 5 - 1A","city":"Jaungulbene","zip":"LV-4420"}}