{"lazdukalni - 1":{"address":"Lazdukalni - 1","city":"Trikāta","zip":"LV-4731"},"lazdukalni - 2":{"address":"Lazdukalni - 2","city":"Trikāta","zip":"LV-4731"},"lazdukalni - 3":{"address":"Lazdukalni - 3","city":"Trikāta","zip":"LV-4731"},"lazdukalni - 4":{"address":"Lazdukalni - 4","city":"Trikāta","zip":"LV-4731"},"lazdukalni - 5":{"address":"Lazdukalni - 5","city":"Trikāta","zip":"LV-4731"},"lazdukalni - 6":{"address":"Lazdukalni - 6","city":"Trikāta","zip":"LV-4731"},"lazdukalni - 7":{"address":"Lazdukalni - 7","city":"Trikāta","zip":"LV-4731"},"lazdukalni - 8":{"address":"Lazdukalni - 8","city":"Trikāta","zip":"LV-4731"},"lazdukalni - 9":{"address":"Lazdukalni - 9","city":"Trikāta","zip":"LV-4731"},"lazdukalni - 10":{"address":"Lazdukalni - 10","city":"Trikāta","zip":"LV-4731"},"lazdukalni - 11":{"address":"Lazdukalni - 11","city":"Trikāta","zip":"LV-4731"},"lazdukalni - 12":{"address":"Lazdukalni - 12","city":"Trikāta","zip":"LV-4731"},"lazdukalni":{"address":"Lazdukalni","city":"Mežarija","zip":"LV-4591"}}