{"lazdas - 1":{"address":"Lazdas - 1","city":"Cempi","zip":"LV-4245"},"lazdas - 2":{"address":"Lazdas - 2","city":"Cempi","zip":"LV-4245"},"lazdas - 3":{"address":"Lazdas - 3","city":"Cempi","zip":"LV-4245"},"lazdas - 4":{"address":"Lazdas - 4","city":"Dikļi","zip":"LV-4223"},"lazdas - 5":{"address":"Lazdas - 5","city":"Dikļi","zip":"LV-4223"},"lazdas - 6":{"address":"Lazdas - 6","city":"Dikļi","zip":"LV-4223"},"lazdas - 7":{"address":"Lazdas - 7","city":"Dikļi","zip":"LV-4223"},"lazdas - 8":{"address":"Lazdas - 8","city":"Dikļi","zip":"LV-4223"},"lazdas - 9":{"address":"Lazdas - 9","city":"Dikļi","zip":"LV-4223"},"lazdas - 10":{"address":"Lazdas - 10","city":"Dikļi","zip":"LV-4223"},"lazdas - 11":{"address":"Lazdas - 11","city":"Dikļi","zip":"LV-4223"},"lazdas - 12":{"address":"Lazdas - 12","city":"Dikļi","zip":"LV-4223"},"lazdas - 13":{"address":"Lazdas - 13","city":"Dikļi","zip":"LV-4223"},"lazdas - 14":{"address":"Lazdas - 14","city":"Dikļi","zip":"LV-4223"},"lazdas - 15":{"address":"Lazdas - 15","city":"Dikļi","zip":"LV-4223"},"lazdas - 16":{"address":"Lazdas - 16","city":"Dikļi","zip":"LV-4223"},"lazdas - 17":{"address":"Lazdas - 17","city":"Dikļi","zip":"LV-4223"},"lazdas - 18":{"address":"Lazdas - 18","city":"Dikļi","zip":"LV-4223"},"lazdas - 19":{"address":"Lazdas - 19","city":"Dikļi","zip":"LV-4223"},"lazdas - 20":{"address":"Lazdas - 20","city":"Dikļi","zip":"LV-4223"},"lazdas - 21":{"address":"Lazdas - 21","city":"Dikļi","zip":"LV-4223"},"lazdas - 22":{"address":"Lazdas - 22","city":"Dikļi","zip":"LV-4223"},"lazdas - 23":{"address":"Lazdas - 23","city":"Dikļi","zip":"LV-4223"},"lazdas - 24":{"address":"Lazdas - 24","city":"Dikļi","zip":"LV-4223"},"lazdas - 25":{"address":"Lazdas - 25","city":"Dikļi","zip":"LV-4223"},"lazdas - 26":{"address":"Lazdas - 26","city":"Dikļi","zip":"LV-4223"},"lazdas - 27":{"address":"Lazdas - 27","city":"Dikļi","zip":"LV-4223"},"lazdas - 28":{"address":"Lazdas - 28","city":"Dikļi","zip":"LV-4223"},"lazdas - 29":{"address":"Lazdas - 29","city":"Dikļi","zip":"LV-4223"},"lazdas - 30":{"address":"Lazdas - 30","city":"Dikļi","zip":"LV-4223"},"lazdas - 31":{"address":"Lazdas - 31","city":"Dikļi","zip":"LV-4223"},"lazdas - 32":{"address":"Lazdas - 32","city":"Dikļi","zip":"LV-4223"},"lazdas - 33":{"address":"Lazdas - 33","city":"Dikļi","zip":"LV-4223"},"lazdas - 34":{"address":"Lazdas - 34","city":"Dikļi","zip":"LV-4223"},"lazdas - 35":{"address":"Lazdas - 35","city":"Dikļi","zip":"LV-4223"},"lazdas - 36":{"address":"Lazdas - 36","city":"Dikļi","zip":"LV-4223"},"lazdas - 37":{"address":"Lazdas - 37","city":"Dikļi","zip":"LV-4223"},"lazdas - 38":{"address":"Lazdas - 38","city":"Dikļi","zip":"LV-4223"},"lazdas - 39":{"address":"Lazdas - 39","city":"Dikļi","zip":"LV-4223"}}