{"lāsītes - 1":{"address":"Lāsītes - 1","city":"Dzilnuciems","zip":"LV-2107"},"lāsītes - 2":{"address":"Lāsītes - 2","city":"Dzilnuciems","zip":"LV-2107"},"lāsītes - 3":{"address":"Lāsītes - 3","city":"Vārme","zip":"LV-3333"},"lāsītes - 4":{"address":"Lāsītes - 4","city":"Vārme","zip":"LV-3333"},"lāsītes - 5":{"address":"Lāsītes - 5","city":"Vārme","zip":"LV-3333"},"lāsītes - 6":{"address":"Lāsītes - 6","city":"Vārme","zip":"LV-3333"},"lāsītes - 7":{"address":"Lāsītes - 7","city":"Vārme","zip":"LV-3333"},"lāsītes - 8":{"address":"Lāsītes - 8","city":"Vārme","zip":"LV-3333"},"lāsītes - 1a":{"address":"Lāsītes - 1A","city":"Dzilnuciems","zip":"LV-2107"},"lāsīte - 1":{"address":"Lāsīte - 1","city":"Nirza","zip":"LV-5729"},"lāsīte - 2":{"address":"Lāsīte - 2","city":"Nirza","zip":"LV-5729"},"lāsīte - 3":{"address":"Lāsīte - 3","city":"Nirza","zip":"LV-5729"},"lāsīte - 4":{"address":"Lāsīte - 4","city":"Nirza","zip":"LV-5729"},"lāsīte - 5":{"address":"Lāsīte - 5","city":"Nirza","zip":"LV-5729"},"lāsīte - 6":{"address":"Lāsīte - 6","city":"Nirza","zip":"LV-5729"},"lāsīte - 7":{"address":"Lāsīte - 7","city":"Nirza","zip":"LV-5729"},"lāsīte - 8":{"address":"Lāsīte - 8","city":"Nirza","zip":"LV-5729"},"lāsīte - 9":{"address":"Lāsīte - 9","city":"Nirza","zip":"LV-5729"},"lāsīte - 10":{"address":"Lāsīte - 10","city":"Nirza","zip":"LV-5729"},"lāsīte - 11":{"address":"Lāsīte - 11","city":"Nirza","zip":"LV-5729"},"lāsīte - 12":{"address":"Lāsīte - 12","city":"Nirza","zip":"LV-5729"},"sili - 1":{"address":"Sili - 1","city":"Laši","zip":"LV-5212"},"sili - 2":{"address":"Sili - 2","city":"Laši","zip":"LV-5212"},"sili - 3":{"address":"Sili - 3","city":"Laši","zip":"LV-5212"},"sili - 4":{"address":"Sili - 4","city":"Laši","zip":"LV-5212"},"laši - 71pk":{"address":"Laši - 71PK","city":"Laši","zip":"LV-5212"},"laši 1 - 1":{"address":"Laši 1 - 1","city":"Laši","zip":"LV-5212"},"laši 1 - 2":{"address":"Laši 1 - 2","city":"Laši","zip":"LV-5212"},"laši 1 - 3":{"address":"Laši 1 - 3","city":"Laši","zip":"LV-5212"},"laši 1 - 4":{"address":"Laši 1 - 4","city":"Laši","zip":"LV-5212"},"laši 1 - 5":{"address":"Laši 1 - 5","city":"Laši","zip":"LV-5212"},"laši 1 - 6":{"address":"Laši 1 - 6","city":"Laši","zip":"LV-5212"},"laši 1 - 8":{"address":"Laši 1 - 8","city":"Laši","zip":"LV-5212"},"laši 1 - 9":{"address":"Laši 1 - 9","city":"Laši","zip":"LV-5212"},"laši 1 - 10":{"address":"Laši 1 - 10","city":"Laši","zip":"LV-5212"},"strauti - 1":{"address":"Strauti - 1","city":"Laši","zip":"LV-5212"},"strauti - 2":{"address":"Strauti - 2","city":"Laši","zip":"LV-5212"},"strauti - 3":{"address":"Strauti - 3","city":"Laši","zip":"LV-5212"},"strauti - 4":{"address":"Strauti - 4","city":"Laši","zip":"LV-5212"},"strauti - 5":{"address":"Strauti - 5","city":"Laši","zip":"LV-5212"},"strauti - 6":{"address":"Strauti - 6","city":"Laši","zip":"LV-5212"},"strauti - 7":{"address":"Strauti - 7","city":"Laši","zip":"LV-5212"},"strauti - 8":{"address":"Strauti - 8","city":"Laši","zip":"LV-5212"},"strauti - 9":{"address":"Strauti - 9","city":"Laši","zip":"LV-5212"},"šalkas - 1":{"address":"Šalkas - 1","city":"Laši","zip":"LV-5212"},"šalkas - 2":{"address":"Šalkas - 2","city":"Laši","zip":"LV-5212"},"šalkas - 3":{"address":"Šalkas - 3","city":"Laši","zip":"LV-5212"},"šalkas - 4":{"address":"Šalkas - 4","city":"Laši","zip":"LV-5212"},"šalkas - 5":{"address":"Šalkas - 5","city":"Laši","zip":"LV-5212"},"šalkas - 6":{"address":"Šalkas - 6","city":"Laši","zip":"LV-5212"},"lāsītes 1 - 2":{"address":"Lāsītes 1 - 2","city":"Rogovka","zip":"LV-4652"},"dzirlupītes":{"address":"Dzirlupītes","city":"Lasinnaja","zip":"LV-4566"},"lapsiņas":{"address":"Lapsiņas","city":"Lasinnaja","zip":"LV-4566"},"lāsītes":{"address":"Lāsītes","city":"Ķesterciems","zip":"LV-3113"},"laši":{"address":"Laši","city":"Apšuciems","zip":"LV-3113"},"lasīši":{"address":"Lasīši","city":"Ģipka","zip":"LV-3264"},"bērzciema laši":{"address":"Bērzciema Laši","city":"Bērzciems","zip":"LV-3113"}}