{"āres - 1":{"address":"Āres - 1","city":"Sinole","zip":"LV-4412"},"āres - 2":{"address":"Āres - 2","city":"Sinole","zip":"LV-4412"},"āres - 3":{"address":"Āres - 3","city":"Sinole","zip":"LV-4412"},"gaujmalas - 1":{"address":"Gaujmalas - 1","city":"Sinole","zip":"LV-4412"},"gaujmalas - 2":{"address":"Gaujmalas - 2","city":"Sinole","zip":"LV-4412"},"gaujmalas - 3":{"address":"Gaujmalas - 3","city":"Sinole","zip":"LV-4412"},"gaujmalas - 4":{"address":"Gaujmalas - 4","city":"Sinole","zip":"LV-4412"},"gaujmalas - 5":{"address":"Gaujmalas - 5","city":"Sinole","zip":"LV-4412"},"gaujmalas - 6":{"address":"Gaujmalas - 6","city":"Sinole","zip":"LV-4412"},"gaujmalas - 7":{"address":"Gaujmalas - 7","city":"Sinole","zip":"LV-4412"},"gaujmalas - 8":{"address":"Gaujmalas - 8","city":"Sinole","zip":"LV-4412"},"gaujmalas - 9":{"address":"Gaujmalas - 9","city":"Sinole","zip":"LV-4412"},"gaujmalas - 10":{"address":"Gaujmalas - 10","city":"Sinole","zip":"LV-4412"},"gaujmalas - 11":{"address":"Gaujmalas - 11","city":"Sinole","zip":"LV-4412"},"gaujmalas - 12":{"address":"Gaujmalas - 12","city":"Sinole","zip":"LV-4412"},"gaujmalas - 13":{"address":"Gaujmalas - 13","city":"Sinole","zip":"LV-4412"},"gaujmalas - 14":{"address":"Gaujmalas - 14","city":"Sinole","zip":"LV-4412"},"gaujmalas - 15":{"address":"Gaujmalas - 15","city":"Sinole","zip":"LV-4412"},"gaujmalas - 16":{"address":"Gaujmalas - 16","city":"Sinole","zip":"LV-4412"},"gaujmalas - 17":{"address":"Gaujmalas - 17","city":"Sinole","zip":"LV-4412"},"gaujmalas - 18":{"address":"Gaujmalas - 18","city":"Sinole","zip":"LV-4412"},"gaujmalas - 19":{"address":"Gaujmalas - 19","city":"Sinole","zip":"LV-4412"},"gaujmalas - 20":{"address":"Gaujmalas - 20","city":"Sinole","zip":"LV-4412"},"gaujmalas - 21":{"address":"Gaujmalas - 21","city":"Sinole","zip":"LV-4412"},"gaujmalas - 22":{"address":"Gaujmalas - 22","city":"Sinole","zip":"LV-4412"},"gaujmalas - 23":{"address":"Gaujmalas - 23","city":"Sinole","zip":"LV-4412"},"gaujmalas - 24":{"address":"Gaujmalas - 24","city":"Sinole","zip":"LV-4412"},"staburags - 1":{"address":"Staburags - 1","city":"Sinole","zip":"LV-4412"},"staburags - 2":{"address":"Staburags - 2","city":"Sinole","zip":"LV-4412"},"staburags - 3":{"address":"Staburags - 3","city":"Sinole","zip":"LV-4412"},"staburags - 4":{"address":"Staburags - 4","city":"Sinole","zip":"LV-4412"},"staburags - 5":{"address":"Staburags - 5","city":"Sinole","zip":"LV-4412"},"staburags - 6":{"address":"Staburags - 6","city":"Sinole","zip":"LV-4412"},"staburags - 7":{"address":"Staburags - 7","city":"Sinole","zip":"LV-4412"},"staburags - 8":{"address":"Staburags - 8","city":"Sinole","zip":"LV-4412"},"staburags - 9":{"address":"Staburags - 9","city":"Sinole","zip":"LV-4412"},"staburags - 10":{"address":"Staburags - 10","city":"Sinole","zip":"LV-4412"},"staburags - 11":{"address":"Staburags - 11","city":"Sinole","zip":"LV-4412"},"staburags - 12":{"address":"Staburags - 12","city":"Sinole","zip":"LV-4412"},"uplejas - 1":{"address":"Uplejas - 1","city":"Sinole","zip":"LV-4412"},"uplejas - 2":{"address":"Uplejas - 2","city":"Sinole","zip":"LV-4412"},"skolas iela 4 - 1":{"address":"Skolas iela 4 - 1","city":"Lejasciems","zip":"LV-4412"},"skolas iela 4 - 2":{"address":"Skolas iela 4 - 2","city":"Lejasciems","zip":"LV-4412"},"skolas iela 5 - 1":{"address":"Skolas iela 5 - 1","city":"Lejasciems","zip":"LV-4412"},"skolas iela 5 - 2":{"address":"Skolas iela 5 - 2","city":"Lejasciems","zip":"LV-4412"},"skolas iela 3 - 1":{"address":"Skolas iela 3 - 1","city":"Lejasciems","zip":"LV-4412"},"skolas iela 3 - 2":{"address":"Skolas iela 3 - 2","city":"Lejasciems","zip":"LV-4412"}}