{"rāķi - 1":{"address":"Rāķi - 1","city":"Lembuži","zip":"LV-4023"},"rāķi - 2":{"address":"Rāķi - 2","city":"Lembuži","zip":"LV-4023"},"mežniecība - 1":{"address":"Mežniecība - 1","city":"Lembuži","zip":"LV-4023"},"mežniecība - 2":{"address":"Mežniecība - 2","city":"Lembuži","zip":"LV-4023"},"mežniecība - 3":{"address":"Mežniecība - 3","city":"Lembuži","zip":"LV-4023"},"mežniecība - 4":{"address":"Mežniecība - 4","city":"Lembuži","zip":"LV-4023"},"mežniecība - 5":{"address":"Mežniecība - 5","city":"Lembuži","zip":"LV-4023"},"ķirras - 4":{"address":"Ķirras - 4","city":"Lembuži","zip":"LV-4023"},"ķirras - 3":{"address":"Ķirras - 3","city":"Lembuži","zip":"LV-4023"},"ķirras - 2":{"address":"Ķirras - 2","city":"Lembuži","zip":"LV-4023"},"ķirras - 1":{"address":"Ķirras - 1","city":"Lembuži","zip":"LV-4023"},"laveri - 1":{"address":"Laveri - 1","city":"Lembuži","zip":"LV-4023"},"laveri - 2":{"address":"Laveri - 2","city":"Lembuži","zip":"LV-4023"},"lembuži - 1":{"address":"Lembuži - 1","city":"Lembuži","zip":"LV-4023"},"lembuži - 2":{"address":"Lembuži - 2","city":"Lembuži","zip":"LV-4023"},"kuģu piestātne - 1":{"address":"Kuģu Piestātne - 1","city":"Lembuži","zip":"LV-4023"},"kuģu piestātne - 2":{"address":"Kuģu Piestātne - 2","city":"Lembuži","zip":"LV-4023"},"kuģu piestātne - 3":{"address":"Kuģu Piestātne - 3","city":"Lembuži","zip":"LV-4023"},"kuģu piestātne - 4":{"address":"Kuģu Piestātne - 4","city":"Lembuži","zip":"LV-4023"},"kuģu piestātne - 5":{"address":"Kuģu Piestātne - 5","city":"Lembuži","zip":"LV-4023"},"lielie lembuži - 1":{"address":"Lielie Lembuži - 1","city":"Lembuži","zip":"LV-4023"},"lielie lembuži - 2":{"address":"Lielie Lembuži - 2","city":"Lembuži","zip":"LV-4023"},"rāķi":{"address":"Rāķi","city":"Lembuži","zip":"LV-4023"},"priedkalni":{"address":"Priedkalni","city":"Lembuži","zip":"LV-4023"},"priežkalni":{"address":"Priežkalni","city":"Lembuži","zip":"LV-4023"},"mežniecība":{"address":"Mežniecība","city":"Lembuži","zip":"LV-4023"},"miera mikas":{"address":"Miera Mikas","city":"Lembuži","zip":"LV-4023"},"liepkrasti":{"address":"Liepkrasti","city":"Lembuži","zip":"LV-4023"},"mazķirras":{"address":"Mazķirras","city":"Lembuži","zip":"LV-4023"},"kuģu piestātne":{"address":"Kuģu Piestātne","city":"Lembuži","zip":"LV-4023"},"lembuži":{"address":"Lembuži","city":"Lembuži","zip":"LV-4023"},"laveri":{"address":"Laveri","city":"Lembuži","zip":"LV-4023"},"lejasapses":{"address":"Lejasapses","city":"Lembuži","zip":"LV-4023"},"lejasķīši":{"address":"Lejasķīši","city":"Lembuži","zip":"LV-4023"},"ķirras":{"address":"Ķirras","city":"Lembuži","zip":"LV-4023"},"jaunķirras":{"address":"Jaunķirras","city":"Lembuži","zip":"LV-4023"},"krauklīši":{"address":"Krauklīši","city":"Lembuži","zip":"LV-4023"},"kalpiņi":{"address":"Kalpiņi","city":"Lembuži","zip":"LV-4023"},"cerības":{"address":"Cerības","city":"Lembuži","zip":"LV-4023"},"vīzijas":{"address":"Vīzijas","city":"Lembuži","zip":"LV-4023"},"akmeņkrasti":{"address":"Akmeņkrasti","city":"Lembuži","zip":"LV-4023"},"adelīna":{"address":"Adelīna","city":"Lembuži","zip":"LV-4023"},"vakardārzi":{"address":"Vakardārzi","city":"Lembuži","zip":"LV-4023"},"dilles":{"address":"Dilles","city":"Lembuži","zip":"LV-4023"},"piejūras lembuži":{"address":"Piejūras Lembuži","city":"Lembuži","zip":"LV-4023"},"mazie lembuži":{"address":"Mazie Lembuži","city":"Lembuži","zip":"LV-4023"},"lielie lembuži":{"address":"Lielie Lembuži","city":"Lembuži","zip":"LV-4023"},"miegi":{"address":"Miegi","city":"Lembuži","zip":"LV-4023"},"jūrkrasti":{"address":"Jūrkrasti","city":"Lembuži","zip":"LV-4023"},"foreļmuiža":{"address":"Foreļmuiža","city":"Lembuži","zip":"LV-4023"}}