{"lielkrasti - 11":{"address":"Lielkrasti - 11","city":"Ogresgals","zip":"LV-5041"},"lielkrasti - 1":{"address":"Lielkrasti - 1","city":"Ogresgals","zip":"LV-5041"},"lielkrasti - 2":{"address":"Lielkrasti - 2","city":"Ogresgals","zip":"LV-5041"},"lielkrasti - 3":{"address":"Lielkrasti - 3","city":"Ogresgals","zip":"LV-5041"},"lielkrasti - 4":{"address":"Lielkrasti - 4","city":"Ogresgals","zip":"LV-5041"},"lielkrasti - 5":{"address":"Lielkrasti - 5","city":"Ogresgals","zip":"LV-5041"},"lielkrasti - 6":{"address":"Lielkrasti - 6","city":"Ogresgals","zip":"LV-5041"},"lielkrasti - 7":{"address":"Lielkrasti - 7","city":"Ogresgals","zip":"LV-5041"},"lielkrasti - 8":{"address":"Lielkrasti - 8","city":"Ogresgals","zip":"LV-5041"},"lielkrasti - 9":{"address":"Lielkrasti - 9","city":"Ogresgals","zip":"LV-5041"},"lielkrasti - 10":{"address":"Lielkrasti - 10","city":"Ogresgals","zip":"LV-5041"},"lielkrasti - 12":{"address":"Lielkrasti - 12","city":"Ogresgals","zip":"LV-5041"},"lielkrasti":{"address":"Lielkrasti","city":"Ogresgals","zip":"LV-5041"}}