{"liepiņu mājas - 1":{"address":"Liepiņu mājas - 1","city":"Lielie Dreizi","zip":"LV-4641"},"liepiņu mājas - 2":{"address":"Liepiņu mājas - 2","city":"Lielie Dreizi","zip":"LV-4641"},"liepiņu mājas - 3":{"address":"Liepiņu mājas - 3","city":"Lielie Dreizi","zip":"LV-4641"},"akmeņi - 1":{"address":"Akmeņi - 1","city":"Lielie Dreizi","zip":"LV-4641"},"akmeņi - 2":{"address":"Akmeņi - 2","city":"Lielie Dreizi","zip":"LV-4641"},"kirijanovka - 1":{"address":"Kirijanovka - 1","city":"Lielie Garanči","zip":"LV-4601"},"kirijanovka - 2":{"address":"Kirijanovka - 2","city":"Lielie Garanči","zip":"LV-4601"},"koloss - 1":{"address":"Koloss - 1","city":"Lielie Garanči","zip":"LV-4601"},"koloss - 2":{"address":"Koloss - 2","city":"Lielie Garanči","zip":"LV-4601"},"skorpionu lauks - 1":{"address":"Skorpionu lauks - 1","city":"Lielie Garanči","zip":"LV-4601"},"skorpionu lauks - 2":{"address":"Skorpionu lauks - 2","city":"Lielie Garanči","zip":"LV-4601"},"kristīne - 1":{"address":"Kristīne - 1","city":"Lielie Garanči","zip":"LV-4601"},"kristīne - 2":{"address":"Kristīne - 2","city":"Lielie Garanči","zip":"LV-4601"},"brokāni - 1":{"address":"Brokāni - 1","city":"Lielie Garanči","zip":"LV-4601"},"brokāni - 2":{"address":"Brokāni - 2","city":"Lielie Garanči","zip":"LV-4601"},"brokāni - 3":{"address":"Brokāni - 3","city":"Lielie Garanči","zip":"LV-4601"},"autoplacis - 1":{"address":"Autoplacis - 1","city":"Lielie Dreizi","zip":"LV-4601"},"autoplacis - 2":{"address":"Autoplacis - 2","city":"Lielie Dreizi","zip":"LV-4601"},"autoplacis - 3":{"address":"Autoplacis - 3","city":"Lielie Dreizi","zip":"LV-4601"},"lielie lembuži - 1":{"address":"Lielie Lembuži - 1","city":"Lembuži","zip":"LV-4023"},"lielie lembuži - 2":{"address":"Lielie Lembuži - 2","city":"Lembuži","zip":"LV-4023"},"medumi - 1":{"address":"Medumi - 1","city":"Lielie Pupāji","zip":"LV-5301"},"medumi - 2":{"address":"Medumi - 2","city":"Lielie Pupāji","zip":"LV-5301"},"medumi - 3":{"address":"Medumi - 3","city":"Lielie Pupāji","zip":"LV-5301"},"medumi - 4":{"address":"Medumi - 4","city":"Lielie Pupāji","zip":"LV-5301"},"medumi - 5":{"address":"Medumi - 5","city":"Lielie Pupāji","zip":"LV-5301"},"medumi - 6":{"address":"Medumi - 6","city":"Lielie Pupāji","zip":"LV-5301"},"medumi - 7":{"address":"Medumi - 7","city":"Lielie Pupāji","zip":"LV-5301"},"medumi - 8":{"address":"Medumi - 8","city":"Lielie Pupāji","zip":"LV-5301"},"mūsmājas - 1":{"address":"Mūsmājas - 1","city":"Lielie Pokuļi","zip":"LV-5652"},"mūsmājas - 2":{"address":"Mūsmājas - 2","city":"Lielie Pokuļi","zip":"LV-5652"},"seiļi - 1":{"address":"Seiļi - 1","city":"Lielie Pupāji","zip":"LV-5301"},"seiļi - 2":{"address":"Seiļi - 2","city":"Lielie Pupāji","zip":"LV-5301"},"vipinga":{"address":"Vipinga","city":"Lielie Dreizi","zip":"LV-4641"},"liepiņu mājas":{"address":"Liepiņu mājas","city":"Lielie Dreizi","zip":"LV-4641"},"smuškovas mājas":{"address":"Smuškovas mājas","city":"Lielie Dreizi","zip":"LV-4641"},"upmala":{"address":"Upmala","city":"Lielie Dreizi","zip":"LV-4641"},"eglieni":{"address":"Eglieni","city":"Lielie Dreizi","zip":"LV-4641"},"krizantēmu mājas":{"address":"Krizantēmu mājas","city":"Lielie Dreizi","zip":"LV-4641"},"ievas":{"address":"Ievas","city":"Lielie Dreizi","zip":"LV-4641"},"kitovi":{"address":"Kitovi","city":"Lielie Dreizi","zip":"LV-4641"},"akmeņi":{"address":"Akmeņi","city":"Lielie Dreizi","zip":"LV-4641"},"kļavas":{"address":"Kļavas","city":"Lielie Garanči","zip":"LV-4601"},"fazāni":{"address":"Fazāni","city":"Lielie Dreizi","zip":"LV-4601"},"terra":{"address":"Terra","city":"Lielie Dreizi","zip":"LV-4641"},"vipinga 1":{"address":"Vipinga 1","city":"Lielie Dreizi","zip":"LV-4641"},"lielie strodi":{"address":"Lielie Strodi","city":"Pauliņi","zip":"LV-4633"},"stirnas":{"address":"Stirnas","city":"Lielie Tuči","zip":"LV-4628"},"tuči":{"address":"Tuči","city":"Lielie Tuči","zip":"LV-4628"},"lielie bērzi":{"address":"Lielie Bērzi","city":"Mežāres","zip":"LV-4611"},"iergļi":{"address":"Iergļi","city":"Lielie Garanči","zip":"LV-4601"},"galkini":{"address":"Galkini","city":"Lielie Garanči","zip":"LV-4601"},"ieviņas":{"address":"Ieviņas","city":"Lielie Garanči","zip":"LV-4601"},"kalnlejas":{"address":"Kalnlejas","city":"Lielie Garanči","zip":"LV-4601"},"gaišais ceļš 195":{"address":"Gaišais ceļš 195","city":"Lielie Garanči","zip":"LV-4601"},"gaišais ceļš 196":{"address":"Gaišais ceļš 196","city":"Lielie Garanči","zip":"LV-4601"},"koloss":{"address":"Koloss","city":"Lielie Garanči","zip":"LV-4601"},"kosmačeva":{"address":"Kosmačeva","city":"Lielie Garanči","zip":"LV-4601"},"kirijanovka":{"address":"Kirijanovka","city":"Lielie Garanči","zip":"LV-4601"},"skorpionu lauks":{"address":"Skorpionu lauks","city":"Lielie Garanči","zip":"LV-4601"},"ščemeļovi":{"address":"Ščemeļovi","city":"Lielie Garanči","zip":"LV-4601"},"upenes":{"address":"Upenes","city":"Lielie Garanči","zip":"LV-4601"},"ustinovi":{"address":"Ustinovi","city":"Lielie Garanči","zip":"LV-4601"},"ūzuls 1":{"address":"Ūzuls 1","city":"Lielie Garanči","zip":"LV-4601"},"varonis":{"address":"Varonis","city":"Lielie Garanči","zip":"LV-4601"},"vidsmeži":{"address":"Vidsmeži","city":"Lielie Garanči","zip":"LV-4601"},"vinidikts":{"address":"Vinidikts","city":"Lielie Garanči","zip":"LV-4601"},"virši":{"address":"Virši","city":"Lielie Garanči","zip":"LV-4601"},"kristīne":{"address":"Kristīne","city":"Lielie Garanči","zip":"LV-4601"},"ķipuri":{"address":"Ķipuri","city":"Lielie Garanči","zip":"LV-4601"},"liepas 1":{"address":"Liepas 1","city":"Lielie Garanči","zip":"LV-4601"},"liepukalns":{"address":"Liepukalns","city":"Lielie Garanči","zip":"LV-4601"},"rozes":{"address":"Rozes","city":"Lielie Garanči","zip":"LV-4601"},"mežlauce":{"address":"Mežlauce","city":"Lielie Garanči","zip":"LV-4601"},"ogu māja":{"address":"Ogu māja","city":"Lielie Garanči","zip":"LV-4601"},"ozoliņi":{"address":"Ozoliņi","city":"Lielie Garanči","zip":"LV-4601"},"parfirijs":{"address":"Parfirijs","city":"Lielie Garanči","zip":"LV-4601"},"puikas":{"address":"Puikas","city":"Lielie Garanči","zip":"LV-4601"},"puksti":{"address":"Puksti","city":"Lielie Garanči","zip":"LV-4601"},"reznovi":{"address":"Reznovi","city":"Lielie Garanči","zip":"LV-4601"},"rjabiņina":{"address":"Rjabiņina","city":"Lielie Garanči","zip":"LV-4601"},"gaišais ceļš 185":{"address":"Gaišais ceļš 185","city":"Lielie Garanči","zip":"LV-4601"},"gaišais ceļš 186":{"address":"Gaišais ceļš 186","city":"Lielie Garanči","zip":"LV-4601"},"gaišais ceļš 187":{"address":"Gaišais ceļš 187","city":"Lielie Garanči","zip":"LV-4601"},"gaišais ceļš 188":{"address":"Gaišais ceļš 188","city":"Lielie Garanči","zip":"LV-4601"},"gaišais ceļš 189":{"address":"Gaišais ceļš 189","city":"Lielie Garanči","zip":"LV-4601"},"gaišais ceļš 190":{"address":"Gaišais ceļš 190","city":"Lielie Garanči","zip":"LV-4601"},"gaišais ceļš 182":{"address":"Gaišais ceļš 182","city":"Lielie Garanči","zip":"LV-4601"},"gaišais ceļš 177":{"address":"Gaišais ceļš 177","city":"Lielie Garanči","zip":"LV-4601"},"gaišais ceļš 174":{"address":"Gaišais ceļš 174","city":"Lielie Garanči","zip":"LV-4601"},"gaišais ceļš 170":{"address":"Gaišais ceļš 170","city":"Lielie Garanči","zip":"LV-4601"},"gaišais ceļš 171":{"address":"Gaišais ceļš 171","city":"Lielie Garanči","zip":"LV-4601"},"gaišais ceļš 172":{"address":"Gaišais ceļš 172","city":"Lielie Garanči","zip":"LV-4601"},"gaišais ceļš 155":{"address":"Gaišais ceļš 155","city":"Lielie Garanči","zip":"LV-4601"},"gaišais ceļš 156":{"address":"Gaišais ceļš 156","city":"Lielie Garanči","zip":"LV-4601"},"gaišais ceļš 157":{"address":"Gaišais ceļš 157","city":"Lielie Garanči","zip":"LV-4601"},"gaišais ceļš 158":{"address":"Gaišais ceļš 158","city":"Lielie Garanči","zip":"LV-4601"}}