{"liepu iela 2 - 1":{"address":"Liepu iela 2 - 1","city":"Litene","zip":"LV-4405"},"liepu iela 2 - 2":{"address":"Liepu iela 2 - 2","city":"Litene","zip":"LV-4405"},"liepu iela 2 - 3":{"address":"Liepu iela 2 - 3","city":"Litene","zip":"LV-4405"},"liepu iela 2 - 4":{"address":"Liepu iela 2 - 4","city":"Pilskalns","zip":"LV-4409"},"liepu iela 2 - 5":{"address":"Liepu iela 2 - 5","city":"Pilskalns","zip":"LV-4409"},"liepu iela 2 - 6":{"address":"Liepu iela 2 - 6","city":"Pilskalns","zip":"LV-4409"},"liepu iela 2 - 7":{"address":"Liepu iela 2 - 7","city":"Pilskalns","zip":"LV-4409"},"liepu iela 2 - 8":{"address":"Liepu iela 2 - 8","city":"Pilskalns","zip":"LV-4409"},"liepu iela 3 - 1":{"address":"Liepu iela 3 - 1","city":"Ilzeskalns","zip":"LV-4619"},"liepu iela 3 - 2":{"address":"Liepu iela 3 - 2","city":"Ilzeskalns","zip":"LV-4619"},"liepu iela 3 - 3":{"address":"Liepu iela 3 - 3","city":"Ilzeskalns","zip":"LV-4619"},"liepu iela 3 - 4":{"address":"Liepu iela 3 - 4","city":"Ilzeskalns","zip":"LV-4619"},"liepu iela 3 - 5":{"address":"Liepu iela 3 - 5","city":"Ilzeskalns","zip":"LV-4619"},"liepu iela 3 - 6":{"address":"Liepu iela 3 - 6","city":"Ilzeskalns","zip":"LV-4619"},"liepu iela 3 - 7":{"address":"Liepu iela 3 - 7","city":"Ilzeskalns","zip":"LV-4619"},"liepu iela 3 - 8":{"address":"Liepu iela 3 - 8","city":"Ilzeskalns","zip":"LV-4619"},"liepu iela 3 - 9":{"address":"Liepu iela 3 - 9","city":"Ilzeskalns","zip":"LV-4619"},"liepu iela 3 - 10":{"address":"Liepu iela 3 - 10","city":"Ilzeskalns","zip":"LV-4619"},"liepu iela 3 - 11":{"address":"Liepu iela 3 - 11","city":"Ilzeskalns","zip":"LV-4619"},"liepu iela 3 - 12":{"address":"Liepu iela 3 - 12","city":"Ilzeskalns","zip":"LV-4619"},"liepu iela 3 - 13":{"address":"Liepu iela 3 - 13","city":"Ilzeskalns","zip":"LV-4619"},"liepu iela 3 - 14":{"address":"Liepu iela 3 - 14","city":"Ilzeskalns","zip":"LV-4619"},"liepu iela 3 - 15":{"address":"Liepu iela 3 - 15","city":"Ilzeskalns","zip":"LV-4619"},"liepu iela 3 - 16":{"address":"Liepu iela 3 - 16","city":"Ilzeskalns","zip":"LV-4619"},"liepu iela 8 - 2":{"address":"Liepu iela 8 - 2","city":"Rugāji","zip":"LV-4570"},"liepu iela 7 - 1":{"address":"Liepu iela 7 - 1","city":"Rugāji","zip":"LV-4570"},"liepu iela 7 - 2":{"address":"Liepu iela 7 - 2","city":"Rugāji","zip":"LV-4570"},"liepu iela 6 - 4":{"address":"Liepu iela 6 - 4","city":"Rugāji","zip":"LV-4570"},"liepu iela 5 - 1":{"address":"Liepu iela 5 - 1","city":"Rugāji","zip":"LV-4570"},"liepu iela 5 - 2":{"address":"Liepu iela 5 - 2","city":"Rugāji","zip":"LV-4570"},"liepu iela 2 - 10":{"address":"Liepu iela 2 - 10","city":"Pilskalns","zip":"LV-4409"},"liepu iela 2 - 11":{"address":"Liepu iela 2 - 11","city":"Pilskalns","zip":"LV-4409"},"liepu iela 2 - 12":{"address":"Liepu iela 2 - 12","city":"Pilskalns","zip":"LV-4409"},"liepu iela 2 - 9":{"address":"Liepu iela 2 - 9","city":"Pilskalns","zip":"LV-4409"},"liepu iela 1 - 6":{"address":"Liepu iela 1 - 6","city":"Litene","zip":"LV-4405"},"liepu iela 1 - 7":{"address":"Liepu iela 1 - 7","city":"Litene","zip":"LV-4405"},"liepu iela 1 - 8":{"address":"Liepu iela 1 - 8","city":"Litene","zip":"LV-4405"},"liepu iela 1 - 9":{"address":"Liepu iela 1 - 9","city":"Litene","zip":"LV-4405"},"liepu iela 1 - 10":{"address":"Liepu iela 1 - 10","city":"Litene","zip":"LV-4405"},"liepu iela 1 - 11":{"address":"Liepu iela 1 - 11","city":"Litene","zip":"LV-4405"},"liepu iela 1 - 12":{"address":"Liepu iela 1 - 12","city":"Litene","zip":"LV-4405"},"liepu iela 1 - 1":{"address":"Liepu iela 1 - 1","city":"Litene","zip":"LV-4405"},"liepu iela 1 - 2":{"address":"Liepu iela 1 - 2","city":"Litene","zip":"LV-4405"},"liepu iela 1 - 3":{"address":"Liepu iela 1 - 3","city":"Litene","zip":"LV-4405"},"liepu iela 1 - 4":{"address":"Liepu iela 1 - 4","city":"Litene","zip":"LV-4405"},"liepu iela 1 - 5":{"address":"Liepu iela 1 - 5","city":"Litene","zip":"LV-4405"}}