{"opali - 1":{"address":"Opali - 1","city":"Liepna","zip":"LV-4354"},"opali - 2":{"address":"Opali - 2","city":"Liepna","zip":"LV-4354"},"muiža - 1":{"address":"Muiža - 1","city":"Liepna","zip":"LV-4354"},"muiža - 2":{"address":"Muiža - 2","city":"Liepna","zip":"LV-4354"},"muiža - 3":{"address":"Muiža - 3","city":"Liepna","zip":"LV-4354"},"muiža - 4":{"address":"Muiža - 4","city":"Liepna","zip":"LV-4354"},"muiža - 5":{"address":"Muiža - 5","city":"Liepna","zip":"LV-4354"},"muiža - 6":{"address":"Muiža - 6","city":"Liepna","zip":"LV-4354"},"muiža - 7":{"address":"Muiža - 7","city":"Liepna","zip":"LV-4354"},"muiža - 8":{"address":"Muiža - 8","city":"Liepna","zip":"LV-4354"},"seda 2 - 1":{"address":"Seda 2 - 1","city":"Liepna","zip":"LV-4354"},"seda 2 - 2":{"address":"Seda 2 - 2","city":"Liepna","zip":"LV-4354"},"seda 2 - 3":{"address":"Seda 2 - 3","city":"Liepna","zip":"LV-4354"},"seda 2 - 4":{"address":"Seda 2 - 4","city":"Liepna","zip":"LV-4354"},"seda 2 - 5":{"address":"Seda 2 - 5","city":"Liepna","zip":"LV-4354"},"seda 2 - 6":{"address":"Seda 2 - 6","city":"Liepna","zip":"LV-4354"},"seda 2 - 7":{"address":"Seda 2 - 7","city":"Liepna","zip":"LV-4354"},"seda 2 - 8":{"address":"Seda 2 - 8","city":"Liepna","zip":"LV-4354"},"seda 2 - 9":{"address":"Seda 2 - 9","city":"Liepna","zip":"LV-4354"},"seda 2 - 10":{"address":"Seda 2 - 10","city":"Liepna","zip":"LV-4354"},"seda 2 - 11":{"address":"Seda 2 - 11","city":"Liepna","zip":"LV-4354"},"seda 2 - 12":{"address":"Seda 2 - 12","city":"Liepna","zip":"LV-4354"},"seda 1 - 1":{"address":"Seda 1 - 1","city":"Liepna","zip":"LV-4354"},"seda 1 - 2":{"address":"Seda 1 - 2","city":"Liepna","zip":"LV-4354"},"seda 1 - 3":{"address":"Seda 1 - 3","city":"Liepna","zip":"LV-4354"},"seda 1 - 4":{"address":"Seda 1 - 4","city":"Liepna","zip":"LV-4354"},"seda 1 - 5":{"address":"Seda 1 - 5","city":"Liepna","zip":"LV-4354"},"seda 1 - 6":{"address":"Seda 1 - 6","city":"Liepna","zip":"LV-4354"},"seda 1 - 7":{"address":"Seda 1 - 7","city":"Liepna","zip":"LV-4354"},"seda 1 - 8":{"address":"Seda 1 - 8","city":"Liepna","zip":"LV-4354"},"seda 1 - 9":{"address":"Seda 1 - 9","city":"Liepna","zip":"LV-4354"},"seda 1 - 10":{"address":"Seda 1 - 10","city":"Liepna","zip":"LV-4354"},"seda 1 - 11":{"address":"Seda 1 - 11","city":"Liepna","zip":"LV-4354"},"seda 1 - 12":{"address":"Seda 1 - 12","city":"Liepna","zip":"LV-4354"},"skolotāju māja - 1":{"address":"Skolotāju māja - 1","city":"Liepna","zip":"LV-4354"},"skolotāju māja - 2":{"address":"Skolotāju māja - 2","city":"Liepna","zip":"LV-4354"},"skolotāju māja - 3":{"address":"Skolotāju māja - 3","city":"Liepna","zip":"LV-4354"},"skolotāju māja - 4":{"address":"Skolotāju māja - 4","city":"Liepna","zip":"LV-4354"},"skolotāju māja - 5":{"address":"Skolotāju māja - 5","city":"Liepna","zip":"LV-4354"},"skolotāju māja - 6":{"address":"Skolotāju māja - 6","city":"Liepna","zip":"LV-4354"},"skolotāju māja - 7":{"address":"Skolotāju māja - 7","city":"Liepna","zip":"LV-4354"}}