{"liepziedu iela 2 - 1":{"address":"Liepziedu iela 2 - 1","city":"Dreiliņi","zip":"LV-2130"},"liepziedu iela 2 - 2":{"address":"Liepziedu iela 2 - 2","city":"Dreiliņi","zip":"LV-2130"},"liepziedu iela 11 - 1":{"address":"Liepziedu iela 11 - 1","city":"Krogsils","zip":"LV-2111"},"liepziedu iela 11 - 2":{"address":"Liepziedu iela 11 - 2","city":"Krogsils","zip":"LV-2111"},"liepziedu iela 4":{"address":"Liepziedu iela 4","city":"Mežāres","zip":"LV-2101"},"liepziedu iela 14":{"address":"Liepziedu iela 14","city":"Krogsils","zip":"LV-2111"},"liepziedu iela 16":{"address":"Liepziedu iela 16","city":"Liepziedi","zip":"LV-3701"},"liepziedu iela 11":{"address":"Liepziedu iela 11","city":"Krogsils","zip":"LV-2111"},"liepziedu iela 13":{"address":"Liepziedu iela 13","city":"Krogsils","zip":"LV-2111"},"liepziedu iela 15":{"address":"Liepziedu iela 15","city":"Mežāres","zip":"LV-2101"},"liepziedu iela 9":{"address":"Liepziedu iela 9","city":"Krogsils","zip":"LV-2111"},"liepziedu iela 7":{"address":"Liepziedu iela 7","city":"Mežāres","zip":"LV-2101"},"liepziedu iela 5":{"address":"Liepziedu iela 5","city":"Mežāres","zip":"LV-2101"},"liepziedu iela 3":{"address":"Liepziedu iela 3","city":"Mežāres","zip":"LV-2101"},"liepziedu iela 1":{"address":"Liepziedu iela 1","city":"Mežāres","zip":"LV-2101"},"liepziedu iela 12":{"address":"Liepziedu iela 12","city":"Krogsils","zip":"LV-2111"},"liepziedu iela 8":{"address":"Liepziedu iela 8","city":"Mežāres","zip":"LV-2101"},"liepziedu iela 10":{"address":"Liepziedu iela 10","city":"Krogsils","zip":"LV-2111"},"liepziedu iela 6":{"address":"Liepziedu iela 6","city":"Mežāres","zip":"LV-2101"},"liepziedu iela 2":{"address":"Liepziedu iela 2","city":"Mežāres","zip":"LV-2101"},"liepziedu iela 25":{"address":"Liepziedu iela 25","city":"Krogsils","zip":"LV-2111"},"liepziedu iela 34":{"address":"Liepziedu iela 34","city":"Krogsils","zip":"LV-2111"},"liepziedu iela 17":{"address":"Liepziedu iela 17","city":"Liepziedi","zip":"LV-3701"},"liepziedu iela 21":{"address":"Liepziedu iela 21","city":"Krogsils","zip":"LV-2111"},"liepziedu iela 23":{"address":"Liepziedu iela 23","city":"Krogsils","zip":"LV-2111"},"liepziedu iela 22":{"address":"Liepziedu iela 22","city":"Krogsils","zip":"LV-2111"},"liepziedu iela 76":{"address":"Liepziedu iela 76","city":"Liepziedi","zip":"LV-5456"},"liepziedu iela 74":{"address":"Liepziedu iela 74","city":"Liepziedi","zip":"LV-5456"},"liepziedu iela 31":{"address":"Liepziedu iela 31","city":"Krogsils","zip":"LV-2111"},"liepziedu iela 19":{"address":"Liepziedu iela 19","city":"Krogsils","zip":"LV-2111"},"liepziedu iela 30":{"address":"Liepziedu iela 30","city":"Krogsils","zip":"LV-2111"},"liepziedu iela 24":{"address":"Liepziedu iela 24","city":"Krogsils","zip":"LV-2111"},"liepziedu iela 32":{"address":"Liepziedu iela 32","city":"Krogsils","zip":"LV-2111"},"liepziedu iela 26":{"address":"Liepziedu iela 26","city":"Krogsils","zip":"LV-2111"}}