{"liepas - 1":{"address":"Liepas - 1","city":"Bērzaine","zip":"LV-4208"},"liepas - 2":{"address":"Liepas - 2","city":"Bērzaine","zip":"LV-4208"},"liepas - 3":{"address":"Liepas - 3","city":"Bērzaine","zip":"LV-4208"},"liepas - 4":{"address":"Liepas - 4","city":"Bērzaine","zip":"LV-4208"},"liepas - 5":{"address":"Liepas - 5","city":"Bērzaine","zip":"LV-4208"},"liepas - 6":{"address":"Liepas - 6","city":"Bērzaine","zip":"LV-4208"},"liepas - 7":{"address":"Liepas - 7","city":"Bērzaine","zip":"LV-4208"},"liepas - 8":{"address":"Liepas - 8","city":"Bērzaine","zip":"LV-4208"},"liepas - 9":{"address":"Liepas - 9","city":"Bērzaine","zip":"LV-4208"},"liepas - 10":{"address":"Liepas - 10","city":"Bērzaine","zip":"LV-4208"},"liepas - 11":{"address":"Liepas - 11","city":"Bērzaine","zip":"LV-4208"},"liepas - 12":{"address":"Liepas - 12","city":"Bērzaine","zip":"LV-4208"},"liepas - 13":{"address":"Liepas - 13","city":"Bērzaine","zip":"LV-4208"},"liepas - 14":{"address":"Liepas - 14","city":"Bērzaine","zip":"LV-4208"},"liepas - 15":{"address":"Liepas - 15","city":"Bērzaine","zip":"LV-4208"},"liepas - 16":{"address":"Liepas - 16","city":"Bērzaine","zip":"LV-4208"},"liepas - 17":{"address":"Liepas - 17","city":"Bērzaine","zip":"LV-4208"},"liepas - 18":{"address":"Liepas - 18","city":"Bērzaine","zip":"LV-4208"},"struņķi - 1":{"address":"Struņķi - 1","city":"Liepa","zip":"LV-4128"},"struņķi - 2":{"address":"Struņķi - 2","city":"Liepa","zip":"LV-4128"},"meldru iela 8 - 1":{"address":"Meldru iela 8 - 1","city":"Sarkaņi","zip":"LV-4128"},"meldru iela 8 - 2":{"address":"Meldru iela 8 - 2","city":"Sarkaņi","zip":"LV-4128"},"meldru iela 8 - 3":{"address":"Meldru iela 8 - 3","city":"Sarkaņi","zip":"LV-4128"},"meldru iela 8 - 4":{"address":"Meldru iela 8 - 4","city":"Sarkaņi","zip":"LV-4128"},"meldru iela 8 - 5":{"address":"Meldru iela 8 - 5","city":"Sarkaņi","zip":"LV-4128"},"meldru iela 8 - 6":{"address":"Meldru iela 8 - 6","city":"Sarkaņi","zip":"LV-4128"},"meldru iela 8 - 7":{"address":"Meldru iela 8 - 7","city":"Sarkaņi","zip":"LV-4128"},"meldru iela 8 - 8":{"address":"Meldru iela 8 - 8","city":"Sarkaņi","zip":"LV-4128"},"meldru iela 6 - 1":{"address":"Meldru iela 6 - 1","city":"Sarkaņi","zip":"LV-4128"},"meldru iela 6 - 2":{"address":"Meldru iela 6 - 2","city":"Sarkaņi","zip":"LV-4128"},"meldru iela 6 - 3":{"address":"Meldru iela 6 - 3","city":"Sarkaņi","zip":"LV-4128"},"meldru iela 6 - 4":{"address":"Meldru iela 6 - 4","city":"Sarkaņi","zip":"LV-4128"},"meldru iela 6 - 5":{"address":"Meldru iela 6 - 5","city":"Sarkaņi","zip":"LV-4128"},"meldru iela 6 - 6":{"address":"Meldru iela 6 - 6","city":"Sarkaņi","zip":"LV-4128"}}