{"ligzdas - 1":{"address":"Ligzdas - 1","city":"Jučova","zip":"LV-5707"},"ligzdas - 2":{"address":"Ligzdas - 2","city":"Jučova","zip":"LV-5707"},"ligzdas - 3":{"address":"Ligzdas - 3","city":"Jučova","zip":"LV-5707"},"ligzdas - 4":{"address":"Ligzdas - 4","city":"Jučova","zip":"LV-5707"},"ligzdas - 5":{"address":"Ligzdas - 5","city":"Jučova","zip":"LV-5707"},"ligzdas - 6":{"address":"Ligzdas - 6","city":"Jučova","zip":"LV-5707"},"ligzdas - 7":{"address":"Ligzdas - 7","city":"Jučova","zip":"LV-5707"},"ligzdas - 8":{"address":"Ligzdas - 8","city":"Jučova","zip":"LV-5707"},"bezdelīgu ligzdas - 1":{"address":"Bezdelīgu Ligzdas - 1","city":"Jakubki","zip":"LV-5692"},"bezdelīgu ligzdas - 2":{"address":"Bezdelīgu Ligzdas - 2","city":"Jakubki","zip":"LV-5692"},"ligzdas":{"address":"Ligzdas","city":"Rozeļmuiža","zip":"LV-4642"},"rūķu ligzdas":{"address":"Rūķu ligzdas","city":"Reči","zip":"LV-4561"},"stārķu ligzdas":{"address":"Stārķu ligzdas","city":"Auguļova","zip":"LV-5666"},"bezdelīgu ligzdas":{"address":"Bezdelīgu ligzdas","city":"Kauškaļi","zip":"LV-5685"},"lakstīgalu ligzdas":{"address":"Lakstīgalu ligzdas","city":"Vecpils","zip":"LV-5462"}}