{"lilastes stacija 2 - 1":{"address":"Lilastes stacija 2 - 1","city":"Lilaste","zip":"LV-2163"},"lilastes stacija 2 - 2":{"address":"Lilastes stacija 2 - 2","city":"Lilaste","zip":"LV-2163"},"lilastes stacija 1 - 1":{"address":"Lilastes stacija 1 - 1","city":"Lilaste","zip":"LV-2163"},"lilastes stacija 1 - 2":{"address":"Lilastes stacija 1 - 2","city":"Lilaste","zip":"LV-2163"},"lilastes stacija 1 - 3":{"address":"Lilastes stacija 1 - 3","city":"Lilaste","zip":"LV-2163"},"lilastes stacija 1 - 4":{"address":"Lilastes stacija 1 - 4","city":"Lilaste","zip":"LV-2163"},"lilastes stacija 3 - 1":{"address":"Lilastes stacija 3 - 1","city":"Lilaste","zip":"LV-2163"},"lilastes stacija 3 - 2/3":{"address":"Lilastes stacija 3 - 2/3","city":"Lilaste","zip":"LV-2163"},"lilastes stacija 3 - 4":{"address":"Lilastes stacija 3 - 4","city":"Lilaste","zip":"LV-2163"},"lilastes stacija 3 - 5":{"address":"Lilastes stacija 3 - 5","city":"Lilaste","zip":"LV-2163"},"lilastes stacija 3 - 6":{"address":"Lilastes stacija 3 - 6","city":"Lilaste","zip":"LV-2163"}}