{"lāstekas - 1":{"address":"Lāstekas - 1","city":"Mežvalde","zip":"LV-3301"},"lāstekas - 2":{"address":"Lāstekas - 2","city":"Mežvalde","zip":"LV-3301"},"lāstekas - 3":{"address":"Lāstekas - 3","city":"Mežvalde","zip":"LV-3301"},"lāstekas - 4":{"address":"Lāstekas - 4","city":"Mežvalde","zip":"LV-3301"},"lāstekas - 5":{"address":"Lāstekas - 5","city":"Mežvalde","zip":"LV-3301"},"lāstekas - 6":{"address":"Lāstekas - 6","city":"Mežvalde","zip":"LV-3301"},"lāstekas - 7":{"address":"Lāstekas - 7","city":"Sermīte","zip":"LV-3330"},"lāstekas - 8":{"address":"Lāstekas - 8","city":"Sermīte","zip":"LV-3330"},"lāstekas - 9":{"address":"Lāstekas - 9","city":"Sermīte","zip":"LV-3330"},"lāstekas - 10":{"address":"Lāstekas - 10","city":"Sermīte","zip":"LV-3330"},"lāstekas - 11":{"address":"Lāstekas - 11","city":"Sermīte","zip":"LV-3330"},"lāstekas - 12":{"address":"Lāstekas - 12","city":"Sermīte","zip":"LV-3330"},"lāstekas - 13":{"address":"Lāstekas - 13","city":"Sermīte","zip":"LV-3330"},"lāstekas - 14":{"address":"Lāstekas - 14","city":"Sermīte","zip":"LV-3330"},"lāstekas - 15":{"address":"Lāstekas - 15","city":"Sermīte","zip":"LV-3330"},"lāstekas - 16":{"address":"Lāstekas - 16","city":"Sermīte","zip":"LV-3330"},"lāstekas - 17":{"address":"Lāstekas - 17","city":"Sermīte","zip":"LV-3330"},"lāstekas - 18":{"address":"Lāstekas - 18","city":"Sermīte","zip":"LV-3330"},"lāstekas":{"address":"Lāstekas","city":"Zīlāni","zip":"LV-5222"}}