{"lāčupītes lejasrūķīši - 1":{"address":"Lāčupītes Lejasrūķīši - 1","city":"Apšuciems","zip":"LV-3113"},"lāčupītes lejasrūķīši - 2":{"address":"Lāčupītes Lejasrūķīši - 2","city":"Apšuciems","zip":"LV-3113"},"lāčupītes sindarellas":{"address":"Lāčupītes Sindarellas","city":"Apšuciems","zip":"LV-3113"},"lāčupītes ainas":{"address":"Lāčupītes Ainas","city":"Apšuciems","zip":"LV-3113"},"lāčupītes annas":{"address":"Lāčupītes Annas","city":"Apšuciems","zip":"LV-3113"},"lāčupītes āpši":{"address":"Lāčupītes Āpši","city":"Apšuciems","zip":"LV-3113"},"lāčupītes arhitekti":{"address":"Lāčupītes Arhitekti","city":"Apšuciems","zip":"LV-3113"},"lāčupītes arvīdi":{"address":"Lāčupītes Arvīdi","city":"Apšuciems","zip":"LV-3113"},"lāčupītes baibiņas":{"address":"Lāčupītes Baibiņas","city":"Apšuciems","zip":"LV-3113"},"lāčupītes bebri":{"address":"Lāčupītes Bebri","city":"Apšuciems","zip":"LV-3113"},"lāčupītes bērzi":{"address":"Lāčupītes Bērzi","city":"Apšuciems","zip":"LV-3113"},"lāčupītes būrīši":{"address":"Lāčupītes Būrīši","city":"Apšuciems","zip":"LV-3113"},"lāčupītes cerības":{"address":"Lāčupītes Cerības","city":"Apšuciems","zip":"LV-3113"},"lāčupītes ciekuri 1":{"address":"Lāčupītes Ciekuri 1","city":"Apšuciems","zip":"LV-3113"},"lāčupītes ciekuri 2":{"address":"Lāčupītes Ciekuri 2","city":"Apšuciems","zip":"LV-3113"},"lāčupītes daugmalieši":{"address":"Lāčupītes Daugmalieši","city":"Apšuciems","zip":"LV-3113"},"lāčupītes eglītes 1":{"address":"Lāčupītes Eglītes 1","city":"Apšuciems","zip":"LV-3113"},"lāčupītes eglītes 2":{"address":"Lāčupītes Eglītes 2","city":"Apšuciems","zip":"LV-3113"},"lāčupītes ērģelnieki":{"address":"Lāčupītes Ērģelnieki","city":"Apšuciems","zip":"LV-3113"},"lāčupītes ezīši":{"address":"Lāčupītes Ezīši","city":"Apšuciems","zip":"LV-3113"},"lāčupītes iknitas":{"address":"Lāčupītes Iknitas","city":"Apšuciems","zip":"LV-3113"},"lāčupītes iļģi":{"address":"Lāčupītes Iļģi","city":"Apšuciems","zip":"LV-3113"},"lāčupītes kalniņi":{"address":"Lāčupītes Kalniņi","city":"Apšuciems","zip":"LV-3113"},"lāčupītes kāpas":{"address":"Lāčupītes Kāpas","city":"Apšuciems","zip":"LV-3113"},"lāčupītes kārļi":{"address":"Lāčupītes Kārļi","city":"Apšuciems","zip":"LV-3113"},"lāčupītes katiņas":{"address":"Lāčupītes Katiņas","city":"Apšuciems","zip":"LV-3113"},"lāčupītes kraujas":{"address":"Lāčupītes Kraujas","city":"Apšuciems","zip":"LV-3113"},"lāčupītes krimulda":{"address":"Lāčupītes Krimulda","city":"Apšuciems","zip":"LV-3113"},"lāčupītes kundziņi":{"address":"Lāčupītes Kundziņi","city":"Apšuciems","zip":"LV-3113"},"lāčupītes lejasrūķīši":{"address":"Lāčupītes Lejasrūķīši","city":"Apšuciems","zip":"LV-3113"},"lāčupītes lekši":{"address":"Lāčupītes Lekši","city":"Apšuciems","zip":"LV-3113"},"lāčupītes lūši":{"address":"Lāčupītes Lūši","city":"Apšuciems","zip":"LV-3113"},"lāčupītes meldiņas":{"address":"Lāčupītes Meldiņas","city":"Apšuciems","zip":"LV-3113"},"lāčupītes mežvidi":{"address":"Lāčupītes Mežvidi","city":"Apšuciems","zip":"LV-3113"},"lāčupītes modrīši":{"address":"Lāčupītes Modrīši","city":"Apšuciems","zip":"LV-3113"},"lāčupītes paceplīši":{"address":"Lāčupītes Paceplīši","city":"Apšuciems","zip":"LV-3113"},"lāčupītes paegles":{"address":"Lāčupītes Paegles","city":"Apšuciems","zip":"LV-3113"},"lāčupītes pīlādži":{"address":"Lāčupītes Pīlādži","city":"Apšuciems","zip":"LV-3113"},"lāčupītes plostnieki":{"address":"Lāčupītes Plostnieki","city":"Apšuciems","zip":"LV-3113"},"lāčupītes priedes":{"address":"Lāčupītes Priedes","city":"Apšuciems","zip":"LV-3113"},"lāčupītes riekstiņi":{"address":"Lāčupītes Riekstiņi","city":"Apšuciems","zip":"LV-3113"},"lāčupītes rododendri":{"address":"Lāčupītes Rododendri","city":"Apšuciems","zip":"LV-3113"},"lāčupītes rūķīši":{"address":"Lāčupītes Rūķīši","city":"Apšuciems","zip":"LV-3113"},"lāčupītes runči":{"address":"Lāčupītes Runči","city":"Apšuciems","zip":"LV-3113"},"lāčupītes sastapi":{"address":"Lāčupītes Sastapi","city":"Apšuciems","zip":"LV-3113"},"lāčupītes saulstari":{"address":"Lāčupītes Saulstari","city":"Apšuciems","zip":"LV-3113"},"lāčupītes skujas":{"address":"Lāčupītes Skujas","city":"Apšuciems","zip":"LV-3113"},"lāčupītes skujiņas":{"address":"Lāčupītes Skujiņas","city":"Apšuciems","zip":"LV-3113"},"lāčupītes smilgas 1":{"address":"Lāčupītes Smilgas 1","city":"Apšuciems","zip":"LV-3113"},"lāčupītes smilgas 2":{"address":"Lāčupītes Smilgas 2","city":"Apšuciems","zip":"LV-3113"},"lāčupītes stigas":{"address":"Lāčupītes Stigas","city":"Apšuciems","zip":"LV-3113"},"lāčupītes stumbri":{"address":"Lāčupītes Stumbri","city":"Apšuciems","zip":"LV-3113"},"lāčupītes taos":{"address":"Lāčupītes Taos","city":"Apšuciems","zip":"LV-3113"},"lāčupītes upītes":{"address":"Lāčupītes Upītes","city":"Apšuciems","zip":"LV-3113"},"lāčupītes vāverītes":{"address":"Lāčupītes Vāverītes","city":"Apšuciems","zip":"LV-3113"},"lāčupītes virši":{"address":"Lāčupītes Virši","city":"Apšuciems","zip":"LV-3113"},"lāčupītes zaķīši":{"address":"Lāčupītes Zaķīši","city":"Apšuciems","zip":"LV-3113"},"lāčupītes zalkši":{"address":"Lāčupītes Zalkši","city":"Apšuciems","zip":"LV-3113"},"lāčupītes iela 8":{"address":"Lāčupītes iela 8","city":"Apšuciems","zip":"LV-3113"},"lāčupītes":{"address":"Lāčupītes","city":"Ancene","zip":"LV-5210"}}