{"lāči - 7":{"address":"Lāči - 7","city":"Kroņauce","zip":"LV-3730"},"lāči - 8":{"address":"Lāči - 8","city":"Kroņauce","zip":"LV-3730"},"lāči - 9":{"address":"Lāči - 9","city":"Kroņauce","zip":"LV-3730"},"lāči - 10":{"address":"Lāči - 10","city":"Kroņauce","zip":"LV-3730"},"lāči - 1":{"address":"Lāči - 1","city":"Uguņciems","zip":"LV-3284"},"lāči - 2":{"address":"Lāči - 2","city":"Uguņciems","zip":"LV-3284"},"lāči - 3":{"address":"Lāči - 3","city":"Kroņauce","zip":"LV-3730"},"lāči - 4":{"address":"Lāči - 4","city":"Kroņauce","zip":"LV-3730"},"lāči - 5":{"address":"Lāči - 5","city":"Kroņauce","zip":"LV-3730"},"lāči - 6":{"address":"Lāči - 6","city":"Kroņauce","zip":"LV-3730"},"lāči - 11":{"address":"Lāči - 11","city":"Kroņauce","zip":"LV-3730"},"lāči - 12":{"address":"Lāči - 12","city":"Kroņauce","zip":"LV-3730"},"lāči - 13":{"address":"Lāči - 13","city":"Kroņauce","zip":"LV-3730"},"lāči - 14":{"address":"Lāči - 14","city":"Kroņauce","zip":"LV-3730"},"lāči - 15":{"address":"Lāči - 15","city":"Kroņauce","zip":"LV-3730"},"lāči - 16":{"address":"Lāči - 16","city":"Kroņauce","zip":"LV-3730"},"lāči - 17":{"address":"Lāči - 17","city":"Kroņauce","zip":"LV-3730"},"lāči - 18":{"address":"Lāči - 18","city":"Kroņauce","zip":"LV-3730"},"lācīši - 1":{"address":"Lācīši - 1","city":"Vecbebri","zip":"LV-5135"},"lācīši - 2":{"address":"Lācīši - 2","city":"Vecbebri","zip":"LV-5135"},"lācīši":{"address":"Lācīši","city":"Skaņkalne","zip":"LV-4215"},"lāči":{"address":"Lāči","city":"Kalniena","zip":"LV-4406"}}