{"purgali - 1":{"address":"Purgali - 1","city":"Purgalciems","zip":"LV-3258"},"purgali - 2":{"address":"Purgali - 2","city":"Purgalciems","zip":"LV-3258"},"purgali - 3":{"address":"Purgali - 3","city":"Purgalciems","zip":"LV-3258"},"purgali - 4":{"address":"Purgali - 4","city":"Purgalciems","zip":"LV-3258"},"purgali - 5":{"address":"Purgali - 5","city":"Purgalciems","zip":"LV-3258"},"purgali - 6":{"address":"Purgali - 6","city":"Purgalciems","zip":"LV-3258"},"purgali - 7":{"address":"Purgali - 7","city":"Purgalciems","zip":"LV-3258"},"purgali - 8":{"address":"Purgali - 8","city":"Purgalciems","zip":"LV-3258"},"purgali - 9":{"address":"Purgali - 9","city":"Purgalciems","zip":"LV-3258"},"purgali - 10":{"address":"Purgali - 10","city":"Purgalciems","zip":"LV-3258"},"upnieki - 1":{"address":"Upnieki - 1","city":"Lībagi","zip":"LV-3258"},"upnieki - 2":{"address":"Upnieki - 2","city":"Lībagi","zip":"LV-3258"},"upnieki - 3":{"address":"Upnieki - 3","city":"Lībagi","zip":"LV-3258"},"tautas nams - 1":{"address":"Tautas nams - 1","city":"Lībagi","zip":"LV-3258"},"tautas nams - 2":{"address":"Tautas nams - 2","city":"Lībagi","zip":"LV-3258"},"krūmiņi - 1":{"address":"Krūmiņi - 1","city":"Linejciems","zip":"LV-3258"},"krūmiņi - 2":{"address":"Krūmiņi - 2","city":"Linejciems","zip":"LV-3258"},"tomi - 1":{"address":"Tomi - 1","city":"Aklaisciems","zip":"LV-3258"},"tomi - 2":{"address":"Tomi - 2","city":"Aklaisciems","zip":"LV-3258"},"tomi - 3":{"address":"Tomi - 3","city":"Aklaisciems","zip":"LV-3258"},"čiekuri - 1":{"address":"Čiekuri - 1","city":"Andumi","zip":"LV-3258"},"čiekuri - 2":{"address":"Čiekuri - 2","city":"Andumi","zip":"LV-3258"},"čiekuri - 3":{"address":"Čiekuri - 3","city":"Andumi","zip":"LV-3258"},"čiekuri - 4":{"address":"Čiekuri - 4","city":"Andumi","zip":"LV-3258"},"čiekuri - 5":{"address":"Čiekuri - 5","city":"Andumi","zip":"LV-3258"},"čiekuri - 6":{"address":"Čiekuri - 6","city":"Andumi","zip":"LV-3258"},"čiekuri - 7":{"address":"Čiekuri - 7","city":"Andumi","zip":"LV-3258"},"čiekuri - 8":{"address":"Čiekuri - 8","city":"Andumi","zip":"LV-3258"},"dambkalni - 1":{"address":"Dambkalni - 1","city":"Andumi","zip":"LV-3258"},"dambkalni - 2":{"address":"Dambkalni - 2","city":"Andumi","zip":"LV-3258"},"dambkalni - 3":{"address":"Dambkalni - 3","city":"Andumi","zip":"LV-3258"},"lazdas - 1":{"address":"Lazdas - 1","city":"Andumi","zip":"LV-3258"},"lazdas - 2":{"address":"Lazdas - 2","city":"Andumi","zip":"LV-3258"},"sniegi - 1":{"address":"Sniegi - 1","city":"Aklaisciems","zip":"LV-3258"},"sniegi - 2":{"address":"Sniegi - 2","city":"Aklaisciems","zip":"LV-3258"},"adamoviči - 1":{"address":"Adamoviči - 1","city":"Mācītājmuiža","zip":"LV-3258"},"adamoviči - 2":{"address":"Adamoviči - 2","city":"Mācītājmuiža","zip":"LV-3258"},"adamoviči - 3":{"address":"Adamoviči - 3","city":"Mācītājmuiža","zip":"LV-3258"},"adamoviči - 4":{"address":"Adamoviči - 4","city":"Mācītājmuiža","zip":"LV-3258"},"agrotehnika - 1":{"address":"Agrotehnika - 1","city":"Mācītājmuiža","zip":"LV-3258"},"agrotehnika - 2":{"address":"Agrotehnika - 2","city":"Mācītājmuiža","zip":"LV-3258"},"agrotehnika - 3":{"address":"Agrotehnika - 3","city":"Mācītājmuiža","zip":"LV-3258"},"agrotehnika - 4":{"address":"Agrotehnika - 4","city":"Mācītājmuiža","zip":"LV-3258"},"agrotehnika - 5":{"address":"Agrotehnika - 5","city":"Mācītājmuiža","zip":"LV-3258"},"aplociņi - 1":{"address":"Aplociņi - 1","city":"Mācītājmuiža","zip":"LV-3258"},"aplociņi - 2":{"address":"Aplociņi - 2","city":"Mācītājmuiža","zip":"LV-3258"},"jaundārznieki - 1":{"address":"Jaundārznieki - 1","city":"Mācītājmuiža","zip":"LV-3258"},"jaundārznieki - 2":{"address":"Jaundārznieki - 2","city":"Mācītājmuiža","zip":"LV-3258"},"mācītājmāja - 1":{"address":"Mācītājmāja - 1","city":"Mācītājmuiža","zip":"LV-3258"},"mācītājmāja - 2":{"address":"Mācītājmāja - 2","city":"Mācītājmuiža","zip":"LV-3258"},"mācītājmāja - 3":{"address":"Mācītājmāja - 3","city":"Mācītājmuiža","zip":"LV-3258"},"mācītājmāja - 4":{"address":"Mācītājmāja - 4","city":"Mācītājmuiža","zip":"LV-3258"},"mācītājmāja - 5":{"address":"Mācītājmāja - 5","city":"Mācītājmuiža","zip":"LV-3258"},"mācītājmāja - 6":{"address":"Mācītājmāja - 6","city":"Mācītājmuiža","zip":"LV-3258"},"mācītājmāja - 7":{"address":"Mācītājmāja - 7","city":"Mācītājmuiža","zip":"LV-3258"},"mācītājmāja - 8":{"address":"Mācītājmāja - 8","city":"Mācītājmuiža","zip":"LV-3258"},"mācītājmāja - 9":{"address":"Mācītājmāja - 9","city":"Mācītājmuiža","zip":"LV-3258"},"mācītājmāja - 10":{"address":"Mācītājmāja - 10","city":"Mācītājmuiža","zip":"LV-3258"},"ozoli - 1":{"address":"Ozoli - 1","city":"Mācītājmuiža","zip":"LV-3258"},"ozoli - 2":{"address":"Ozoli - 2","city":"Mācītājmuiža","zip":"LV-3258"},"ozoli - 3":{"address":"Ozoli - 3","city":"Mācītājmuiža","zip":"LV-3258"}}