{"lībieši 8 - 1":{"address":"Lībieši 8 - 1","city":"Skaņkalne","zip":"LV-4215"},"lībieši 8 - 2":{"address":"Lībieši 8 - 2","city":"Skaņkalne","zip":"LV-4215"},"lībieši 8 - 3":{"address":"Lībieši 8 - 3","city":"Skaņkalne","zip":"LV-4215"},"lībieši 8 - 4":{"address":"Lībieši 8 - 4","city":"Skaņkalne","zip":"LV-4215"},"lībieši 8 - 5":{"address":"Lībieši 8 - 5","city":"Skaņkalne","zip":"LV-4215"},"lībieši 11 - 1":{"address":"Lībieši 11 - 1","city":"Skaņkalne","zip":"LV-4215"},"lībieši 11 - 2":{"address":"Lībieši 11 - 2","city":"Skaņkalne","zip":"LV-4215"},"lībieši 13 - 1":{"address":"Lībieši 13 - 1","city":"Skaņkalne","zip":"LV-4215"},"lībieši 13 - 2":{"address":"Lībieši 13 - 2","city":"Skaņkalne","zip":"LV-4215"},"lībieši 7 - 1":{"address":"Lībieši 7 - 1","city":"Skaņkalne","zip":"LV-4215"},"lībieši 7 - 2":{"address":"Lībieši 7 - 2","city":"Skaņkalne","zip":"LV-4215"},"lībieši 7 - 3":{"address":"Lībieši 7 - 3","city":"Skaņkalne","zip":"LV-4215"},"lībieši 7 - 4":{"address":"Lībieši 7 - 4","city":"Skaņkalne","zip":"LV-4215"},"lībieši 7 - 5":{"address":"Lībieši 7 - 5","city":"Skaņkalne","zip":"LV-4215"},"lībieši 7 - 6":{"address":"Lībieši 7 - 6","city":"Skaņkalne","zip":"LV-4215"},"lībieši 7 - 7":{"address":"Lībieši 7 - 7","city":"Skaņkalne","zip":"LV-4215"},"lībieši 7 - 8":{"address":"Lībieši 7 - 8","city":"Skaņkalne","zip":"LV-4215"},"lībieši 10 - 1":{"address":"Lībieši 10 - 1","city":"Skaņkalne","zip":"LV-4215"},"lībieši 10 - 2":{"address":"Lībieši 10 - 2","city":"Skaņkalne","zip":"LV-4215"},"lībieši 10 - 3":{"address":"Lībieši 10 - 3","city":"Skaņkalne","zip":"LV-4215"},"lībieši 10 - 4":{"address":"Lībieši 10 - 4","city":"Skaņkalne","zip":"LV-4215"},"lībieši 10 - 5":{"address":"Lībieši 10 - 5","city":"Skaņkalne","zip":"LV-4215"},"lībieši 10 - 6":{"address":"Lībieši 10 - 6","city":"Skaņkalne","zip":"LV-4215"},"lībieši 10 - 7":{"address":"Lībieši 10 - 7","city":"Skaņkalne","zip":"LV-4215"},"lībieši 4a - 1":{"address":"Lībieši 4A - 1","city":"Skaņkalne","zip":"LV-4215"},"lībieši 4a - 2":{"address":"Lībieši 4A - 2","city":"Skaņkalne","zip":"LV-4215"},"lībieši 4a - 3":{"address":"Lībieši 4A - 3","city":"Skaņkalne","zip":"LV-4215"},"lībieši 4a - 4":{"address":"Lībieši 4A - 4","city":"Skaņkalne","zip":"LV-4215"},"lībieši 6 - 1":{"address":"Lībieši 6 - 1","city":"Skaņkalne","zip":"LV-4215"},"lībieši 6 - 2":{"address":"Lībieši 6 - 2","city":"Skaņkalne","zip":"LV-4215"},"lībieši 6 - 3":{"address":"Lībieši 6 - 3","city":"Skaņkalne","zip":"LV-4215"},"lībieši 6 - 4":{"address":"Lībieši 6 - 4","city":"Skaņkalne","zip":"LV-4215"},"lībieši - 1":{"address":"Lībieši - 1","city":"Lēnas","zip":"LV-3326"},"lībieši - 2":{"address":"Lībieši - 2","city":"Lēnas","zip":"LV-3326"},"lībieši - 3":{"address":"Lībieši - 3","city":"Lēnas","zip":"LV-3326"},"lībieši - 4":{"address":"Lībieši - 4","city":"Lēnas","zip":"LV-3326"},"lībieši - 5":{"address":"Lībieši - 5","city":"Lēnas","zip":"LV-3326"},"lejas lībieši - 1":{"address":"Lejas Lībieši - 1","city":"Sarkaņi","zip":"LV-4870"},"lejas lībieši - 2":{"address":"Lejas Lībieši - 2","city":"Sarkaņi","zip":"LV-4870"},"lībieši":{"address":"Lībieši","city":"Silakrogs","zip":"LV-2133"},"lībieši 13":{"address":"Lībieši 13","city":"Skaņkalne","zip":"LV-4215"},"lībieši 14":{"address":"Lībieši 14","city":"Skaņkalne","zip":"LV-4215"},"lībieši 16":{"address":"Lībieši 16","city":"Skaņkalne","zip":"LV-4215"},"lībieši 11":{"address":"Lībieši 11","city":"Skaņkalne","zip":"LV-4215"},"lībieši 12":{"address":"Lībieši 12","city":"Skaņkalne","zip":"LV-4215"},"lībieši 8":{"address":"Lībieši 8","city":"Skaņkalne","zip":"LV-4215"},"lībieši 2":{"address":"Lībieši 2","city":"Skaņkalne","zip":"LV-4215"},"lībieši 6":{"address":"Lībieši 6","city":"Skaņkalne","zip":"LV-4215"},"lībieši 4a":{"address":"Lībieši 4A","city":"Skaņkalne","zip":"LV-4215"},"lībieši 10":{"address":"Lībieši 10","city":"Skaņkalne","zip":"LV-4215"},"lībieši 7":{"address":"Lībieši 7","city":"Skaņkalne","zip":"LV-4215"},"lībieši 2b":{"address":"Lībieši 2B","city":"Skaņkalne","zip":"LV-4215"}}