{"līdumi - 1":{"address":"Līdumi - 1","city":"Kroņauce","zip":"LV-3730"},"līdumi - 2":{"address":"Līdumi - 2","city":"Kroņauce","zip":"LV-3730"},"līdumi - 3":{"address":"Līdumi - 3","city":"Kroņauce","zip":"LV-3730"},"līdumi - 4":{"address":"Līdumi - 4","city":"Kroņauce","zip":"LV-3730"},"līdumi - 5":{"address":"Līdumi - 5","city":"Kroņauce","zip":"LV-3730"},"līdumi - 6":{"address":"Līdumi - 6","city":"Kroņauce","zip":"LV-3730"},"līdumi - 7":{"address":"Līdumi - 7","city":"Kroņauce","zip":"LV-3730"},"līdumi - 8":{"address":"Līdumi - 8","city":"Kroņauce","zip":"LV-3730"},"līdumi - 9":{"address":"Līdumi - 9","city":"Kroņauce","zip":"LV-3730"},"līdumi - 10":{"address":"Līdumi - 10","city":"Kroņauce","zip":"LV-3730"},"līdumi - 11":{"address":"Līdumi - 11","city":"Kroņauce","zip":"LV-3730"},"līdumi - 12":{"address":"Līdumi - 12","city":"Kroņauce","zip":"LV-3730"},"līdumi":{"address":"Līdumi","city":"Nītaure","zip":"LV-4112"},"līdumiņi":{"address":"Līdumiņi","city":"Līdumnieki","zip":"LV-4566"},"mazie līdumi":{"address":"Mazie Līdumi","city":"Kozīne","zip":"LV-4585"}}