{"līgas vītoli - 1":{"address":"Līgas Vītoli - 1","city":"Augšlīgatne","zip":"LV-4108"},"līgas vītoli - 2":{"address":"Līgas Vītoli - 2","city":"Augšlīgatne","zip":"LV-4108"},"līgas vītoli - 4":{"address":"Līgas Vītoli - 4","city":"Augšlīgatne","zip":"LV-4108"},"līgas vītoli - 5":{"address":"Līgas Vītoli - 5","city":"Augšlīgatne","zip":"LV-4108"},"līgas vītoli - 6":{"address":"Līgas Vītoli - 6","city":"Augšlīgatne","zip":"LV-4108"},"līgas vītoli - 7":{"address":"Līgas Vītoli - 7","city":"Augšlīgatne","zip":"LV-4108"},"līgas vītoli - 8":{"address":"Līgas Vītoli - 8","city":"Augšlīgatne","zip":"LV-4108"},"līgas - 1":{"address":"Līgas - 1","city":"Sproģi","zip":"LV-5112"},"līgas - 2":{"address":"Līgas - 2","city":"Sproģi","zip":"LV-5112"},"līgas - 3":{"address":"Līgas - 3","city":"Sproģi","zip":"LV-5112"},"līgas - 4":{"address":"Līgas - 4","city":"Sproģi","zip":"LV-5112"},"līgas - 5":{"address":"Līgas - 5","city":"Sproģi","zip":"LV-5112"},"līgas - 6":{"address":"Līgas - 6","city":"Sproģi","zip":"LV-5112"},"līgas - 7":{"address":"Līgas - 7","city":"Sproģi","zip":"LV-5112"},"līgas - 8":{"address":"Līgas - 8","city":"Sproģi","zip":"LV-5112"},"līgas - 9":{"address":"Līgas - 9","city":"Sproģi","zip":"LV-5112"},"līgas - 10":{"address":"Līgas - 10","city":"Sproģi","zip":"LV-5112"},"līgas - 11":{"address":"Līgas - 11","city":"Sproģi","zip":"LV-5112"},"līgas - 12":{"address":"Līgas - 12","city":"Sproģi","zip":"LV-5112"},"līgas - 13":{"address":"Līgas - 13","city":"Sproģi","zip":"LV-5112"},"līgas - 14":{"address":"Līgas - 14","city":"Sproģi","zip":"LV-5112"},"līgas - 15":{"address":"Līgas - 15","city":"Sproģi","zip":"LV-5112"},"līgas - 16":{"address":"Līgas - 16","city":"Sproģi","zip":"LV-5112"},"līgas - 17":{"address":"Līgas - 17","city":"Sproģi","zip":"LV-5112"},"līgas - 18":{"address":"Līgas - 18","city":"Sproģi","zip":"LV-5112"},"līgas - 19":{"address":"Līgas - 19","city":"Laidze","zip":"LV-3280"},"līgas - 20":{"address":"Līgas - 20","city":"Laidze","zip":"LV-3280"},"līgas - 21":{"address":"Līgas - 21","city":"Laidze","zip":"LV-3280"},"līgas - 22":{"address":"Līgas - 22","city":"Laidze","zip":"LV-3280"},"līgas - 23":{"address":"Līgas - 23","city":"Laidze","zip":"LV-3280"},"līgas - 24":{"address":"Līgas - 24","city":"Laidze","zip":"LV-3280"},"līgas":{"address":"Līgas","city":"Jurģi","zip":"LV-3145"},"līgas vītoli":{"address":"Līgas Vītoli","city":"Augšlīgatne","zip":"LV-4108"},"līgas iela 2":{"address":"Līgas iela 2","city":"Augšlīgatne","zip":"LV-4108"}}