{"līgo iela 9 - 1":{"address":"Līgo iela 9 - 1","city":"Lipuški","zip":"LV-4626"},"līgo iela 9 - 2":{"address":"Līgo iela 9 - 2","city":"Lipuški","zip":"LV-4626"},"līgo iela 9 - 3":{"address":"Līgo iela 9 - 3","city":"Lipuški","zip":"LV-4626"},"līgo iela 9 - 4":{"address":"Līgo iela 9 - 4","city":"Lipuški","zip":"LV-4626"},"līgo iela 9 - 5":{"address":"Līgo iela 9 - 5","city":"Lipuški","zip":"LV-4626"},"līgo iela 9 - 6":{"address":"Līgo iela 9 - 6","city":"Lipuški","zip":"LV-4626"},"līgo iela 9 - 7":{"address":"Līgo iela 9 - 7","city":"Lipuški","zip":"LV-4626"},"līgo iela 9 - 8":{"address":"Līgo iela 9 - 8","city":"Lipuški","zip":"LV-4626"},"līgo iela 9 - 9":{"address":"Līgo iela 9 - 9","city":"Lipuški","zip":"LV-4626"},"līgo iela 9 - 10":{"address":"Līgo iela 9 - 10","city":"Lipuški","zip":"LV-4626"},"līgo iela 9 - 11":{"address":"Līgo iela 9 - 11","city":"Lipuški","zip":"LV-4626"},"līgo iela 9 - 12":{"address":"Līgo iela 9 - 12","city":"Lipuški","zip":"LV-4626"},"līgo iela 9 - 13":{"address":"Līgo iela 9 - 13","city":"Lipuški","zip":"LV-4626"},"līgo iela 9 - 14":{"address":"Līgo iela 9 - 14","city":"Lipuški","zip":"LV-4626"},"līgo iela 9 - 15":{"address":"Līgo iela 9 - 15","city":"Lipuški","zip":"LV-4626"},"līgo iela 9 - 16":{"address":"Līgo iela 9 - 16","city":"Lipuški","zip":"LV-4626"},"līgo iela 9 - 17":{"address":"Līgo iela 9 - 17","city":"Lipuški","zip":"LV-4626"},"līgo iela 9 - 18":{"address":"Līgo iela 9 - 18","city":"Lipuški","zip":"LV-4626"},"līgo iela 9 - 19":{"address":"Līgo iela 9 - 19","city":"Lipuški","zip":"LV-4626"},"līgo iela 9 - 20":{"address":"Līgo iela 9 - 20","city":"Lipuški","zip":"LV-4626"},"līgo iela 9 - 21":{"address":"Līgo iela 9 - 21","city":"Lipuški","zip":"LV-4626"},"līgo iela 9 - 22":{"address":"Līgo iela 9 - 22","city":"Lipuški","zip":"LV-4626"},"līgo iela 9 - 23":{"address":"Līgo iela 9 - 23","city":"Lipuški","zip":"LV-4626"},"līgo iela 9 - 24":{"address":"Līgo iela 9 - 24","city":"Lipuški","zip":"LV-4626"},"līgo iela 3 - 1":{"address":"Līgo iela 3 - 1","city":"Lipuški","zip":"LV-4626"},"līgo iela 3 - 2":{"address":"Līgo iela 3 - 2","city":"Lipuški","zip":"LV-4626"},"līgo iela 3 - 3":{"address":"Līgo iela 3 - 3","city":"Lipuški","zip":"LV-4626"},"līgo iela 3 - 4":{"address":"Līgo iela 3 - 4","city":"Lipuški","zip":"LV-4626"},"līgo iela 3 - 5":{"address":"Līgo iela 3 - 5","city":"Lipuški","zip":"LV-4626"},"līgo iela 3 - 6":{"address":"Līgo iela 3 - 6","city":"Lipuški","zip":"LV-4626"},"līgo iela 3 - 7":{"address":"Līgo iela 3 - 7","city":"Lipuški","zip":"LV-4626"},"līgo iela 3 - 8":{"address":"Līgo iela 3 - 8","city":"Lipuški","zip":"LV-4626"},"līgo iela 3 - 9":{"address":"Līgo iela 3 - 9","city":"Lipuški","zip":"LV-4626"},"līgo iela 3 - 10":{"address":"Līgo iela 3 - 10","city":"Lipuški","zip":"LV-4626"},"līgo iela 3 - 11":{"address":"Līgo iela 3 - 11","city":"Lipuški","zip":"LV-4626"},"līgo iela 3 - 12":{"address":"Līgo iela 3 - 12","city":"Lipuški","zip":"LV-4626"},"līgo iela 5 - 1":{"address":"Līgo iela 5 - 1","city":"Lipuški","zip":"LV-4626"},"līgo iela 5 - 2":{"address":"Līgo iela 5 - 2","city":"Lipuški","zip":"LV-4626"},"līgo iela 5 - 3":{"address":"Līgo iela 5 - 3","city":"Lipuški","zip":"LV-4626"},"līgo iela 5 - 4":{"address":"Līgo iela 5 - 4","city":"Lipuški","zip":"LV-4626"},"līgo iela 5 - 5":{"address":"Līgo iela 5 - 5","city":"Lipuški","zip":"LV-4626"},"līgo iela 5 - 6":{"address":"Līgo iela 5 - 6","city":"Lipuški","zip":"LV-4626"},"līgo iela 5 - 7":{"address":"Līgo iela 5 - 7","city":"Lipuški","zip":"LV-4626"},"līgo iela 5 - 8":{"address":"Līgo iela 5 - 8","city":"Lipuški","zip":"LV-4626"},"līgo iela 5 - 9":{"address":"Līgo iela 5 - 9","city":"Lipuški","zip":"LV-4626"},"līgo iela 5 - 10":{"address":"Līgo iela 5 - 10","city":"Lipuški","zip":"LV-4626"},"līgo iela 5 - 11":{"address":"Līgo iela 5 - 11","city":"Lipuški","zip":"LV-4626"},"līgo iela 5 - 12":{"address":"Līgo iela 5 - 12","city":"Lipuški","zip":"LV-4626"},"līgo iela 7 - 1":{"address":"Līgo iela 7 - 1","city":"Lipuški","zip":"LV-4626"},"līgo iela 7 - 2":{"address":"Līgo iela 7 - 2","city":"Lipuški","zip":"LV-4626"},"līgo iela 7 - 3":{"address":"Līgo iela 7 - 3","city":"Lipuški","zip":"LV-4626"},"līgo iela 7 - 4":{"address":"Līgo iela 7 - 4","city":"Lipuški","zip":"LV-4626"},"līgo iela 7 - 5":{"address":"Līgo iela 7 - 5","city":"Lipuški","zip":"LV-4626"},"līgo iela 7 - 6":{"address":"Līgo iela 7 - 6","city":"Lipuški","zip":"LV-4626"},"līgo iela 7 - 7":{"address":"Līgo iela 7 - 7","city":"Lipuški","zip":"LV-4626"},"līgo iela 7 - 8":{"address":"Līgo iela 7 - 8","city":"Lipuški","zip":"LV-4626"},"līgo iela 7 - 9":{"address":"Līgo iela 7 - 9","city":"Lipuški","zip":"LV-4626"},"līgo iela 7 - 10":{"address":"Līgo iela 7 - 10","city":"Lipuški","zip":"LV-4626"},"līgo iela 7 - 11":{"address":"Līgo iela 7 - 11","city":"Lipuški","zip":"LV-4626"},"līgo iela 7 - 12":{"address":"Līgo iela 7 - 12","city":"Lipuški","zip":"LV-4626"},"līgo iela 7 - 13":{"address":"Līgo iela 7 - 13","city":"Lipuški","zip":"LV-4626"},"līgo iela 7 - 14":{"address":"Līgo iela 7 - 14","city":"Lipuški","zip":"LV-4626"},"līgo iela 7 - 15":{"address":"Līgo iela 7 - 15","city":"Lipuški","zip":"LV-4626"},"līgo iela 7 - 16":{"address":"Līgo iela 7 - 16","city":"Lipuški","zip":"LV-4626"},"līgo iela 7 - 17":{"address":"Līgo iela 7 - 17","city":"Lipuški","zip":"LV-4626"},"līgo iela 7 - 18":{"address":"Līgo iela 7 - 18","city":"Lipuški","zip":"LV-4626"},"lubānas iela 2 - 1":{"address":"Lubānas iela 2 - 1","city":"Līgo","zip":"LV-4421"},"lubānas iela 2 - 2":{"address":"Lubānas iela 2 - 2","city":"Līgo","zip":"LV-4421"},"egles - 1":{"address":"Egles - 1","city":"Līgo","zip":"LV-4421"},"egles - 2":{"address":"Egles - 2","city":"Līgo","zip":"LV-4421"},"egles - 3":{"address":"Egles - 3","city":"Līgo","zip":"LV-4421"},"egles - 4":{"address":"Egles - 4","city":"Līgo","zip":"LV-4421"},"egles - 5":{"address":"Egles - 5","city":"Līgo","zip":"LV-4421"},"egles - 6":{"address":"Egles - 6","city":"Līgo","zip":"LV-4421"},"kadiķi - 1":{"address":"Kadiķi - 1","city":"Līgo","zip":"LV-4421"},"kadiķi - 2":{"address":"Kadiķi - 2","city":"Līgo","zip":"LV-4421"},"kadiķi - 3":{"address":"Kadiķi - 3","city":"Līgo","zip":"LV-4421"},"kadiķi - 4":{"address":"Kadiķi - 4","city":"Līgo","zip":"LV-4421"},"kadiķi - 5":{"address":"Kadiķi - 5","city":"Līgo","zip":"LV-4421"},"kadiķi - 6":{"address":"Kadiķi - 6","city":"Līgo","zip":"LV-4421"},"krasti - 1":{"address":"Krasti - 1","city":"Līgo","zip":"LV-4421"},"krasti - 2":{"address":"Krasti - 2","city":"Līgo","zip":"LV-4421"},"krasti - 3":{"address":"Krasti - 3","city":"Līgo","zip":"LV-4421"},"krasti - 4":{"address":"Krasti - 4","city":"Līgo","zip":"LV-4421"},"paegles - 1":{"address":"Paegles - 1","city":"Līgo","zip":"LV-4421"},"paegles - 2":{"address":"Paegles - 2","city":"Līgo","zip":"LV-4421"},"paegles - 3":{"address":"Paegles - 3","city":"Līgo","zip":"LV-4421"},"paegles - 4":{"address":"Paegles - 4","city":"Līgo","zip":"LV-4421"},"paegles - 5":{"address":"Paegles - 5","city":"Līgo","zip":"LV-4421"},"paegles - 6":{"address":"Paegles - 6","city":"Līgo","zip":"LV-4421"},"vītoli - 1":{"address":"Vītoli - 1","city":"Līgo","zip":"LV-4421"},"vītoli - 2":{"address":"Vītoli - 2","city":"Līgo","zip":"LV-4421"},"vītoli - 3":{"address":"Vītoli - 3","city":"Līgo","zip":"LV-4421"},"vītoli - 4":{"address":"Vītoli - 4","city":"Līgo","zip":"LV-4421"},"vītoli - 5":{"address":"Vītoli - 5","city":"Līgo","zip":"LV-4421"},"vītoli - 6":{"address":"Vītoli - 6","city":"Līgo","zip":"LV-4421"},"vītoli - 7":{"address":"Vītoli - 7","city":"Līgo","zip":"LV-4421"},"vītoli - 8":{"address":"Vītoli - 8","city":"Līgo","zip":"LV-4421"},"vītoli - 9":{"address":"Vītoli - 9","city":"Līgo","zip":"LV-4421"},"vītoli - 10":{"address":"Vītoli - 10","city":"Līgo","zip":"LV-4421"}}