{"sapas - 9":{"address":"Sapas - 9","city":"Līči","zip":"LV-4224"},"sapas - 8":{"address":"Sapas - 8","city":"Līči","zip":"LV-4224"},"sapas - 7":{"address":"Sapas - 7","city":"Līči","zip":"LV-4224"},"sapas - 6":{"address":"Sapas - 6","city":"Līči","zip":"LV-4224"},"sapas - 5":{"address":"Sapas - 5","city":"Līči","zip":"LV-4224"},"sapas - 4":{"address":"Sapas - 4","city":"Līči","zip":"LV-4224"},"sapas - 3":{"address":"Sapas - 3","city":"Līči","zip":"LV-4224"},"sapas - 2":{"address":"Sapas - 2","city":"Līči","zip":"LV-4224"},"sapas - 1":{"address":"Sapas - 1","city":"Līči","zip":"LV-4224"},"grandāni - 1":{"address":"Grandāni - 1","city":"Līči","zip":"LV-4224"},"ķīši - 1":{"address":"Ķīši - 1","city":"Līči","zip":"LV-4224"},"ķīši - 2":{"address":"Ķīši - 2","city":"Līči","zip":"LV-4224"},"ķīši - 3":{"address":"Ķīši - 3","city":"Līči","zip":"LV-4224"},"ķīši - 4":{"address":"Ķīši - 4","city":"Līči","zip":"LV-4224"},"ķīši - 5":{"address":"Ķīši - 5","city":"Līči","zip":"LV-4224"},"ķīši - 6":{"address":"Ķīši - 6","city":"Līči","zip":"LV-4224"},"ķīši - 7":{"address":"Ķīši - 7","city":"Līči","zip":"LV-4224"},"pīlāri - 4":{"address":"Pīlāri - 4","city":"Līči","zip":"LV-4224"},"pīlāri - 3":{"address":"Pīlāri - 3","city":"Līči","zip":"LV-4224"},"pīlāri - 2":{"address":"Pīlāri - 2","city":"Līči","zip":"LV-4224"},"pīlāri - 1":{"address":"Pīlāri - 1","city":"Līči","zip":"LV-4224"},"grandāni - 6":{"address":"Grandāni - 6","city":"Līči","zip":"LV-4224"},"grandāni - 7":{"address":"Grandāni - 7","city":"Līči","zip":"LV-4224"},"grandāni - 3":{"address":"Grandāni - 3","city":"Līči","zip":"LV-4224"},"grandāni - 4":{"address":"Grandāni - 4","city":"Līči","zip":"LV-4224"},"bekas - 1":{"address":"Bekas - 1","city":"Līči","zip":"LV-4224"},"bekas - 2":{"address":"Bekas - 2","city":"Līči","zip":"LV-4224"},"bekas - 3":{"address":"Bekas - 3","city":"Līči","zip":"LV-4224"},"bekas - 4":{"address":"Bekas - 4","city":"Līči","zip":"LV-4224"},"bekas - 5":{"address":"Bekas - 5","city":"Līči","zip":"LV-4224"},"bekas - 6":{"address":"Bekas - 6","city":"Līči","zip":"LV-4224"},"bekas - 7":{"address":"Bekas - 7","city":"Līči","zip":"LV-4224"},"līči 1 - 1":{"address":"Līči 1 - 1","city":"Valmiermuiža","zip":"LV-4219"},"līči 1 - 2":{"address":"Līči 1 - 2","city":"Valmiermuiža","zip":"LV-4219"},"līcīši - 1":{"address":"Līcīši - 1","city":"Zebrene","zip":"LV-3731"},"līcīši - 2":{"address":"Līcīši - 2","city":"Zebrene","zip":"LV-3731"},"līcīši - 3":{"address":"Līcīši - 3","city":"Zebrene","zip":"LV-3731"},"līcīši - 4":{"address":"Līcīši - 4","city":"Zebrene","zip":"LV-3731"},"līcīši - 5":{"address":"Līcīši - 5","city":"Zebrene","zip":"LV-3731"},"līcīši - 6":{"address":"Līcīši - 6","city":"Zebrene","zip":"LV-3731"},"līcīši - 7":{"address":"Līcīši - 7","city":"Zebrene","zip":"LV-3731"},"līcīši - 8":{"address":"Līcīši - 8","city":"Zebrene","zip":"LV-3731"},"līči - 1":{"address":"Līči - 1","city":"Blāzma","zip":"LV-3613"},"līči - 2":{"address":"Līči - 2","city":"Blāzma","zip":"LV-3613"},"līči - 3":{"address":"Līči - 3","city":"Blāzma","zip":"LV-3613"},"līči - 4":{"address":"Līči - 4","city":"Blāzma","zip":"LV-3613"},"līči - 5":{"address":"Līči - 5","city":"Baltaiskrogs","zip":"LV-3897"},"līči - 6":{"address":"Līči - 6","city":"Baltaiskrogs","zip":"LV-3897"},"līči - 7":{"address":"Līči - 7","city":"Baltaiskrogs","zip":"LV-3897"},"līči - 8":{"address":"Līči - 8","city":"Baltaiskrogs","zip":"LV-3897"},"līcīši - 9":{"address":"Līcīši - 9","city":"Zebrene","zip":"LV-3731"},"līcīši - 10":{"address":"Līcīši - 10","city":"Zebrene","zip":"LV-3731"},"līcīši - 11":{"address":"Līcīši - 11","city":"Zebrene","zip":"LV-3731"},"līcīši - 12":{"address":"Līcīši - 12","city":"Zebrene","zip":"LV-3731"},"ažulīši - 1":{"address":"Ažulīši - 1","city":"Līči","zip":"LV-3297"},"ažulīši - 2":{"address":"Ažulīši - 2","city":"Līči","zip":"LV-3297"}}