{"līņu iela 4":{"address":"Līņu iela 4","city":"Bukulti","zip":"LV-1024"},"līņu iela 5":{"address":"Līņu iela 5","city":"Carnikava","zip":"LV-2163"},"līņu iela 6":{"address":"Līņu iela 6","city":"Carnikava","zip":"LV-2163"},"līņu iela 7":{"address":"Līņu iela 7","city":"Carnikava","zip":"LV-2163"},"līņu iela 8":{"address":"Līņu iela 8","city":"Carnikava","zip":"LV-2163"},"līņu iela 9":{"address":"Līņu iela 9","city":"Carnikava","zip":"LV-2163"},"līņu iela 10":{"address":"Līņu iela 10","city":"Carnikava","zip":"LV-2163"},"līņu iela 11":{"address":"Līņu iela 11","city":"Carnikava","zip":"LV-2163"},"līņu iela 12":{"address":"Līņu iela 12","city":"Carnikava","zip":"LV-2163"},"līņu iela 13":{"address":"Līņu iela 13","city":"Carnikava","zip":"LV-2163"},"līņu iela 14":{"address":"Līņu iela 14","city":"Carnikava","zip":"LV-2163"},"līņu iela 15":{"address":"Līņu iela 15","city":"Carnikava","zip":"LV-2163"},"līņu iela 16":{"address":"Līņu iela 16","city":"Carnikava","zip":"LV-2163"},"līņu iela 17":{"address":"Līņu iela 17","city":"Carnikava","zip":"LV-2163"},"līņu iela 52":{"address":"Līņu iela 52","city":"Carnikava","zip":"LV-2163"},"līņu iela 53":{"address":"Līņu iela 53","city":"Carnikava","zip":"LV-2163"},"līņu iela 54":{"address":"Līņu iela 54","city":"Carnikava","zip":"LV-2163"},"līņu iela 1":{"address":"Līņu iela 1","city":"Bukulti","zip":"LV-1024"},"līņu iela 2":{"address":"Līņu iela 2","city":"Bukulti","zip":"LV-1024"},"līņu iela 3":{"address":"Līņu iela 3","city":"Bukulti","zip":"LV-1024"},"linu iela 3":{"address":"Linu iela 3","city":"Rāmava","zip":"LV-2111"},"linu iela 1":{"address":"Linu iela 1","city":"Rāmava","zip":"LV-2111"},"linu iela 1a":{"address":"Linu iela 1A","city":"Rāmava","zip":"LV-2111"},"linu iela 15":{"address":"Linu iela 15","city":"Rāmava","zip":"LV-2111"}}