{"madaras - 1":{"address":"Madaras - 1","city":"Dzērbene","zip":"LV-4118"},"madaras - 2":{"address":"Madaras - 2","city":"Dzērbene","zip":"LV-4118"},"madaras - 3":{"address":"Madaras - 3","city":"Dzērbene","zip":"LV-4118"},"madaras - 4":{"address":"Madaras - 4","city":"Dzērbene","zip":"LV-4118"},"madaras - 5":{"address":"Madaras - 5","city":"Dzērbene","zip":"LV-4118"},"madaras - 6":{"address":"Madaras - 6","city":"Dzērbene","zip":"LV-4118"},"madaras - 7":{"address":"Madaras - 7","city":"Dzērbene","zip":"LV-4118"},"madaras - 8":{"address":"Madaras - 8","city":"Dzērbene","zip":"LV-4118"},"madaras - 9":{"address":"Madaras - 9","city":"Dzērbene","zip":"LV-4118"},"madaras - 10":{"address":"Madaras - 10","city":"Dzērbene","zip":"LV-4118"},"madaras - 11":{"address":"Madaras - 11","city":"Dzērbene","zip":"LV-4118"},"madaras - 12":{"address":"Madaras - 12","city":"Dzērbene","zip":"LV-4118"},"madaras - 13":{"address":"Madaras - 13","city":"Dzērbene","zip":"LV-4118"},"madaras - 14":{"address":"Madaras - 14","city":"Dzērbene","zip":"LV-4118"},"madaras - 15":{"address":"Madaras - 15","city":"Dzērbene","zip":"LV-4118"},"madaras - 16":{"address":"Madaras - 16","city":"Dzērbene","zip":"LV-4118"},"madaras - 17":{"address":"Madaras - 17","city":"Dzērbene","zip":"LV-4118"},"madaras - 18":{"address":"Madaras - 18","city":"Dzērbene","zip":"LV-4118"},"madaras - 19":{"address":"Madaras - 19","city":"Dzērbene","zip":"LV-4118"},"madaras - 20":{"address":"Madaras - 20","city":"Dzērbene","zip":"LV-4118"},"madaras - 21":{"address":"Madaras - 21","city":"Dzērbene","zip":"LV-4118"},"madaras - 22":{"address":"Madaras - 22","city":"Dzērbene","zip":"LV-4118"},"madaras - 23":{"address":"Madaras - 23","city":"Dzērbene","zip":"LV-4118"},"madaras - 24":{"address":"Madaras - 24","city":"Dzērbene","zip":"LV-4118"},"madaras - 25":{"address":"Madaras - 25","city":"Dzērbene","zip":"LV-4118"},"madaras - 26":{"address":"Madaras - 26","city":"Dzērbene","zip":"LV-4118"},"madaras - 27":{"address":"Madaras - 27","city":"Dzērbene","zip":"LV-4118"},"madaras - 28":{"address":"Madaras - 28","city":"Dzērbene","zip":"LV-4118"},"madaras - 29":{"address":"Madaras - 29","city":"Dzērbene","zip":"LV-4118"},"madaras - 30":{"address":"Madaras - 30","city":"Dzērbene","zip":"LV-4118"},"madaras - 31":{"address":"Madaras - 31","city":"Vecate","zip":"LV-4211"},"madaras - 32":{"address":"Madaras - 32","city":"Vecate","zip":"LV-4211"},"madaras - 33":{"address":"Madaras - 33","city":"Vecate","zip":"LV-4211"},"madaras - 34":{"address":"Madaras - 34","city":"Vecate","zip":"LV-4211"},"madaras - 35":{"address":"Madaras - 35","city":"Vecate","zip":"LV-4211"},"madaras - 36":{"address":"Madaras - 36","city":"Vecate","zip":"LV-4211"},"madaras - 37":{"address":"Madaras - 37","city":"Vecate","zip":"LV-4211"},"madaras - 38":{"address":"Madaras - 38","city":"Vecate","zip":"LV-4211"},"madaras - 39":{"address":"Madaras - 39","city":"Vecate","zip":"LV-4211"},"madaras 1 - 1":{"address":"Madaras 1 - 1","city":"Ozolaine","zip":"LV-3936"},"madaras 1 - 2":{"address":"Madaras 1 - 2","city":"Ozolaine","zip":"LV-3936"},"madaras 1 - 3":{"address":"Madaras 1 - 3","city":"Ozolaine","zip":"LV-3936"}}