{"alkšņu malas":{"address":"Alkšņu malas","city":"Robežnieki","zip":"LV-4566"},"malas":{"address":"Malas","city":"Strodi","zip":"LV-4622"},"malas iela 2":{"address":"Malas iela 2","city":"Saurieši","zip":"LV-2118"},"malas iela 4":{"address":"Malas iela 4","city":"Saurieši","zip":"LV-2118"},"priežu malas iela 1":{"address":"Priežu malas iela 1","city":"Spuņciems","zip":"LV-2105"},"priežu malas iela 2":{"address":"Priežu malas iela 2","city":"Spuņciems","zip":"LV-2105"},"priežu malas iela 3":{"address":"Priežu malas iela 3","city":"Spuņciems","zip":"LV-2105"},"priežu malas iela 4":{"address":"Priežu malas iela 4","city":"Spuņciems","zip":"LV-2105"},"priežu malas iela 5":{"address":"Priežu malas iela 5","city":"Spuņciems","zip":"LV-2105"},"priežu malas iela 6":{"address":"Priežu malas iela 6","city":"Spuņciems","zip":"LV-2105"},"priežu malas iela 7":{"address":"Priežu malas iela 7","city":"Spuņciems","zip":"LV-2105"},"priežu malas iela 8":{"address":"Priežu malas iela 8","city":"Spuņciems","zip":"LV-2105"},"priežu malas iela 9":{"address":"Priežu malas iela 9","city":"Spuņciems","zip":"LV-2105"},"priežu malas iela 10":{"address":"Priežu malas iela 10","city":"Spuņciems","zip":"LV-2105"},"priežu malas iela 11":{"address":"Priežu malas iela 11","city":"Spuņciems","zip":"LV-2105"},"priežu malas iela 12":{"address":"Priežu malas iela 12","city":"Spuņciems","zip":"LV-2105"},"priežu malas iela 13":{"address":"Priežu malas iela 13","city":"Spuņciems","zip":"LV-2105"},"priežu malas iela 14":{"address":"Priežu malas iela 14","city":"Spuņciems","zip":"LV-2105"},"priežu malas iela 15":{"address":"Priežu malas iela 15","city":"Spuņciems","zip":"LV-2105"},"priežu malas iela 17":{"address":"Priežu malas iela 17","city":"Spuņciems","zip":"LV-2105"},"priežu malas iela 18":{"address":"Priežu malas iela 18","city":"Spuņciems","zip":"LV-2105"},"malas iela 1":{"address":"Malas iela 1","city":"Saurieši","zip":"LV-2118"},"priežu malas iela 9a":{"address":"Priežu malas iela 9A","city":"Spuņciems","zip":"LV-2105"},"malastjevi":{"address":"Malastjevi","city":"Konecpole","zip":"LV-5748"},"kalna malas":{"address":"Kalna malas","city":"Rubeni","zip":"LV-5681"},"upes malas":{"address":"Upes malas","city":"Kalviši","zip":"LV-5681"},"malasriteņi":{"address":"Malasriteņi","city":"Roguļeva","zip":"LV-4587"}}