{"martas iela 20 - 1":{"address":"Martas iela 20 - 1","city":"Mārupe","zip":"LV-2167"},"martas iela 20 - 2":{"address":"Martas iela 20 - 2","city":"Mārupe","zip":"LV-2167"},"martas iela 24 - 1":{"address":"Martas iela 24 - 1","city":"Mārupe","zip":"LV-2167"},"martas iela 24 - 2":{"address":"Martas iela 24 - 2","city":"Mārupe","zip":"LV-2167"},"martas iela 36 - 4":{"address":"Martas iela 36 - 4","city":"Mārupe","zip":"LV-2167"},"martas iela 36 - 1":{"address":"Martas iela 36 - 1","city":"Mārupe","zip":"LV-2167"},"martas iela 36 - 2":{"address":"Martas iela 36 - 2","city":"Mārupe","zip":"LV-2167"},"martas iela 36 - 3":{"address":"Martas iela 36 - 3","city":"Mārupe","zip":"LV-2167"},"martas iela 36 - 5":{"address":"Martas iela 36 - 5","city":"Mārupe","zip":"LV-2167"},"martas iela 36 - 6":{"address":"Martas iela 36 - 6","city":"Mārupe","zip":"LV-2167"},"martas iela 36 - 7":{"address":"Martas iela 36 - 7","city":"Mārupe","zip":"LV-2167"},"martas iela 36 - 8":{"address":"Martas iela 36 - 8","city":"Mārupe","zip":"LV-2167"},"martas iela 36 - 9":{"address":"Martas iela 36 - 9","city":"Mārupe","zip":"LV-2167"},"martas iela 36 - 10":{"address":"Martas iela 36 - 10","city":"Mārupe","zip":"LV-2167"},"martas iela 36 - 11":{"address":"Martas iela 36 - 11","city":"Mārupe","zip":"LV-2167"},"martas iela 36 - 12":{"address":"Martas iela 36 - 12","city":"Mārupe","zip":"LV-2167"},"martas iela 36 - 13":{"address":"Martas iela 36 - 13","city":"Mārupe","zip":"LV-2167"},"martas iela 36 - 14":{"address":"Martas iela 36 - 14","city":"Mārupe","zip":"LV-2167"},"martas iela 36 - 15":{"address":"Martas iela 36 - 15","city":"Mārupe","zip":"LV-2167"},"martas iela 36 - 16":{"address":"Martas iela 36 - 16","city":"Mārupe","zip":"LV-2167"},"martas iela 36 - 17":{"address":"Martas iela 36 - 17","city":"Mārupe","zip":"LV-2167"},"martas iela 36 - 18":{"address":"Martas iela 36 - 18","city":"Mārupe","zip":"LV-2167"},"martas iela 36 - 19":{"address":"Martas iela 36 - 19","city":"Mārupe","zip":"LV-2167"},"martas iela 36 - 20":{"address":"Martas iela 36 - 20","city":"Mārupe","zip":"LV-2167"},"martas iela 36 - 21":{"address":"Martas iela 36 - 21","city":"Mārupe","zip":"LV-2167"},"martas iela 36 - 22":{"address":"Martas iela 36 - 22","city":"Mārupe","zip":"LV-2167"},"martas iela 36 - 23":{"address":"Martas iela 36 - 23","city":"Mārupe","zip":"LV-2167"},"martas iela 36 - 24":{"address":"Martas iela 36 - 24","city":"Mārupe","zip":"LV-2167"},"martas iela 36 - 25":{"address":"Martas iela 36 - 25","city":"Mārupe","zip":"LV-2167"},"martas iela 36 - 26":{"address":"Martas iela 36 - 26","city":"Mārupe","zip":"LV-2167"},"martas iela 13 - 1":{"address":"Martas iela 13 - 1","city":"Jaunolaine","zip":"LV-2127"},"martas iela 13 - 2":{"address":"Martas iela 13 - 2","city":"Jaunolaine","zip":"LV-2127"},"martas iela 14 - 1":{"address":"Martas iela 14 - 1","city":"Jaunolaine","zip":"LV-2127"},"martas iela 14 - 2":{"address":"Martas iela 14 - 2","city":"Jaunolaine","zip":"LV-2127"}}