{"valmieras iela 20 - 1":{"address":"Valmieras iela 20 - 1","city":"Matīši","zip":"LV-4210"},"valmieras iela 20 - 2":{"address":"Valmieras iela 20 - 2","city":"Matīši","zip":"LV-4210"},"valmieras iela 20 - 3":{"address":"Valmieras iela 20 - 3","city":"Matīši","zip":"LV-4210"},"valmieras iela 20 - 4":{"address":"Valmieras iela 20 - 4","city":"Matīši","zip":"LV-4210"},"valmieras iela 20 - 1a":{"address":"Valmieras iela 20 - 1A","city":"Matīši","zip":"LV-4210"},"valmieras iela 20 - 5":{"address":"Valmieras iela 20 - 5","city":"Matīši","zip":"LV-4210"},"valmieras iela 20 - 6":{"address":"Valmieras iela 20 - 6","city":"Matīši","zip":"LV-4210"},"valmieras iela 20 - 7":{"address":"Valmieras iela 20 - 7","city":"Matīši","zip":"LV-4210"},"valmieras iela 15 - 1":{"address":"Valmieras iela 15 - 1","city":"Matīši","zip":"LV-4210"},"valmieras iela 15 - 2":{"address":"Valmieras iela 15 - 2","city":"Matīši","zip":"LV-4210"},"valmieras iela 15 - 3":{"address":"Valmieras iela 15 - 3","city":"Matīši","zip":"LV-4210"},"valmieras iela 15 - 4":{"address":"Valmieras iela 15 - 4","city":"Matīši","zip":"LV-4210"},"valmieras iela 24 - 1":{"address":"Valmieras iela 24 - 1","city":"Matīši","zip":"LV-4210"},"valmieras iela 24 - 2":{"address":"Valmieras iela 24 - 2","city":"Matīši","zip":"LV-4210"},"valmieras iela 9 - 2":{"address":"Valmieras iela 9 - 2","city":"Matīši","zip":"LV-4210"},"valmieras iela 9 - 3":{"address":"Valmieras iela 9 - 3","city":"Matīši","zip":"LV-4210"},"valmieras iela 9 - 4":{"address":"Valmieras iela 9 - 4","city":"Matīši","zip":"LV-4210"},"valmieras iela 13 - 1":{"address":"Valmieras iela 13 - 1","city":"Matīši","zip":"LV-4210"},"valmieras iela 13 - 3":{"address":"Valmieras iela 13 - 3","city":"Matīši","zip":"LV-4210"},"valmieras iela 13 - 4":{"address":"Valmieras iela 13 - 4","city":"Matīši","zip":"LV-4210"},"valmieras iela 13 - 6":{"address":"Valmieras iela 13 - 6","city":"Matīši","zip":"LV-4210"},"valmieras iela 13 - 2":{"address":"Valmieras iela 13 - 2","city":"Matīši","zip":"LV-4210"},"valmieras iela 6 - 1":{"address":"Valmieras iela 6 - 1","city":"Matīši","zip":"LV-4210"},"valmieras iela 6 - 2":{"address":"Valmieras iela 6 - 2","city":"Matīši","zip":"LV-4210"},"valmieras iela 6 - 3":{"address":"Valmieras iela 6 - 3","city":"Matīši","zip":"LV-4210"},"valmieras iela 6 - 4":{"address":"Valmieras iela 6 - 4","city":"Matīši","zip":"LV-4210"},"valmieras iela 7 - 1":{"address":"Valmieras iela 7 - 1","city":"Matīši","zip":"LV-4210"},"valmieras iela 7 - 2":{"address":"Valmieras iela 7 - 2","city":"Matīši","zip":"LV-4210"},"valmieras iela 7 - 3":{"address":"Valmieras iela 7 - 3","city":"Matīši","zip":"LV-4210"},"valmieras iela 7 - 4":{"address":"Valmieras iela 7 - 4","city":"Matīši","zip":"LV-4210"},"valmieras iela 7 - 5":{"address":"Valmieras iela 7 - 5","city":"Matīši","zip":"LV-4210"},"valmieras iela 7 - 6":{"address":"Valmieras iela 7 - 6","city":"Matīši","zip":"LV-4210"},"valmieras iela 7a - 1":{"address":"Valmieras iela 7A - 1","city":"Matīši","zip":"LV-4210"},"valmieras iela 7a - 2":{"address":"Valmieras iela 7A - 2","city":"Matīši","zip":"LV-4210"},"valmieras iela 7a - 3":{"address":"Valmieras iela 7A - 3","city":"Matīši","zip":"LV-4210"},"valmieras iela 7a - 4":{"address":"Valmieras iela 7A - 4","city":"Matīši","zip":"LV-4210"},"valmieras iela 7b - 1":{"address":"Valmieras iela 7B - 1","city":"Matīši","zip":"LV-4210"},"valmieras iela 7b - 2":{"address":"Valmieras iela 7B - 2","city":"Matīši","zip":"LV-4210"},"valmieras iela 7b - 3":{"address":"Valmieras iela 7B - 3","city":"Matīši","zip":"LV-4210"},"upes iela 20 - 1":{"address":"Upes iela 20 - 1","city":"Matīši","zip":"LV-4210"},"upes iela 20 - 2":{"address":"Upes iela 20 - 2","city":"Matīši","zip":"LV-4210"},"upes iela 20 - 3":{"address":"Upes iela 20 - 3","city":"Matīši","zip":"LV-4210"},"upes iela 20 - 4":{"address":"Upes iela 20 - 4","city":"Matīši","zip":"LV-4210"},"upes iela 20 - 5":{"address":"Upes iela 20 - 5","city":"Matīši","zip":"LV-4210"},"upes iela 20 - 6":{"address":"Upes iela 20 - 6","city":"Matīši","zip":"LV-4210"},"upes iela 20 - 7":{"address":"Upes iela 20 - 7","city":"Matīši","zip":"LV-4210"},"upes iela 20 - 8":{"address":"Upes iela 20 - 8","city":"Matīši","zip":"LV-4210"},"upes iela 20 - 9":{"address":"Upes iela 20 - 9","city":"Matīši","zip":"LV-4210"},"upes iela 20 - 10":{"address":"Upes iela 20 - 10","city":"Matīši","zip":"LV-4210"},"upes iela 20 - 11":{"address":"Upes iela 20 - 11","city":"Matīši","zip":"LV-4210"},"upes iela 20 - 12":{"address":"Upes iela 20 - 12","city":"Matīši","zip":"LV-4210"},"upes iela 20 - 13":{"address":"Upes iela 20 - 13","city":"Matīši","zip":"LV-4210"},"upes iela 20 - 14":{"address":"Upes iela 20 - 14","city":"Matīši","zip":"LV-4210"},"upes iela 20 - 15":{"address":"Upes iela 20 - 15","city":"Matīši","zip":"LV-4210"},"upes iela 20 - 16":{"address":"Upes iela 20 - 16","city":"Matīši","zip":"LV-4210"},"upes iela 20 - 17":{"address":"Upes iela 20 - 17","city":"Matīši","zip":"LV-4210"},"upes iela 20 - 18":{"address":"Upes iela 20 - 18","city":"Matīši","zip":"LV-4210"},"upes iela 22 - 1":{"address":"Upes iela 22 - 1","city":"Matīši","zip":"LV-4210"},"upes iela 22 - 2":{"address":"Upes iela 22 - 2","city":"Matīši","zip":"LV-4210"},"valmieras iela 5 - 4":{"address":"Valmieras iela 5 - 4","city":"Matīši","zip":"LV-4210"},"valmieras iela 5 - 3":{"address":"Valmieras iela 5 - 3","city":"Matīši","zip":"LV-4210"},"valmieras iela 5 - 2":{"address":"Valmieras iela 5 - 2","city":"Matīši","zip":"LV-4210"},"valmieras iela 5 - 1":{"address":"Valmieras iela 5 - 1","city":"Matīši","zip":"LV-4210"},"skolas iela 3 - 1":{"address":"Skolas iela 3 - 1","city":"Matīši","zip":"LV-4210"},"skolas iela 3 - 2":{"address":"Skolas iela 3 - 2","city":"Matīši","zip":"LV-4210"},"skolas iela 4 - 1":{"address":"Skolas iela 4 - 1","city":"Matīši","zip":"LV-4210"},"skolas iela 4 - 2":{"address":"Skolas iela 4 - 2","city":"Matīši","zip":"LV-4210"},"skolas iela 4 - 3":{"address":"Skolas iela 4 - 3","city":"Matīši","zip":"LV-4210"},"skolas iela 4 - 4":{"address":"Skolas iela 4 - 4","city":"Matīši","zip":"LV-4210"},"skolas iela 5 - 1":{"address":"Skolas iela 5 - 1","city":"Matīši","zip":"LV-4210"},"skolas iela 5 - 2":{"address":"Skolas iela 5 - 2","city":"Matīši","zip":"LV-4210"},"skolas iela 5 - 3":{"address":"Skolas iela 5 - 3","city":"Matīši","zip":"LV-4210"},"skolas iela 5 - 4":{"address":"Skolas iela 5 - 4","city":"Matīši","zip":"LV-4210"},"skolas iela 5 - 5":{"address":"Skolas iela 5 - 5","city":"Matīši","zip":"LV-4210"},"skolas iela 9 - 1":{"address":"Skolas iela 9 - 1","city":"Matīši","zip":"LV-4210"},"skolas iela 9 - 2":{"address":"Skolas iela 9 - 2","city":"Matīši","zip":"LV-4210"},"skolas iela 9 - 3":{"address":"Skolas iela 9 - 3","city":"Matīši","zip":"LV-4210"},"skolas iela 9 - 4":{"address":"Skolas iela 9 - 4","city":"Matīši","zip":"LV-4210"},"skolas iela 9 - 5":{"address":"Skolas iela 9 - 5","city":"Matīši","zip":"LV-4210"},"skolas iela 9 - 6":{"address":"Skolas iela 9 - 6","city":"Matīši","zip":"LV-4210"},"skolas iela 9 - 7":{"address":"Skolas iela 9 - 7","city":"Matīši","zip":"LV-4210"},"skolas iela 9 - 8":{"address":"Skolas iela 9 - 8","city":"Matīši","zip":"LV-4210"},"mazsalacas iela 19 - 1":{"address":"Mazsalacas iela 19 - 1","city":"Matīši","zip":"LV-4210"},"mazsalacas iela 19 - 2":{"address":"Mazsalacas iela 19 - 2","city":"Matīši","zip":"LV-4210"},"mazsalacas iela 19 - 3":{"address":"Mazsalacas iela 19 - 3","city":"Matīši","zip":"LV-4210"},"mazsalacas iela 19 - 4":{"address":"Mazsalacas iela 19 - 4","city":"Matīši","zip":"LV-4210"},"robežu iela 2 - 1":{"address":"Robežu iela 2 - 1","city":"Matīši","zip":"LV-4210"},"robežu iela 2 - 2":{"address":"Robežu iela 2 - 2","city":"Matīši","zip":"LV-4210"},"robežu iela 2 - 3":{"address":"Robežu iela 2 - 3","city":"Matīši","zip":"LV-4210"},"robežu iela 2 - 4":{"address":"Robežu iela 2 - 4","city":"Matīši","zip":"LV-4210"},"robežu iela 2 - 5":{"address":"Robežu iela 2 - 5","city":"Matīši","zip":"LV-4210"},"robežu iela 2 - 6":{"address":"Robežu iela 2 - 6","city":"Matīši","zip":"LV-4210"},"robežu iela 2 - 7":{"address":"Robežu iela 2 - 7","city":"Matīši","zip":"LV-4210"},"robežu iela 2 - 8":{"address":"Robežu iela 2 - 8","city":"Matīši","zip":"LV-4210"},"robežu iela 2 - 9":{"address":"Robežu iela 2 - 9","city":"Matīši","zip":"LV-4210"},"robežu iela 2 - 10":{"address":"Robežu iela 2 - 10","city":"Matīši","zip":"LV-4210"},"robežu iela 2 - 11":{"address":"Robežu iela 2 - 11","city":"Matīši","zip":"LV-4210"},"robežu iela 2 - 12":{"address":"Robežu iela 2 - 12","city":"Matīši","zip":"LV-4210"},"robežu iela 2 - 13":{"address":"Robežu iela 2 - 13","city":"Matīši","zip":"LV-4210"},"robežu iela 2 - 14":{"address":"Robežu iela 2 - 14","city":"Matīši","zip":"LV-4210"}}