{"skolotāju māja 2 - 8":{"address":"Skolotāju māja 2 - 8","city":"Mazirbe","zip":"LV-3275"},"skolotāju māja 2 - 5":{"address":"Skolotāju māja 2 - 5","city":"Mazirbe","zip":"LV-3275"},"skolotāju māja 2 - 1":{"address":"Skolotāju māja 2 - 1","city":"Mazirbe","zip":"LV-3275"},"skolotāju māja 2 - 2":{"address":"Skolotāju māja 2 - 2","city":"Mazirbe","zip":"LV-3275"},"skolotāju māja 2 - 3":{"address":"Skolotāju māja 2 - 3","city":"Mazirbe","zip":"LV-3275"},"skolotāju māja 2 - 4":{"address":"Skolotāju māja 2 - 4","city":"Mazirbe","zip":"LV-3275"},"skolotāju māja 2 - 6":{"address":"Skolotāju māja 2 - 6","city":"Mazirbe","zip":"LV-3275"},"skolotāju māja 2 - 7":{"address":"Skolotāju māja 2 - 7","city":"Mazirbe","zip":"LV-3275"},"skolotāju māja 2 - 9":{"address":"Skolotāju māja 2 - 9","city":"Mazirbe","zip":"LV-3275"},"skolotāju māja 2 - 10":{"address":"Skolotāju māja 2 - 10","city":"Mazirbe","zip":"LV-3275"},"skolotāju māja 2 - 11":{"address":"Skolotāju māja 2 - 11","city":"Mazirbe","zip":"LV-3275"},"skolotāju māja 2 - 12":{"address":"Skolotāju māja 2 - 12","city":"Mazirbe","zip":"LV-3275"},"skolotāju māja 2 - 13":{"address":"Skolotāju māja 2 - 13","city":"Mazirbe","zip":"LV-3275"},"skolotāju māja 2 - 14":{"address":"Skolotāju māja 2 - 14","city":"Mazirbe","zip":"LV-3275"},"skolotāju māja 2 - 15":{"address":"Skolotāju māja 2 - 15","city":"Mazirbe","zip":"LV-3275"},"skolotāju māja 2 - 16":{"address":"Skolotāju māja 2 - 16","city":"Mazirbe","zip":"LV-3275"},"skolotāju māja 2 - 17":{"address":"Skolotāju māja 2 - 17","city":"Mazirbe","zip":"LV-3275"},"skolotāju māja 2 - 18":{"address":"Skolotāju māja 2 - 18","city":"Mazirbe","zip":"LV-3275"},"ceļmeistari 2 - 1":{"address":"Ceļmeistari 2 - 1","city":"Mazirbe","zip":"LV-3275"},"ceļmeistari 2 - 2":{"address":"Ceļmeistari 2 - 2","city":"Mazirbe","zip":"LV-3275"},"cerības - 1":{"address":"Cerības - 1","city":"Mazirbe","zip":"LV-3275"},"cerības - 2":{"address":"Cerības - 2","city":"Mazirbe","zip":"LV-3275"},"dzelzceļa ēka 3 - 1":{"address":"Dzelzceļa ēka 3 - 1","city":"Mazirbe","zip":"LV-3275"},"dzelzceļa ēka 3 - 2":{"address":"Dzelzceļa ēka 3 - 2","city":"Mazirbe","zip":"LV-3275"},"dzelzceļa ēka 3 - 3":{"address":"Dzelzceļa ēka 3 - 3","city":"Mazirbe","zip":"LV-3275"},"ūbeles - 1":{"address":"Ūbeles - 1","city":"Mazirbe","zip":"LV-3275"},"ūbeles - 2":{"address":"Ūbeles - 2","city":"Mazirbe","zip":"LV-3275"},"mazirbes burtnieki - 1":{"address":"Mazirbes Burtnieki - 1","city":"Mazirbe","zip":"LV-3275"},"mazirbes burtnieki - 2":{"address":"Mazirbes Burtnieki - 2","city":"Mazirbe","zip":"LV-3275"},"jaunkalēji - 1":{"address":"Jaunkalēji - 1","city":"Mazirbe","zip":"LV-3275"},"jaunkalēji - 2":{"address":"Jaunkalēji - 2","city":"Mazirbe","zip":"LV-3275"},"jaunkalēji - 3":{"address":"Jaunkalēji - 3","city":"Mazirbe","zip":"LV-3275"},"stacijas ēka - 1":{"address":"Stacijas ēka - 1","city":"Mazirbe","zip":"LV-3275"},"stacijas ēka - 2":{"address":"Stacijas ēka - 2","city":"Mazirbe","zip":"LV-3275"},"stacijas ēka - 3":{"address":"Stacijas ēka - 3","city":"Mazirbe","zip":"LV-3275"},"skolotāju māja 2":{"address":"Skolotāju māja 2","city":"Mazirbe","zip":"LV-3275"},"andrejsāti":{"address":"Andrejsāti","city":"Mazirbe","zip":"LV-3275"},"apaļlauki":{"address":"Apaļlauki","city":"Mazirbe","zip":"LV-3275"},"aveņkalni":{"address":"Aveņkalni","city":"Mazirbe","zip":"LV-3275"},"brauskas":{"address":"Brauskas","city":"Mazirbe","zip":"LV-3275"},"ceļmeistari":{"address":"Ceļmeistari","city":"Mazirbe","zip":"LV-3275"},"mācītājmuiža":{"address":"Mācītājmuiža","city":"Mazirbe","zip":"LV-3275"},"mežvidi":{"address":"Mežvidi","city":"Mazirbe","zip":"LV-3275"},"pakalni":{"address":"Pakalni","city":"Mazirbe","zip":"LV-3275"},"jaunpapardes":{"address":"Jaunpapardes","city":"Mazirbe","zip":"LV-3275"},"strautmaļi":{"address":"Strautmaļi","city":"Mazirbe","zip":"LV-3275"},"grāvīši":{"address":"Grāvīši","city":"Mazirbe","zip":"LV-3275"},"gundegas":{"address":"Gundegas","city":"Mazirbe","zip":"LV-3275"},"jankevici":{"address":"Jankevici","city":"Mazirbe","zip":"LV-3275"},"jaunbunkas":{"address":"Jaunbunkas","city":"Mazirbe","zip":"LV-3275"},"dzelzceļa ēka 3":{"address":"Dzelzceļa ēka 3","city":"Mazirbe","zip":"LV-3275"},"dzilnas":{"address":"Dzilnas","city":"Mazirbe","zip":"LV-3275"},"dzintarkrasti":{"address":"Dzintarkrasti","city":"Mazirbe","zip":"LV-3275"},"gaujas":{"address":"Gaujas","city":"Mazirbe","zip":"LV-3275"},"cerības":{"address":"Cerības","city":"Mazirbe","zip":"LV-3275"},"dolāri":{"address":"Dolāri","city":"Mazirbe","zip":"LV-3275"},"ceļmeistari 2":{"address":"Ceļmeistari 2","city":"Mazirbe","zip":"LV-3275"},"dzelzceļa ēka":{"address":"Dzelzceļa ēka","city":"Mazirbe","zip":"LV-3275"},"ūbeles":{"address":"Ūbeles","city":"Mazirbe","zip":"LV-3275"},"vārpas":{"address":"Vārpas","city":"Mazirbe","zip":"LV-3275"}}