{"kislovi - 1":{"address":"Kislovi - 1","city":"Mazie Garanči","zip":"LV-4601"},"kislovi - 2":{"address":"Kislovi - 2","city":"Mazie Garanči","zip":"LV-4601"},"olimpiada - 1":{"address":"Olimpiada - 1","city":"Mazie Garanči","zip":"LV-4601"},"olimpiada - 2":{"address":"Olimpiada - 2","city":"Mazie Garanči","zip":"LV-4601"},"olimpiada - 3":{"address":"Olimpiada - 3","city":"Mazie Garanči","zip":"LV-4601"},"vereda - 1":{"address":"Vereda - 1","city":"Mazie Garanči","zip":"LV-4601"},"vereda - 2":{"address":"Vereda - 2","city":"Mazie Garanči","zip":"LV-4601"},"mazieviņas - 1":{"address":"Mazieviņas - 1","city":"Tume","zip":"LV-3139"},"mazieviņas - 2":{"address":"Mazieviņas - 2","city":"Tume","zip":"LV-3139"},"mazie ezerlīči 1 - 1":{"address":"Mazie Ezerlīči 1 - 1","city":"Varkaļi","zip":"LV-2105"},"mazie ezerlīči 1 - 2":{"address":"Mazie Ezerlīči 1 - 2","city":"Varkaļi","zip":"LV-2105"},"papeles - 1":{"address":"Papeles - 1","city":"Mazie Ratnieki","zip":"LV-5477"},"papeles - 2":{"address":"Papeles - 2","city":"Mazie Ratnieki","zip":"LV-5477"},"mazie garanči 5 - 1":{"address":"Mazie Garanči 5 - 1","city":"Mazie Garanči","zip":"LV-4601"},"mazie garanči 5 - 2":{"address":"Mazie Garanči 5 - 2","city":"Mazie Garanči","zip":"LV-4601"},"liepiņas - 1":{"address":"Liepiņas - 1","city":"Mazie Kusiņi","zip":"LV-5601"},"liepiņas - 2":{"address":"Liepiņas - 2","city":"Mazie Kusiņi","zip":"LV-5601"},"mazie krīviņi 6 - 1":{"address":"Mazie Krīviņi 6 - 1","city":"Mazie Krīviņi","zip":"LV-5462"},"mazie krīviņi 6 - 2":{"address":"Mazie Krīviņi 6 - 2","city":"Mazie Krīviņi","zip":"LV-5462"},"aploki - 2":{"address":"Aploki - 2","city":"Mazie Stradišķi","zip":"LV-5443"},"aploki - 1":{"address":"Aploki - 1","city":"Mazie Stradišķi","zip":"LV-5443"},"kaļvi - 1":{"address":"Kaļvi - 1","city":"Mazie Kuseņi","zip":"LV-5438"},"kaļvi - 2":{"address":"Kaļvi - 2","city":"Mazie Kuseņi","zip":"LV-5438"},"mazie bramaņi - 1":{"address":"Mazie Bramaņi - 1","city":"Bramaņi","zip":"LV-5320"},"mazie bramaņi - 2":{"address":"Mazie Bramaņi - 2","city":"Bramaņi","zip":"LV-5320"},"mazie viši":{"address":"Mazie Viši","city":"Viši","zip":"LV-4642"},"laumiņas":{"address":"Laumiņas","city":"Mazie Bareisi","zip":"LV-4617"},"madaras":{"address":"Madaras","city":"Mazie Bareisi","zip":"LV-4617"},"mežirbes":{"address":"Mežirbes","city":"Mazie Bareisi","zip":"LV-4617"},"rūpaliņas":{"address":"Rūpaliņas","city":"Mazie Bareisi","zip":"LV-4617"},"smilškalni":{"address":"Smilškalni","city":"Mazie Bareisi","zip":"LV-4617"},"mazieri":{"address":"Mazieri","city":"Rubuļi","zip":"LV-4633"},"leta":{"address":"Leta","city":"Mazie Pīzāni","zip":"LV-4623"},"mālaine":{"address":"Mālaine","city":"Mazie Pīzāni","zip":"LV-4623"},"tjarves":{"address":"Tjarves","city":"Mazie Pīzāni","zip":"LV-4623"},"mazie čuksti":{"address":"Mazie Čuksti","city":"Čuksti","zip":"LV-4623"},"mazie dudari":{"address":"Mazie dudari","city":"Dudari","zip":"LV-4623"},"mazie kalni":{"address":"Mazie Kalni","city":"Mazā Puderova","zip":"LV-4611"},"dzērvenīte":{"address":"Dzērvenīte","city":"Mazie Kaulači","zip":"LV-4611"},"mežlejas":{"address":"Mežlejas","city":"Mazie Kaulači","zip":"LV-4611"},"mežmala":{"address":"Mežmala","city":"Mazie Kaulači","zip":"LV-4611"},"aizvēji":{"address":"Aizvēji","city":"Mazie Garanči","zip":"LV-4601"},"apses":{"address":"Apses","city":"Mazie Garanči","zip":"LV-4601"},"astras":{"address":"Astras","city":"Mazie Garanči","zip":"LV-4601"},"aveņi 1":{"address":"Aveņi 1","city":"Mazie Garanči","zip":"LV-4601"},"berjoza":{"address":"Berjoza","city":"Mazie Garanči","zip":"LV-4601"},"cīruļi":{"address":"Cīruļi","city":"Mazie Garanči","zip":"LV-4601"},"drozdi":{"address":"Drozdi","city":"Mazie Garanči","zip":"LV-4601"},"dzeguzīte":{"address":"Dzeguzīte","city":"Mazie Garanči","zip":"LV-4601"},"gelena":{"address":"Gelena","city":"Mazie Garanči","zip":"LV-4601"},"grineviču māja":{"address":"Grineviču māja","city":"Mazie Garanči","zip":"LV-4601"},"jaungaranči":{"address":"Jaungaranči","city":"Mazie Garanči","zip":"LV-4601"},"jāzepa sēta":{"address":"Jāzepa sēta","city":"Mazie Garanči","zip":"LV-4601"},"vereda":{"address":"Vereda","city":"Mazie Garanči","zip":"LV-4601"},"virzas":{"address":"Virzas","city":"Mazie Garanči","zip":"LV-4601"},"olimpiada":{"address":"Olimpiada","city":"Mazie Garanči","zip":"LV-4601"},"papardes":{"address":"Papardes","city":"Mazie Garanči","zip":"LV-4601"},"pilsētnieki":{"address":"Pilsētnieki","city":"Mazie Garanči","zip":"LV-4601"},"plūmes":{"address":"Plūmes","city":"Mazie Garanči","zip":"LV-4601"},"strazdi":{"address":"Strazdi","city":"Mazie Garanči","zip":"LV-4601"},"šličkovi":{"address":"Šličkovi","city":"Mazie Garanči","zip":"LV-4601"},"šličkovi 1":{"address":"Šličkovi 1","city":"Mazie Garanči","zip":"LV-4601"},"upes garanči":{"address":"Upes Garanči","city":"Mazie Garanči","zip":"LV-4601"},"uplejas":{"address":"Uplejas","city":"Mazie Garanči","zip":"LV-4601"},"kislovi":{"address":"Kislovi","city":"Mazie Garanči","zip":"LV-4601"},"krauja":{"address":"Krauja","city":"Mazie Garanči","zip":"LV-4601"},"lukstiņmājas":{"address":"Lukstiņmājas","city":"Mazie Garanči","zip":"LV-4601"},"mazā paradīze":{"address":"Mazā paradīze","city":"Mazie Garanči","zip":"LV-4601"},"mētras":{"address":"Mētras","city":"Mazie Garanči","zip":"LV-4601"},"notras":{"address":"Notras","city":"Mazie Garanči","zip":"LV-4601"},"mazie līdumi":{"address":"Mazie Līdumi","city":"Kozīne","zip":"LV-4585"}}