{"medumi - 1":{"address":"Medumi - 1","city":"Lielie Pupāji","zip":"LV-5301"},"medumi - 2":{"address":"Medumi - 2","city":"Lielie Pupāji","zip":"LV-5301"},"medumi - 3":{"address":"Medumi - 3","city":"Lielie Pupāji","zip":"LV-5301"},"medumi - 4":{"address":"Medumi - 4","city":"Lielie Pupāji","zip":"LV-5301"},"medumi - 5":{"address":"Medumi - 5","city":"Lielie Pupāji","zip":"LV-5301"},"medumi - 6":{"address":"Medumi - 6","city":"Lielie Pupāji","zip":"LV-5301"},"medumi - 7":{"address":"Medumi - 7","city":"Lielie Pupāji","zip":"LV-5301"},"medumi - 8":{"address":"Medumi - 8","city":"Lielie Pupāji","zip":"LV-5301"},"ilgas iela 34 - 1":{"address":"Ilgas iela 34 - 1","city":"Medumi","zip":"LV-5460"},"ilgas iela 34 - 2":{"address":"Ilgas iela 34 - 2","city":"Medumi","zip":"LV-5460"},"ilgas iela 56 - 1":{"address":"Ilgas iela 56 - 1","city":"Medumi","zip":"LV-5460"},"ilgas iela 56 - 2":{"address":"Ilgas iela 56 - 2","city":"Medumi","zip":"LV-5460"},"skolas iela 17 - 1":{"address":"Skolas iela 17 - 1","city":"Medumi","zip":"LV-5460"},"skolas iela 17 - 2":{"address":"Skolas iela 17 - 2","city":"Medumi","zip":"LV-5460"},"ilgas iela 54 - 1":{"address":"Ilgas iela 54 - 1","city":"Medumi","zip":"LV-5460"},"ilgas iela 54 - 2":{"address":"Ilgas iela 54 - 2","city":"Medumi","zip":"LV-5460"},"ilgas iela 16 - 1":{"address":"Ilgas iela 16 - 1","city":"Medumi","zip":"LV-5460"},"ilgas iela 16 - 2":{"address":"Ilgas iela 16 - 2","city":"Medumi","zip":"LV-5460"},"ilgas iela 28 - 1":{"address":"Ilgas iela 28 - 1","city":"Medumi","zip":"LV-5460"},"ilgas iela 28 - 2":{"address":"Ilgas iela 28 - 2","city":"Medumi","zip":"LV-5460"},"ilgas iela 28 - 3":{"address":"Ilgas iela 28 - 3","city":"Medumi","zip":"LV-5460"},"ilgas iela 28 - 4":{"address":"Ilgas iela 28 - 4","city":"Medumi","zip":"LV-5460"},"ilgas iela 28 - 5":{"address":"Ilgas iela 28 - 5","city":"Medumi","zip":"LV-5460"},"ilgas iela 28 - 6":{"address":"Ilgas iela 28 - 6","city":"Medumi","zip":"LV-5460"},"ilgas iela 28 - 7":{"address":"Ilgas iela 28 - 7","city":"Medumi","zip":"LV-5460"},"ilgas iela 28 - 8":{"address":"Ilgas iela 28 - 8","city":"Medumi","zip":"LV-5460"},"ilgas iela 36 - 1":{"address":"Ilgas iela 36 - 1","city":"Medumi","zip":"LV-5460"},"ilgas iela 36 - 2":{"address":"Ilgas iela 36 - 2","city":"Medumi","zip":"LV-5460"},"ezera iela 5 - 1":{"address":"Ezera iela 5 - 1","city":"Medumi","zip":"LV-5460"},"ezera iela 5 - 2":{"address":"Ezera iela 5 - 2","city":"Medumi","zip":"LV-5460"},"ezera iela 5 - 3":{"address":"Ezera iela 5 - 3","city":"Medumi","zip":"LV-5460"},"ezera iela 5 - 4":{"address":"Ezera iela 5 - 4","city":"Medumi","zip":"LV-5460"},"ezera iela 5 - 5":{"address":"Ezera iela 5 - 5","city":"Medumi","zip":"LV-5460"},"ezera iela 5 - 6":{"address":"Ezera iela 5 - 6","city":"Medumi","zip":"LV-5460"},"ezera iela 5 - 7":{"address":"Ezera iela 5 - 7","city":"Medumi","zip":"LV-5460"},"ezera iela 5 - 8":{"address":"Ezera iela 5 - 8","city":"Medumi","zip":"LV-5460"},"ezera iela 5 - 9":{"address":"Ezera iela 5 - 9","city":"Medumi","zip":"LV-5460"},"ezera iela 5 - 10":{"address":"Ezera iela 5 - 10","city":"Medumi","zip":"LV-5460"},"ezera iela 5 - 11":{"address":"Ezera iela 5 - 11","city":"Medumi","zip":"LV-5460"},"ezera iela 5 - 12":{"address":"Ezera iela 5 - 12","city":"Medumi","zip":"LV-5460"},"ezera iela 5 - 13":{"address":"Ezera iela 5 - 13","city":"Medumi","zip":"LV-5460"},"ezera iela 5 - 14":{"address":"Ezera iela 5 - 14","city":"Medumi","zip":"LV-5460"},"ezera iela 5 - 15":{"address":"Ezera iela 5 - 15","city":"Medumi","zip":"LV-5460"},"ezera iela 5 - 16":{"address":"Ezera iela 5 - 16","city":"Medumi","zip":"LV-5460"},"ezera iela 5 - 17":{"address":"Ezera iela 5 - 17","city":"Medumi","zip":"LV-5460"},"ezera iela 5 - 18":{"address":"Ezera iela 5 - 18","city":"Medumi","zip":"LV-5460"},"ezera iela 4 - 1":{"address":"Ezera iela 4 - 1","city":"Medumi","zip":"LV-5460"},"ezera iela 4 - 2":{"address":"Ezera iela 4 - 2","city":"Medumi","zip":"LV-5460"},"ezera iela 4 - 3":{"address":"Ezera iela 4 - 3","city":"Medumi","zip":"LV-5460"},"ezera iela 4 - 4":{"address":"Ezera iela 4 - 4","city":"Medumi","zip":"LV-5460"},"ezera iela 4 - 5":{"address":"Ezera iela 4 - 5","city":"Medumi","zip":"LV-5460"},"ezera iela 4 - 6":{"address":"Ezera iela 4 - 6","city":"Medumi","zip":"LV-5460"},"ezera iela 4 - 7":{"address":"Ezera iela 4 - 7","city":"Medumi","zip":"LV-5460"},"ezera iela 4 - 8":{"address":"Ezera iela 4 - 8","city":"Medumi","zip":"LV-5460"},"ezera iela 4 - 9":{"address":"Ezera iela 4 - 9","city":"Medumi","zip":"LV-5460"},"ezera iela 4 - 10":{"address":"Ezera iela 4 - 10","city":"Medumi","zip":"LV-5460"},"ezera iela 4 - 11":{"address":"Ezera iela 4 - 11","city":"Medumi","zip":"LV-5460"},"ezera iela 4 - 12":{"address":"Ezera iela 4 - 12","city":"Medumi","zip":"LV-5460"},"ilgas iela 8 - 1":{"address":"Ilgas iela 8 - 1","city":"Medumi","zip":"LV-5460"},"ilgas iela 8 - 2":{"address":"Ilgas iela 8 - 2","city":"Medumi","zip":"LV-5460"},"alejas iela 36 - 1":{"address":"Alejas iela 36 - 1","city":"Medumi","zip":"LV-5460"},"alejas iela 36 - 2":{"address":"Alejas iela 36 - 2","city":"Medumi","zip":"LV-5460"},"alejas iela 22 - 1":{"address":"Alejas iela 22 - 1","city":"Medumi","zip":"LV-5460"},"alejas iela 22 - 2":{"address":"Alejas iela 22 - 2","city":"Medumi","zip":"LV-5460"},"alejas iela 22 - 3":{"address":"Alejas iela 22 - 3","city":"Medumi","zip":"LV-5460"},"alejas iela 22 - 4":{"address":"Alejas iela 22 - 4","city":"Medumi","zip":"LV-5460"},"alejas iela 22 - 5":{"address":"Alejas iela 22 - 5","city":"Medumi","zip":"LV-5460"},"alejas iela 22 - 6":{"address":"Alejas iela 22 - 6","city":"Medumi","zip":"LV-5460"},"alejas iela 22 - 7":{"address":"Alejas iela 22 - 7","city":"Medumi","zip":"LV-5460"},"alejas iela 22 - 8":{"address":"Alejas iela 22 - 8","city":"Medumi","zip":"LV-5460"},"alejas iela 24 - 1":{"address":"Alejas iela 24 - 1","city":"Medumi","zip":"LV-5460"},"alejas iela 24 - 2":{"address":"Alejas iela 24 - 2","city":"Medumi","zip":"LV-5460"},"alejas iela 24 - 3":{"address":"Alejas iela 24 - 3","city":"Medumi","zip":"LV-5460"},"alejas iela 30 - 1":{"address":"Alejas iela 30 - 1","city":"Medumi","zip":"LV-5460"},"alejas iela 30 - 2":{"address":"Alejas iela 30 - 2","city":"Medumi","zip":"LV-5460"},"alejas iela 30 - 3":{"address":"Alejas iela 30 - 3","city":"Medumi","zip":"LV-5460"},"alejas iela 32 - 1":{"address":"Alejas iela 32 - 1","city":"Medumi","zip":"LV-5460"},"alejas iela 32 - 2":{"address":"Alejas iela 32 - 2","city":"Medumi","zip":"LV-5460"},"ezera iela 3 - 1":{"address":"Ezera iela 3 - 1","city":"Medumi","zip":"LV-5460"},"ezera iela 3 - 2":{"address":"Ezera iela 3 - 2","city":"Medumi","zip":"LV-5460"},"ezera iela 3 - 3":{"address":"Ezera iela 3 - 3","city":"Medumi","zip":"LV-5460"},"ezera iela 3 - 4":{"address":"Ezera iela 3 - 4","city":"Medumi","zip":"LV-5460"},"ezera iela 3 - 5":{"address":"Ezera iela 3 - 5","city":"Medumi","zip":"LV-5460"},"ezera iela 3 - 6":{"address":"Ezera iela 3 - 6","city":"Medumi","zip":"LV-5460"},"ezera iela 3 - 7":{"address":"Ezera iela 3 - 7","city":"Medumi","zip":"LV-5460"},"ezera iela 3 - 8":{"address":"Ezera iela 3 - 8","city":"Medumi","zip":"LV-5460"},"ezera iela 3 - 9":{"address":"Ezera iela 3 - 9","city":"Medumi","zip":"LV-5460"},"ezera iela 3 - 10":{"address":"Ezera iela 3 - 10","city":"Medumi","zip":"LV-5460"},"ezera iela 3 - 11":{"address":"Ezera iela 3 - 11","city":"Medumi","zip":"LV-5460"},"ezera iela 3 - 12":{"address":"Ezera iela 3 - 12","city":"Medumi","zip":"LV-5460"},"alejas iela 18 - 1":{"address":"Alejas iela 18 - 1","city":"Medumi","zip":"LV-5460"},"alejas iela 18 - 2":{"address":"Alejas iela 18 - 2","city":"Medumi","zip":"LV-5460"},"alejas iela 12 - 1":{"address":"Alejas iela 12 - 1","city":"Medumi","zip":"LV-5460"},"alejas iela 12 - 2":{"address":"Alejas iela 12 - 2","city":"Medumi","zip":"LV-5460"},"alejas iela 12 - 3":{"address":"Alejas iela 12 - 3","city":"Medumi","zip":"LV-5460"},"alejas iela 12 - 4":{"address":"Alejas iela 12 - 4","city":"Medumi","zip":"LV-5460"},"alejas iela 12 - 5":{"address":"Alejas iela 12 - 5","city":"Medumi","zip":"LV-5460"},"alejas iela 12 - 6":{"address":"Alejas iela 12 - 6","city":"Medumi","zip":"LV-5460"},"alejas iela 12 - 7":{"address":"Alejas iela 12 - 7","city":"Medumi","zip":"LV-5460"},"alejas iela 12 - 8":{"address":"Alejas iela 12 - 8","city":"Medumi","zip":"LV-5460"}}