{"meldri - 1":{"address":"Meldri - 1","city":"Vaski","zip":"LV-3137"},"meldri - 2":{"address":"Meldri - 2","city":"Vaski","zip":"LV-3137"},"meldri - 3":{"address":"Meldri - 3","city":"Vaski","zip":"LV-3137"},"meldri - 4":{"address":"Meldri - 4","city":"Vaski","zip":"LV-3137"},"meldri - 5":{"address":"Meldri - 5","city":"Vaski","zip":"LV-3137"},"meldri - 6":{"address":"Meldri - 6","city":"Vaski","zip":"LV-3137"},"meldri - 7":{"address":"Meldri - 7","city":"Vaski","zip":"LV-3137"},"meldri - 8":{"address":"Meldri - 8","city":"Vaski","zip":"LV-3137"},"meldri - 9":{"address":"Meldri - 9","city":"Vaski","zip":"LV-3137"},"meldri - 10":{"address":"Meldri - 10","city":"Vaski","zip":"LV-3137"},"meldri - 11":{"address":"Meldri - 11","city":"Vaski","zip":"LV-3137"},"meldri - 12":{"address":"Meldri - 12","city":"Vaski","zip":"LV-3137"},"meldri - 13":{"address":"Meldri - 13","city":"Vaski","zip":"LV-3137"},"meldri - 14":{"address":"Meldri - 14","city":"Vaski","zip":"LV-3137"},"meldri - 15":{"address":"Meldri - 15","city":"Vaski","zip":"LV-3137"},"meldri - 16":{"address":"Meldri - 16","city":"Vaski","zip":"LV-3137"},"meldri - 17":{"address":"Meldri - 17","city":"Vaski","zip":"LV-3137"},"meldri - 18":{"address":"Meldri - 18","city":"Vaski","zip":"LV-3137"},"meldri - 19":{"address":"Meldri - 19","city":"Vaski","zip":"LV-3137"},"meldri - 20":{"address":"Meldri - 20","city":"Priedaine","zip":"LV-3301"},"meldri - 21":{"address":"Meldri - 21","city":"Priedaine","zip":"LV-3301"},"meldri - 22":{"address":"Meldri - 22","city":"Priedaine","zip":"LV-3301"},"meldri - 23":{"address":"Meldri - 23","city":"Priedaine","zip":"LV-3301"},"meldri - 24":{"address":"Meldri - 24","city":"Priedaine","zip":"LV-3301"},"meldri - 25":{"address":"Meldri - 25","city":"Priedaine","zip":"LV-3301"},"meldri - 26":{"address":"Meldri - 26","city":"Priedaine","zip":"LV-3301"},"meldri - 27":{"address":"Meldri - 27","city":"Priedaine","zip":"LV-3301"},"meldri - 28":{"address":"Meldri - 28","city":"Priedaine","zip":"LV-3301"},"meldri - 29":{"address":"Meldri - 29","city":"Priedaine","zip":"LV-3301"},"meldri - 30":{"address":"Meldri - 30","city":"Priedaine","zip":"LV-3301"},"meldri - 31":{"address":"Meldri - 31","city":"Priedaine","zip":"LV-3301"},"meldri - 32":{"address":"Meldri - 32","city":"Priedaine","zip":"LV-3301"},"meldri - 33":{"address":"Meldri - 33","city":"Priedaine","zip":"LV-3301"},"meldri - 34":{"address":"Meldri - 34","city":"Priedaine","zip":"LV-3301"},"meldri - 35":{"address":"Meldri - 35","city":"Priedaine","zip":"LV-3301"},"meldri - 36":{"address":"Meldri - 36","city":"Priedaine","zip":"LV-3301"}}