{"meldru iela 8 - 1":{"address":"Meldru iela 8 - 1","city":"Sarkaņi","zip":"LV-4128"},"meldru iela 8 - 2":{"address":"Meldru iela 8 - 2","city":"Sarkaņi","zip":"LV-4128"},"meldru iela 8 - 3":{"address":"Meldru iela 8 - 3","city":"Sarkaņi","zip":"LV-4128"},"meldru iela 8 - 4":{"address":"Meldru iela 8 - 4","city":"Sarkaņi","zip":"LV-4128"},"meldru iela 8 - 5":{"address":"Meldru iela 8 - 5","city":"Sarkaņi","zip":"LV-4128"},"meldru iela 8 - 6":{"address":"Meldru iela 8 - 6","city":"Sarkaņi","zip":"LV-4128"},"meldru iela 8 - 7":{"address":"Meldru iela 8 - 7","city":"Sarkaņi","zip":"LV-4128"},"meldru iela 8 - 8":{"address":"Meldru iela 8 - 8","city":"Sarkaņi","zip":"LV-4128"},"meldru iela 10 - 1":{"address":"Meldru iela 10 - 1","city":"Sarkaņi","zip":"LV-4128"},"meldru iela 10 - 2":{"address":"Meldru iela 10 - 2","city":"Sarkaņi","zip":"LV-4128"},"meldru iela 10 - 3":{"address":"Meldru iela 10 - 3","city":"Sarkaņi","zip":"LV-4128"},"meldru iela 10 - 4":{"address":"Meldru iela 10 - 4","city":"Sarkaņi","zip":"LV-4128"},"meldru iela 10 - 5":{"address":"Meldru iela 10 - 5","city":"Sarkaņi","zip":"LV-4128"},"meldru iela 10 - 6":{"address":"Meldru iela 10 - 6","city":"Sarkaņi","zip":"LV-4128"},"meldru iela 10 - 7":{"address":"Meldru iela 10 - 7","city":"Sarkaņi","zip":"LV-4128"},"meldru iela 10 - 8":{"address":"Meldru iela 10 - 8","city":"Sarkaņi","zip":"LV-4128"},"meldru iela 15 - 1":{"address":"Meldru iela 15 - 1","city":"Sarkaņi","zip":"LV-4128"},"meldru iela 15 - 2":{"address":"Meldru iela 15 - 2","city":"Sarkaņi","zip":"LV-4128"},"meldru iela 15 - 3":{"address":"Meldru iela 15 - 3","city":"Sarkaņi","zip":"LV-4128"},"meldru iela 15 - 4":{"address":"Meldru iela 15 - 4","city":"Sarkaņi","zip":"LV-4128"},"meldru iela 15 - 5":{"address":"Meldru iela 15 - 5","city":"Sarkaņi","zip":"LV-4128"},"meldru iela 15 - 6":{"address":"Meldru iela 15 - 6","city":"Sarkaņi","zip":"LV-4128"},"meldru iela 15 - 7":{"address":"Meldru iela 15 - 7","city":"Sarkaņi","zip":"LV-4128"},"meldru iela 15 - 8":{"address":"Meldru iela 15 - 8","city":"Sarkaņi","zip":"LV-4128"},"meldru iela 12 - 1":{"address":"Meldru iela 12 - 1","city":"Sarkaņi","zip":"LV-4128"},"meldru iela 12 - 2":{"address":"Meldru iela 12 - 2","city":"Sarkaņi","zip":"LV-4128"},"meldru iela 12 - 3":{"address":"Meldru iela 12 - 3","city":"Sarkaņi","zip":"LV-4128"},"meldru iela 12 - 4":{"address":"Meldru iela 12 - 4","city":"Sarkaņi","zip":"LV-4128"},"meldru iela 12 - 5":{"address":"Meldru iela 12 - 5","city":"Sarkaņi","zip":"LV-4128"},"meldru iela 12 - 6":{"address":"Meldru iela 12 - 6","city":"Sarkaņi","zip":"LV-4128"},"meldru iela 12 - 7":{"address":"Meldru iela 12 - 7","city":"Sarkaņi","zip":"LV-4128"},"meldru iela 12 - 8":{"address":"Meldru iela 12 - 8","city":"Sarkaņi","zip":"LV-4128"},"meldru iela 6 - 1":{"address":"Meldru iela 6 - 1","city":"Sarkaņi","zip":"LV-4128"},"meldru iela 6 - 2":{"address":"Meldru iela 6 - 2","city":"Sarkaņi","zip":"LV-4128"},"meldru iela 6 - 3":{"address":"Meldru iela 6 - 3","city":"Sarkaņi","zip":"LV-4128"},"meldru iela 6 - 4":{"address":"Meldru iela 6 - 4","city":"Sarkaņi","zip":"LV-4128"},"meldru iela 6 - 5":{"address":"Meldru iela 6 - 5","city":"Sarkaņi","zip":"LV-4128"},"meldru iela 6 - 6":{"address":"Meldru iela 6 - 6","city":"Sarkaņi","zip":"LV-4128"},"meldru iela 6 - 7":{"address":"Meldru iela 6 - 7","city":"Sarkaņi","zip":"LV-4128"},"meldru iela 6 - 8":{"address":"Meldru iela 6 - 8","city":"Sarkaņi","zip":"LV-4128"},"meldru iela 11 - 1":{"address":"Meldru iela 11 - 1","city":"Sarkaņi","zip":"LV-4128"},"meldru iela 11 - 2":{"address":"Meldru iela 11 - 2","city":"Sarkaņi","zip":"LV-4128"},"meldru iela 11 - 3":{"address":"Meldru iela 11 - 3","city":"Sarkaņi","zip":"LV-4128"},"meldru iela 11 - 4":{"address":"Meldru iela 11 - 4","city":"Sarkaņi","zip":"LV-4128"},"meldru iela 11 - 5":{"address":"Meldru iela 11 - 5","city":"Sarkaņi","zip":"LV-4128"},"meldru iela 11 - 6":{"address":"Meldru iela 11 - 6","city":"Sarkaņi","zip":"LV-4128"},"meldru iela 11 - 7":{"address":"Meldru iela 11 - 7","city":"Sarkaņi","zip":"LV-4128"},"meldru iela 11 - 8":{"address":"Meldru iela 11 - 8","city":"Sarkaņi","zip":"LV-4128"},"meldru iela 3 - 1":{"address":"Meldru iela 3 - 1","city":"Pāle","zip":"LV-4052"},"meldru iela 3 - 2":{"address":"Meldru iela 3 - 2","city":"Pāle","zip":"LV-4052"},"meldru iela 3 - 3":{"address":"Meldru iela 3 - 3","city":"Pāle","zip":"LV-4052"},"meldru iela 3 - 4":{"address":"Meldru iela 3 - 4","city":"Pāle","zip":"LV-4052"},"meldru iela 3 - 5":{"address":"Meldru iela 3 - 5","city":"Pāle","zip":"LV-4052"},"meldru iela 3 - 6":{"address":"Meldru iela 3 - 6","city":"Pāle","zip":"LV-4052"},"meldru iela 3 - 7":{"address":"Meldru iela 3 - 7","city":"Pāle","zip":"LV-4052"},"meldru iela 3 - 8":{"address":"Meldru iela 3 - 8","city":"Pāle","zip":"LV-4052"},"meldru iela 3 - 9":{"address":"Meldru iela 3 - 9","city":"Pāle","zip":"LV-4052"},"meldru iela 3 - 10":{"address":"Meldru iela 3 - 10","city":"Pāle","zip":"LV-4052"},"meldru iela 3 - 11":{"address":"Meldru iela 3 - 11","city":"Pāle","zip":"LV-4052"},"meldru iela 3 - 12":{"address":"Meldru iela 3 - 12","city":"Pāle","zip":"LV-4052"},"meldru iela 1 - 1":{"address":"Meldru iela 1 - 1","city":"Pāle","zip":"LV-4052"},"meldru iela 1 - 2":{"address":"Meldru iela 1 - 2","city":"Pāle","zip":"LV-4052"},"meldru iela 1 - 3":{"address":"Meldru iela 1 - 3","city":"Pāle","zip":"LV-4052"},"meldru iela 1 - 4":{"address":"Meldru iela 1 - 4","city":"Pāle","zip":"LV-4052"},"meldru iela 1 - 5":{"address":"Meldru iela 1 - 5","city":"Pāle","zip":"LV-4052"},"meldru iela 1 - 6":{"address":"Meldru iela 1 - 6","city":"Pāle","zip":"LV-4052"},"meldru iela 1 - 7":{"address":"Meldru iela 1 - 7","city":"Pāle","zip":"LV-4052"},"meldru iela 1 - 8":{"address":"Meldru iela 1 - 8","city":"Pāle","zip":"LV-4052"},"meldru iela 1 - 9":{"address":"Meldru iela 1 - 9","city":"Pāle","zip":"LV-4052"},"meldru iela 1 - 10":{"address":"Meldru iela 1 - 10","city":"Pāle","zip":"LV-4052"},"meldru iela 1 - 11":{"address":"Meldru iela 1 - 11","city":"Pāle","zip":"LV-4052"},"meldru iela 1 - 12":{"address":"Meldru iela 1 - 12","city":"Pāle","zip":"LV-4052"},"meldru iela 1 - 13":{"address":"Meldru iela 1 - 13","city":"Pāle","zip":"LV-4052"},"meldru iela 1 - 14":{"address":"Meldru iela 1 - 14","city":"Pāle","zip":"LV-4052"},"meldru iela 1 - 15":{"address":"Meldru iela 1 - 15","city":"Pāle","zip":"LV-4052"},"meldru iela 1 - 16":{"address":"Meldru iela 1 - 16","city":"Pāle","zip":"LV-4052"},"meldru iela 1 - 17":{"address":"Meldru iela 1 - 17","city":"Pāle","zip":"LV-4052"},"meldru iela 1 - 18":{"address":"Meldru iela 1 - 18","city":"Pāle","zip":"LV-4052"},"meldru iela 1 - 19":{"address":"Meldru iela 1 - 19","city":"Pāle","zip":"LV-4052"},"meldru iela 1 - 20":{"address":"Meldru iela 1 - 20","city":"Pāle","zip":"LV-4052"},"meldru iela 1 - 21":{"address":"Meldru iela 1 - 21","city":"Pāle","zip":"LV-4052"},"meldru iela 1 - 22":{"address":"Meldru iela 1 - 22","city":"Pāle","zip":"LV-4052"},"meldru iela 1 - 23":{"address":"Meldru iela 1 - 23","city":"Pāle","zip":"LV-4052"},"meldru iela 1 - 24":{"address":"Meldru iela 1 - 24","city":"Pāle","zip":"LV-4052"},"meldru iela 1 - 12a":{"address":"Meldru iela 1 - 12A","city":"Pāle","zip":"LV-4052"},"meldru iela 1 - 18a":{"address":"Meldru iela 1 - 18A","city":"Pāle","zip":"LV-4052"},"meldru iela 5 - 1":{"address":"Meldru iela 5 - 1","city":"Pāle","zip":"LV-4052"},"meldru iela 5 - 2":{"address":"Meldru iela 5 - 2","city":"Pāle","zip":"LV-4052"},"meldru iela 5 - 3":{"address":"Meldru iela 5 - 3","city":"Pāle","zip":"LV-4052"},"meldru iela 5 - 4":{"address":"Meldru iela 5 - 4","city":"Pāle","zip":"LV-4052"},"meldru iela 5 - 5":{"address":"Meldru iela 5 - 5","city":"Pāle","zip":"LV-4052"},"meldru iela 5 - 6":{"address":"Meldru iela 5 - 6","city":"Pāle","zip":"LV-4052"},"meldru iela 5 - 7":{"address":"Meldru iela 5 - 7","city":"Pāle","zip":"LV-4052"},"meldru iela 5 - 8":{"address":"Meldru iela 5 - 8","city":"Pāle","zip":"LV-4052"},"meldru iela 5 - 9":{"address":"Meldru iela 5 - 9","city":"Pāle","zip":"LV-4052"},"meldru iela 5 - 10":{"address":"Meldru iela 5 - 10","city":"Pāle","zip":"LV-4052"},"meldru iela 5 - 11":{"address":"Meldru iela 5 - 11","city":"Pāle","zip":"LV-4052"},"meldru iela 5 - 12":{"address":"Meldru iela 5 - 12","city":"Pāle","zip":"LV-4052"}}