{"mežrūpniecības iela 2 - 1":{"address":"Mežrūpniecības iela 2 - 1","city":"Mežvidi","zip":"LV-3801"},"mežrūpniecības iela 2 - 2":{"address":"Mežrūpniecības iela 2 - 2","city":"Mežvidi","zip":"LV-3801"},"irbenieku iela 1 - 1":{"address":"Irbenieku iela 1 - 1","city":"Mežvidi","zip":"LV-3801"},"irbenieku iela 1 - 2":{"address":"Irbenieku iela 1 - 2","city":"Mežvidi","zip":"LV-3801"},"irbenieku iela 1 - 3":{"address":"Irbenieku iela 1 - 3","city":"Mežvidi","zip":"LV-3801"},"irbenieku iela 1 - 4":{"address":"Irbenieku iela 1 - 4","city":"Mežvidi","zip":"LV-3801"},"irbenieku iela 1 - 5":{"address":"Irbenieku iela 1 - 5","city":"Mežvidi","zip":"LV-3801"},"irbenieku iela 1 - 6":{"address":"Irbenieku iela 1 - 6","city":"Mežvidi","zip":"LV-3801"},"krasti - 1":{"address":"Krasti - 1","city":"Mežvidi","zip":"LV-3801"},"krasti - 2":{"address":"Krasti - 2","city":"Mežvidi","zip":"LV-3801"},"krasti - 3":{"address":"Krasti - 3","city":"Mežvidi","zip":"LV-3801"},"krasti - 4":{"address":"Krasti - 4","city":"Mežvidi","zip":"LV-3801"},"krasti - 5":{"address":"Krasti - 5","city":"Mežvidi","zip":"LV-3801"},"krasti - 6":{"address":"Krasti - 6","city":"Mežvidi","zip":"LV-3801"},"krasti - 7":{"address":"Krasti - 7","city":"Mežvidi","zip":"LV-3801"},"krasti - 8":{"address":"Krasti - 8","city":"Mežvidi","zip":"LV-3801"},"krasti - 9":{"address":"Krasti - 9","city":"Mežvidi","zip":"LV-3801"},"krasti - 10":{"address":"Krasti - 10","city":"Mežvidi","zip":"LV-3801"},"krasti - 11":{"address":"Krasti - 11","city":"Mežvidi","zip":"LV-3801"},"krasti - 12":{"address":"Krasti - 12","city":"Mežvidi","zip":"LV-3801"},"krasti - 13":{"address":"Krasti - 13","city":"Mežvidi","zip":"LV-3801"},"krasti - 14":{"address":"Krasti - 14","city":"Mežvidi","zip":"LV-3801"},"krasti - 15":{"address":"Krasti - 15","city":"Mežvidi","zip":"LV-3801"},"krasti - 16":{"address":"Krasti - 16","city":"Mežvidi","zip":"LV-3801"},"krasti - 17":{"address":"Krasti - 17","city":"Mežvidi","zip":"LV-3801"},"krasti - 18":{"address":"Krasti - 18","city":"Mežvidi","zip":"LV-3801"},"krasti - 19":{"address":"Krasti - 19","city":"Mežvidi","zip":"LV-3801"},"krasti - 20":{"address":"Krasti - 20","city":"Mežvidi","zip":"LV-3801"},"krasti - 21":{"address":"Krasti - 21","city":"Mežvidi","zip":"LV-3801"},"krasti - 22":{"address":"Krasti - 22","city":"Mežvidi","zip":"LV-3801"},"krasti - 23":{"address":"Krasti - 23","city":"Mežvidi","zip":"LV-3801"},"krasti - 24":{"address":"Krasti - 24","city":"Mežvidi","zip":"LV-3801"},"kraujas - 1":{"address":"Kraujas - 1","city":"Mežvidi","zip":"LV-3801"},"kraujas - 2":{"address":"Kraujas - 2","city":"Mežvidi","zip":"LV-3801"},"kraujas - 3":{"address":"Kraujas - 3","city":"Mežvidi","zip":"LV-3801"},"kraujas - 4":{"address":"Kraujas - 4","city":"Mežvidi","zip":"LV-3801"},"kraujas - 5":{"address":"Kraujas - 5","city":"Mežvidi","zip":"LV-3801"},"kraujas - 6":{"address":"Kraujas - 6","city":"Mežvidi","zip":"LV-3801"},"kraujas - 7":{"address":"Kraujas - 7","city":"Mežvidi","zip":"LV-3801"},"kraujas - 8":{"address":"Kraujas - 8","city":"Mežvidi","zip":"LV-3801"},"kraujas - 9":{"address":"Kraujas - 9","city":"Mežvidi","zip":"LV-3801"},"kraujas - 10":{"address":"Kraujas - 10","city":"Mežvidi","zip":"LV-3801"},"kraujas - 11":{"address":"Kraujas - 11","city":"Mežvidi","zip":"LV-3801"},"kraujas - 12":{"address":"Kraujas - 12","city":"Mežvidi","zip":"LV-3801"},"kraujas - 13":{"address":"Kraujas - 13","city":"Mežvidi","zip":"LV-3801"},"kraujas - 14":{"address":"Kraujas - 14","city":"Mežvidi","zip":"LV-3801"},"kraujas - 15":{"address":"Kraujas - 15","city":"Mežvidi","zip":"LV-3801"},"kraujas - 16":{"address":"Kraujas - 16","city":"Mežvidi","zip":"LV-3801"},"kraujas - 17":{"address":"Kraujas - 17","city":"Mežvidi","zip":"LV-3801"},"kraujas - 18":{"address":"Kraujas - 18","city":"Mežvidi","zip":"LV-3801"},"kraujas - 19":{"address":"Kraujas - 19","city":"Mežvidi","zip":"LV-3801"},"kraujas - 20":{"address":"Kraujas - 20","city":"Mežvidi","zip":"LV-3801"},"kraujas - 21":{"address":"Kraujas - 21","city":"Mežvidi","zip":"LV-3801"},"kraujas - 22":{"address":"Kraujas - 22","city":"Mežvidi","zip":"LV-3801"},"kraujas - 23":{"address":"Kraujas - 23","city":"Mežvidi","zip":"LV-3801"},"kraujas - 24":{"address":"Kraujas - 24","city":"Mežvidi","zip":"LV-3801"},"līdumnieki - 1":{"address":"Līdumnieki - 1","city":"Mežvidi","zip":"LV-3801"},"līdumnieki - 2":{"address":"Līdumnieki - 2","city":"Mežvidi","zip":"LV-3801"},"līdumnieki - 3":{"address":"Līdumnieki - 3","city":"Mežvidi","zip":"LV-3801"},"līdumnieki - 4":{"address":"Līdumnieki - 4","city":"Mežvidi","zip":"LV-3801"},"līdumnieki - 5":{"address":"Līdumnieki - 5","city":"Mežvidi","zip":"LV-3801"},"līdumnieki - 6":{"address":"Līdumnieki - 6","city":"Mežvidi","zip":"LV-3801"},"līdumnieki - 7":{"address":"Līdumnieki - 7","city":"Mežvidi","zip":"LV-3801"},"līdumnieki - 8":{"address":"Līdumnieki - 8","city":"Mežvidi","zip":"LV-3801"},"mežcieceres - 1":{"address":"Mežcieceres - 1","city":"Mežvidi","zip":"LV-3801"},"mežcieceres - 2":{"address":"Mežcieceres - 2","city":"Mežvidi","zip":"LV-3801"},"mežcieceres - 3":{"address":"Mežcieceres - 3","city":"Mežvidi","zip":"LV-3801"},"mežcieceres - 4":{"address":"Mežcieceres - 4","city":"Mežvidi","zip":"LV-3801"},"mežcieceres - 5":{"address":"Mežcieceres - 5","city":"Mežvidi","zip":"LV-3801"},"mežcieceres - 6":{"address":"Mežcieceres - 6","city":"Mežvidi","zip":"LV-3801"},"mežcieceres - 7":{"address":"Mežcieceres - 7","city":"Mežvidi","zip":"LV-3801"},"mežcieceres - 8":{"address":"Mežcieceres - 8","city":"Mežvidi","zip":"LV-3801"},"mežcieceres - 9":{"address":"Mežcieceres - 9","city":"Mežvidi","zip":"LV-3801"},"mežcieceres - 3a":{"address":"Mežcieceres - 3A","city":"Mežvidi","zip":"LV-3801"},"mežnoras - 1":{"address":"Mežnoras - 1","city":"Mežvidi","zip":"LV-3801"},"mežnoras - 2":{"address":"Mežnoras - 2","city":"Mežvidi","zip":"LV-3801"},"mežnoras - 3":{"address":"Mežnoras - 3","city":"Mežvidi","zip":"LV-3801"},"mežnoras - 2a":{"address":"Mežnoras - 2A","city":"Mežvidi","zip":"LV-3801"},"galdnieki - 1":{"address":"Galdnieki - 1","city":"Mežvidi","zip":"LV-3801"},"galdnieki - 2":{"address":"Galdnieki - 2","city":"Mežvidi","zip":"LV-3801"},"galdnieki - 3":{"address":"Galdnieki - 3","city":"Mežvidi","zip":"LV-3801"},"upeskrastiņi - 1":{"address":"Upeskrastiņi - 1","city":"Mežvidi","zip":"LV-3801"},"upeskrastiņi - 2":{"address":"Upeskrastiņi - 2","city":"Mežvidi","zip":"LV-3801"},"upeskrastiņi - 3":{"address":"Upeskrastiņi - 3","city":"Mežvidi","zip":"LV-3801"},"upeslejas - 1":{"address":"Upeslejas - 1","city":"Mežvidi","zip":"LV-3801"},"upeslejas - 2":{"address":"Upeslejas - 2","city":"Mežvidi","zip":"LV-3801"},"mazozoli - 1":{"address":"Mazozoli - 1","city":"Mežvidi","zip":"LV-3801"},"mazozoli - 2":{"address":"Mazozoli - 2","city":"Mežvidi","zip":"LV-3801"}}