{"jaunmežmaļi - 5":{"address":"Jaunmežmaļi - 5","city":"Mežmaļi","zip":"LV-4136"},"jaunmežmaļi - 4":{"address":"Jaunmežmaļi - 4","city":"Mežmaļi","zip":"LV-4136"},"jaunmežmaļi - 3":{"address":"Jaunmežmaļi - 3","city":"Mežmaļi","zip":"LV-4136"},"jaunmežmaļi - 2":{"address":"Jaunmežmaļi - 2","city":"Mežmaļi","zip":"LV-4136"},"jaunmežmaļi - 1":{"address":"Jaunmežmaļi - 1","city":"Mežmaļi","zip":"LV-4136"},"mežmaļi - 1":{"address":"Mežmaļi - 1","city":"Neveja","zip":"LV-3270"},"mežmaļi - 2":{"address":"Mežmaļi - 2","city":"Neveja","zip":"LV-3270"},"mežmaļi - 3":{"address":"Mežmaļi - 3","city":"Neveja","zip":"LV-3270"},"mežmaļi - 4":{"address":"Mežmaļi - 4","city":"Neveja","zip":"LV-3270"},"mežmaļi - 5":{"address":"Mežmaļi - 5","city":"Jūrkalne","zip":"LV-3626"},"mežmaļi - 6":{"address":"Mežmaļi - 6","city":"Jūrkalne","zip":"LV-3626"},"mežmaļi - 7":{"address":"Mežmaļi - 7","city":"Mežmaļi","zip":"LV-4136"},"mežmaļi - 8":{"address":"Mežmaļi - 8","city":"Mežmaļi","zip":"LV-4136"},"mežmaļi - 9":{"address":"Mežmaļi - 9","city":"Mežmaļi","zip":"LV-4136"},"mežmaļi - 10":{"address":"Mežmaļi - 10","city":"Mežmaļi","zip":"LV-4136"},"mežmaļi - 11":{"address":"Mežmaļi - 11","city":"Mežmaļi","zip":"LV-4136"},"mežmaļi - 12":{"address":"Mežmaļi - 12","city":"Mežmaļi","zip":"LV-4136"},"mežmaļi - 13":{"address":"Mežmaļi - 13","city":"Mežmaļi","zip":"LV-4136"},"mežmaļi - 14":{"address":"Mežmaļi - 14","city":"Mežmaļi","zip":"LV-4136"},"mežmaļi - 15":{"address":"Mežmaļi - 15","city":"Mežmaļi","zip":"LV-4136"},"mežmaļi - 16":{"address":"Mežmaļi - 16","city":"Mežmaļi","zip":"LV-4136"},"mežmaļi - 17":{"address":"Mežmaļi - 17","city":"Mežmaļi","zip":"LV-4136"},"mežmaļi - 18":{"address":"Mežmaļi - 18","city":"Mežmaļi","zip":"LV-4136"},"mežmalieši - 1":{"address":"Mežmalieši - 1","city":"Pastende","zip":"LV-3251"},"mežmalieši - 2":{"address":"Mežmalieši - 2","city":"Pastende","zip":"LV-3251"},"mežmaliņas - 3":{"address":"Mežmaliņas - 3","city":"Garkalne","zip":"LV-2164"},"mežmaliņas - 4":{"address":"Mežmaliņas - 4","city":"Garkalne","zip":"LV-2164"},"mežmaliņas - 5":{"address":"Mežmaliņas - 5","city":"Garkalne","zip":"LV-2164"},"mežmaliņas - 1/2":{"address":"Mežmaliņas - 1/2","city":"Garkalne","zip":"LV-2164"},"mežmaļi":{"address":"Mežmaļi","city":"Beļava","zip":"LV-4409"}}