{"mežinieki - 1":{"address":"Mežinieki - 1","city":"Kārķi","zip":"LV-4716"},"mežinieki - 2":{"address":"Mežinieki - 2","city":"Kārķi","zip":"LV-4716"},"mežinieki - 3":{"address":"Mežinieki - 3","city":"Kārķi","zip":"LV-4716"},"mežinieki - 4":{"address":"Mežinieki - 4","city":"Kārķi","zip":"LV-4716"},"mežinieki - 5":{"address":"Mežinieki - 5","city":"Kārķi","zip":"LV-4716"},"mežinieki - 6":{"address":"Mežinieki - 6","city":"Kārķi","zip":"LV-4716"},"mežinieki - 7":{"address":"Mežinieki - 7","city":"Kārķi","zip":"LV-4716"},"mežinieki - 8":{"address":"Mežinieki - 8","city":"Kārķi","zip":"LV-4716"},"mežinieki":{"address":"Mežinieki","city":"Dricāni","zip":"LV-4615"},"cigoriņi":{"address":"Cigoriņi","city":"Mežinieki","zip":"LV-5481"},"paipalas":{"address":"Paipalas","city":"Mežinieki","zip":"LV-5481"},"kamenes":{"address":"Kamenes","city":"Mežinieki","zip":"LV-5481"},"meža mājas":{"address":"Meža mājas","city":"Mežinieki","zip":"LV-5481"},"mežinieku mājas":{"address":"Mežinieku mājas","city":"Mežinieki","zip":"LV-5481"},"oši":{"address":"Oši","city":"Mežinieki","zip":"LV-5481"},"saulīši":{"address":"Saulīši","city":"Mežinieki","zip":"LV-5481"},"vientuļnieki":{"address":"Vientuļnieki","city":"Mežinieki","zip":"LV-5481"}}