{"mežabrāļi - 1":{"address":"Mežabrāļi - 1","city":"Vīksna","zip":"LV-4580"},"mežabrāļi - 2":{"address":"Mežabrāļi - 2","city":"Vīksna","zip":"LV-4580"},"mežabrāļi - 3":{"address":"Mežabrāļi - 3","city":"Vīksna","zip":"LV-4580"},"mežabrāļi - 4":{"address":"Mežabrāļi - 4","city":"Vīksna","zip":"LV-4580"},"mežābele - 1":{"address":"Mežābele - 1","city":"Naudaskalns","zip":"LV-4561"},"mežābele - 2":{"address":"Mežābele - 2","city":"Naudaskalns","zip":"LV-4561"},"mežābele - 3":{"address":"Mežābele - 3","city":"Naudaskalns","zip":"LV-4561"},"mežābele - 4":{"address":"Mežābele - 4","city":"Naudaskalns","zip":"LV-4561"},"mežābele - 5":{"address":"Mežābele - 5","city":"Naudaskalns","zip":"LV-4561"},"mežābele - 6":{"address":"Mežābele - 6","city":"Naudaskalns","zip":"LV-4561"},"mežābele - 7":{"address":"Mežābele - 7","city":"Naudaskalns","zip":"LV-4561"},"mežābele - 8":{"address":"Mežābele - 8","city":"Naudaskalns","zip":"LV-4561"},"mežābele - 9":{"address":"Mežābele - 9","city":"Naudaskalns","zip":"LV-4561"},"mežābele - 10":{"address":"Mežābele - 10","city":"Naudaskalns","zip":"LV-4561"},"mežābele - 11":{"address":"Mežābele - 11","city":"Naudaskalns","zip":"LV-4561"},"mežābele - 12":{"address":"Mežābele - 12","city":"Naudaskalns","zip":"LV-4561"},"mežābeles - 1":{"address":"Mežābeles - 1","city":"Vaidava","zip":"LV-4228"},"mežābeles - 2":{"address":"Mežābeles - 2","city":"Vaidava","zip":"LV-4228"},"mežābeles - 3":{"address":"Mežābeles - 3","city":"Vaidava","zip":"LV-4228"},"mežābeles - 4":{"address":"Mežābeles - 4","city":"Vaidava","zip":"LV-4228"},"mežābeles - 5":{"address":"Mežābeles - 5","city":"Vaidava","zip":"LV-4228"},"mežābeles - 6":{"address":"Mežābeles - 6","city":"Vaidava","zip":"LV-4228"},"mežābeles - 7":{"address":"Mežābeles - 7","city":"Vaidava","zip":"LV-4228"},"mežābeles - 8":{"address":"Mežābeles - 8","city":"Vaidava","zip":"LV-4228"},"mežābeles - 9":{"address":"Mežābeles - 9","city":"Vaidava","zip":"LV-4228"},"mežābeles - 10":{"address":"Mežābeles - 10","city":"Vaidava","zip":"LV-4228"},"mežābeles - 11":{"address":"Mežābeles - 11","city":"Vaidava","zip":"LV-4228"},"mežābeles - 12":{"address":"Mežābeles - 12","city":"Vaidava","zip":"LV-4228"},"mežābeles - 13":{"address":"Mežābeles - 13","city":"Vaidava","zip":"LV-4228"},"mežābeles - 14":{"address":"Mežābeles - 14","city":"Vaidava","zip":"LV-4228"},"mežābeles - 15":{"address":"Mežābeles - 15","city":"Vaidava","zip":"LV-4228"},"mežābeles - 16":{"address":"Mežābeles - 16","city":"Vaidava","zip":"LV-4228"},"mežābeles - 17":{"address":"Mežābeles - 17","city":"Vaidava","zip":"LV-4228"},"mežābeles - 18":{"address":"Mežābeles - 18","city":"Vaidava","zip":"LV-4228"}}