{"mežvīni - 1":{"address":"Mežvīni - 1","city":"Egļuciems","zip":"LV-4592"},"mežvīni - 2":{"address":"Mežvīni - 2","city":"Egļuciems","zip":"LV-4592"},"mežvīni - 3":{"address":"Mežvīni - 3","city":"Egļuciems","zip":"LV-4592"},"mežvīni - 4":{"address":"Mežvīni - 4","city":"Egļuciems","zip":"LV-4592"},"mežvīni - 5":{"address":"Mežvīni - 5","city":"Egļuciems","zip":"LV-4592"},"mežvīni - 6":{"address":"Mežvīni - 6","city":"Egļuciems","zip":"LV-4592"},"mežvīni - 7":{"address":"Mežvīni - 7","city":"Egļuciems","zip":"LV-4592"},"mežvīni - 8":{"address":"Mežvīni - 8","city":"Egļuciems","zip":"LV-4592"},"mežvīni - 9":{"address":"Mežvīni - 9","city":"Egļuciems","zip":"LV-4592"},"mežvīni - 10":{"address":"Mežvīni - 10","city":"Egļuciems","zip":"LV-4592"},"mežvīni - 11":{"address":"Mežvīni - 11","city":"Egļuciems","zip":"LV-4592"},"mežvīni - 12":{"address":"Mežvīni - 12","city":"Egļuciems","zip":"LV-4592"},"mežvīni - 13":{"address":"Mežvīni - 13","city":"Egļuciems","zip":"LV-4592"},"mežvīni - 14":{"address":"Mežvīni - 14","city":"Egļuciems","zip":"LV-4592"},"mežvīni - 15":{"address":"Mežvīni - 15","city":"Egļuciems","zip":"LV-4592"},"mežvīni - 16":{"address":"Mežvīni - 16","city":"Egļuciems","zip":"LV-4592"},"mežvīni - 17":{"address":"Mežvīni - 17","city":"Egļuciems","zip":"LV-4592"},"mežvīni - 18":{"address":"Mežvīni - 18","city":"Egļuciems","zip":"LV-4592"},"mežvīni":{"address":"Mežvīni","city":"Egļuciems","zip":"LV-4592"},"mežvīni 1":{"address":"Mežvīni 1","city":"Barševski","zip":"LV-5653"},"mežvīni 2":{"address":"Mežvīni 2","city":"Sēļi","zip":"LV-4723"}}