{"mežsētas - 1":{"address":"Mežsētas - 1","city":"Svente","zip":"LV-5473"},"mežsētas - 2":{"address":"Mežsētas - 2","city":"Sesile","zip":"LV-3880"},"mežsētas - 3":{"address":"Mežsētas - 3","city":"Svente","zip":"LV-5473"},"mežsētas - 4":{"address":"Mežsētas - 4","city":"Sesile","zip":"LV-3880"},"mežsētas - 5":{"address":"Mežsētas - 5","city":"Kalniena","zip":"LV-4406"},"pirmās mežsētas - 1":{"address":"Pirmās Mežsētas - 1","city":"Jaunsaimnieki","zip":"LV-5301"},"pirmās mežsētas - 2":{"address":"Pirmās Mežsētas - 2","city":"Jaunsaimnieki","zip":"LV-5301"},"pirmās mežsētas - 3":{"address":"Pirmās Mežsētas - 3","city":"Jaunsaimnieki","zip":"LV-5301"},"pirmās mežsētas - 4":{"address":"Pirmās Mežsētas - 4","city":"Jaunsaimnieki","zip":"LV-5301"},"pirmās mežsētas - 5":{"address":"Pirmās Mežsētas - 5","city":"Jaunsaimnieki","zip":"LV-5301"},"pirmās mežsētas - 6":{"address":"Pirmās Mežsētas - 6","city":"Jaunsaimnieki","zip":"LV-5301"},"pirmās mežsētas - 7":{"address":"Pirmās Mežsētas - 7","city":"Jaunsaimnieki","zip":"LV-5301"},"pirmās mežsētas - 8":{"address":"Pirmās Mežsētas - 8","city":"Jaunsaimnieki","zip":"LV-5301"},"mežsētas":{"address":"Mežsētas","city":"Spīķi","zip":"LV-5304"},"mežsētas 1":{"address":"Mežsētas 1","city":"Vidaga","zip":"LV-4355"},"pirmās mežsētas":{"address":"Pirmās Mežsētas","city":"Jaunsaimnieki","zip":"LV-5301"}}