{"miera iela 9 - 2":{"address":"Miera iela 9 - 2","city":"Strūžāni","zip":"LV-4643"},"miera iela 9 - 3":{"address":"Miera iela 9 - 3","city":"Strūžāni","zip":"LV-4643"},"miera iela 9 - 4":{"address":"Miera iela 9 - 4","city":"Strūžāni","zip":"LV-4643"},"miera iela 9 - 5":{"address":"Miera iela 9 - 5","city":"Strūžāni","zip":"LV-4643"},"miera iela 9 - 6":{"address":"Miera iela 9 - 6","city":"Strūžāni","zip":"LV-4643"},"miera iela 9 - 7":{"address":"Miera iela 9 - 7","city":"Strūžāni","zip":"LV-4643"},"miera iela 9 - 8":{"address":"Miera iela 9 - 8","city":"Strūžāni","zip":"LV-4643"},"miera iela 9 - 9":{"address":"Miera iela 9 - 9","city":"Strūžāni","zip":"LV-4643"},"miera iela 9 - 10":{"address":"Miera iela 9 - 10","city":"Strūžāni","zip":"LV-4643"},"miera iela 9 - 11":{"address":"Miera iela 9 - 11","city":"Strūžāni","zip":"LV-4643"},"miera iela 9 - 12":{"address":"Miera iela 9 - 12","city":"Strūžāni","zip":"LV-4643"},"miera iela 10 - 1":{"address":"Miera iela 10 - 1","city":"Strūžāni","zip":"LV-4643"},"miera iela 10 - 2":{"address":"Miera iela 10 - 2","city":"Strūžāni","zip":"LV-4643"},"miera iela 10 - 3":{"address":"Miera iela 10 - 3","city":"Strūžāni","zip":"LV-4643"},"miera iela 10 - 4":{"address":"Miera iela 10 - 4","city":"Strūžāni","zip":"LV-4643"},"miera iela 10 - 5":{"address":"Miera iela 10 - 5","city":"Strūžāni","zip":"LV-4643"},"miera iela 10 - 6":{"address":"Miera iela 10 - 6","city":"Strūžāni","zip":"LV-4643"},"miera iela 10 - 7":{"address":"Miera iela 10 - 7","city":"Strūžāni","zip":"LV-4643"},"miera iela 10 - 8":{"address":"Miera iela 10 - 8","city":"Strūžāni","zip":"LV-4643"},"miera iela 10 - 9":{"address":"Miera iela 10 - 9","city":"Strūžāni","zip":"LV-4643"},"miera iela 10 - 10":{"address":"Miera iela 10 - 10","city":"Strūžāni","zip":"LV-4643"},"miera iela 10 - 11":{"address":"Miera iela 10 - 11","city":"Strūžāni","zip":"LV-4643"},"miera iela 10 - 12":{"address":"Miera iela 10 - 12","city":"Strūžāni","zip":"LV-4643"},"miera iela 8 - 1":{"address":"Miera iela 8 - 1","city":"Strūžāni","zip":"LV-4643"},"miera iela 8 - 2":{"address":"Miera iela 8 - 2","city":"Strūžāni","zip":"LV-4643"},"miera iela 8 - 3":{"address":"Miera iela 8 - 3","city":"Strūžāni","zip":"LV-4643"},"miera iela 8 - 4":{"address":"Miera iela 8 - 4","city":"Strūžāni","zip":"LV-4643"},"miera iela 8 - 5":{"address":"Miera iela 8 - 5","city":"Strūžāni","zip":"LV-4643"},"miera iela 8 - 6":{"address":"Miera iela 8 - 6","city":"Strūžāni","zip":"LV-4643"},"miera iela 8 - 7":{"address":"Miera iela 8 - 7","city":"Strūžāni","zip":"LV-4643"},"miera iela 8 - 8":{"address":"Miera iela 8 - 8","city":"Strūžāni","zip":"LV-4643"},"miera iela 8 - 9":{"address":"Miera iela 8 - 9","city":"Strūžāni","zip":"LV-4643"},"miera iela 8 - 10":{"address":"Miera iela 8 - 10","city":"Strūžāni","zip":"LV-4643"},"miera iela 8 - 11":{"address":"Miera iela 8 - 11","city":"Strūžāni","zip":"LV-4643"},"miera iela 8 - 12":{"address":"Miera iela 8 - 12","city":"Strūžāni","zip":"LV-4643"},"miera iela 8 - 13":{"address":"Miera iela 8 - 13","city":"Strūžāni","zip":"LV-4643"},"miera iela 8 - 14":{"address":"Miera iela 8 - 14","city":"Strūžāni","zip":"LV-4643"},"miera iela 8 - 15":{"address":"Miera iela 8 - 15","city":"Strūžāni","zip":"LV-4643"},"miera iela 8 - 16":{"address":"Miera iela 8 - 16","city":"Strūžāni","zip":"LV-4643"},"miera iela 6 - 1":{"address":"Miera iela 6 - 1","city":"Strūžāni","zip":"LV-4643"},"miera iela 6 - 2":{"address":"Miera iela 6 - 2","city":"Strūžāni","zip":"LV-4643"},"miera iela 6 - 3":{"address":"Miera iela 6 - 3","city":"Strūžāni","zip":"LV-4643"},"miera iela 6 - 4":{"address":"Miera iela 6 - 4","city":"Strūžāni","zip":"LV-4643"},"miera iela 6 - 5":{"address":"Miera iela 6 - 5","city":"Strūžāni","zip":"LV-4643"},"miera iela 6 - 6":{"address":"Miera iela 6 - 6","city":"Strūžāni","zip":"LV-4643"},"miera iela 6 - 7":{"address":"Miera iela 6 - 7","city":"Strūžāni","zip":"LV-4643"},"miera iela 6 - 8":{"address":"Miera iela 6 - 8","city":"Strūžāni","zip":"LV-4643"},"miera iela 6 - 9":{"address":"Miera iela 6 - 9","city":"Strūžāni","zip":"LV-4643"},"miera iela 6 - 10":{"address":"Miera iela 6 - 10","city":"Strūžāni","zip":"LV-4643"},"miera iela 6 - 11":{"address":"Miera iela 6 - 11","city":"Strūžāni","zip":"LV-4643"},"miera iela 6 - 12":{"address":"Miera iela 6 - 12","city":"Strūžāni","zip":"LV-4643"},"miera iela 6 - 13":{"address":"Miera iela 6 - 13","city":"Strūžāni","zip":"LV-4643"},"miera iela 6 - 14":{"address":"Miera iela 6 - 14","city":"Strūžāni","zip":"LV-4643"},"miera iela 6 - 15":{"address":"Miera iela 6 - 15","city":"Strūžāni","zip":"LV-4643"},"miera iela 6 - 16":{"address":"Miera iela 6 - 16","city":"Strūžāni","zip":"LV-4643"},"miera iela 7 - 1":{"address":"Miera iela 7 - 1","city":"Strūžāni","zip":"LV-4643"},"miera iela 7 - 2":{"address":"Miera iela 7 - 2","city":"Strūžāni","zip":"LV-4643"},"miera iela 7 - 3":{"address":"Miera iela 7 - 3","city":"Strūžāni","zip":"LV-4643"},"miera iela 7 - 4":{"address":"Miera iela 7 - 4","city":"Strūžāni","zip":"LV-4643"},"miera iela 7 - 5":{"address":"Miera iela 7 - 5","city":"Strūžāni","zip":"LV-4643"},"miera iela 7 - 6":{"address":"Miera iela 7 - 6","city":"Strūžāni","zip":"LV-4643"},"miera iela 7 - 7":{"address":"Miera iela 7 - 7","city":"Strūžāni","zip":"LV-4643"},"miera iela 7 - 8":{"address":"Miera iela 7 - 8","city":"Strūžāni","zip":"LV-4643"},"miera iela 7 - 9":{"address":"Miera iela 7 - 9","city":"Strūžāni","zip":"LV-4643"},"miera iela 7 - 10":{"address":"Miera iela 7 - 10","city":"Strūžāni","zip":"LV-4643"},"miera iela 7 - 11":{"address":"Miera iela 7 - 11","city":"Strūžāni","zip":"LV-4643"},"miera iela 7 - 12":{"address":"Miera iela 7 - 12","city":"Strūžāni","zip":"LV-4643"},"miera iela 7 - 13":{"address":"Miera iela 7 - 13","city":"Strūžāni","zip":"LV-4643"},"miera iela 7 - 14":{"address":"Miera iela 7 - 14","city":"Strūžāni","zip":"LV-4643"},"miera iela 7 - 15":{"address":"Miera iela 7 - 15","city":"Strūžāni","zip":"LV-4643"},"miera iela 7 - 16":{"address":"Miera iela 7 - 16","city":"Strūžāni","zip":"LV-4643"},"miera iela 11 - 1":{"address":"Miera iela 11 - 1","city":"Strūžāni","zip":"LV-4643"},"miera iela 11 - 2":{"address":"Miera iela 11 - 2","city":"Strūžāni","zip":"LV-4643"},"miera iela 11 - 3":{"address":"Miera iela 11 - 3","city":"Strūžāni","zip":"LV-4643"},"miera iela 11 - 4":{"address":"Miera iela 11 - 4","city":"Strūžāni","zip":"LV-4643"},"miera iela 11 - 5":{"address":"Miera iela 11 - 5","city":"Strūžāni","zip":"LV-4643"},"miera iela 11 - 6":{"address":"Miera iela 11 - 6","city":"Strūžāni","zip":"LV-4643"},"miera iela 11 - 7":{"address":"Miera iela 11 - 7","city":"Strūžāni","zip":"LV-4643"},"miera iela 11 - 8":{"address":"Miera iela 11 - 8","city":"Strūžāni","zip":"LV-4643"},"miera iela 11 - 9":{"address":"Miera iela 11 - 9","city":"Strūžāni","zip":"LV-4643"},"miera iela 11 - 10":{"address":"Miera iela 11 - 10","city":"Strūžāni","zip":"LV-4643"},"miera iela 11 - 11":{"address":"Miera iela 11 - 11","city":"Strūžāni","zip":"LV-4643"},"miera iela 11 - 12":{"address":"Miera iela 11 - 12","city":"Strūžāni","zip":"LV-4643"},"miera iela 13 - 1":{"address":"Miera iela 13 - 1","city":"Strūžāni","zip":"LV-4643"},"miera iela 13 - 2":{"address":"Miera iela 13 - 2","city":"Strūžāni","zip":"LV-4643"},"miera iela 13 - 3":{"address":"Miera iela 13 - 3","city":"Strūžāni","zip":"LV-4643"},"miera iela 13 - 4":{"address":"Miera iela 13 - 4","city":"Strūžāni","zip":"LV-4643"},"miera iela 13 - 5":{"address":"Miera iela 13 - 5","city":"Strūžāni","zip":"LV-4643"},"miera iela 13 - 6":{"address":"Miera iela 13 - 6","city":"Strūžāni","zip":"LV-4643"},"miera iela 13 - 7":{"address":"Miera iela 13 - 7","city":"Strūžāni","zip":"LV-4643"},"miera iela 13 - 8":{"address":"Miera iela 13 - 8","city":"Strūžāni","zip":"LV-4643"},"miera iela 13 - 9":{"address":"Miera iela 13 - 9","city":"Strūžāni","zip":"LV-4643"},"miera iela 13 - 10":{"address":"Miera iela 13 - 10","city":"Strūžāni","zip":"LV-4643"},"miera iela 13 - 11":{"address":"Miera iela 13 - 11","city":"Strūžāni","zip":"LV-4643"},"miera iela 13 - 12":{"address":"Miera iela 13 - 12","city":"Strūžāni","zip":"LV-4643"},"miera iela 15 - 1":{"address":"Miera iela 15 - 1","city":"Strūžāni","zip":"LV-4643"},"miera iela 15 - 2":{"address":"Miera iela 15 - 2","city":"Strūžāni","zip":"LV-4643"},"miera iela 15 - 3":{"address":"Miera iela 15 - 3","city":"Strūžāni","zip":"LV-4643"},"miera iela 15 - 4":{"address":"Miera iela 15 - 4","city":"Strūžāni","zip":"LV-4643"},"miera iela 15 - 5":{"address":"Miera iela 15 - 5","city":"Strūžāni","zip":"LV-4643"}}