{"muižas māja - 1":{"address":"Muižas māja - 1","city":"Centramuiža","zip":"LV-4501"},"muižas māja - 2":{"address":"Muižas māja - 2","city":"Centramuiža","zip":"LV-4501"},"muižas iela 5 - 1":{"address":"Muižas iela 5 - 1","city":"Liepupe","zip":"LV-4023"},"muižas iela 5 - 2":{"address":"Muižas iela 5 - 2","city":"Liepupe","zip":"LV-4023"},"muižas iela 5 - 3":{"address":"Muižas iela 5 - 3","city":"Liepupe","zip":"LV-4023"},"muižas iela 5 - 4":{"address":"Muižas iela 5 - 4","city":"Liepupe","zip":"LV-4023"},"muižas iela 5 - 5":{"address":"Muižas iela 5 - 5","city":"Liepupe","zip":"LV-4023"},"muižas iela 18 - 1":{"address":"Muižas iela 18 - 1","city":"Liepupe","zip":"LV-4023"},"muižas iela 18 - 2":{"address":"Muižas iela 18 - 2","city":"Liepupe","zip":"LV-4023"},"muižas iela 12 - 1":{"address":"Muižas iela 12 - 1","city":"Ādaži","zip":"LV-2164"},"muižas iela 12 - 2":{"address":"Muižas iela 12 - 2","city":"Ādaži","zip":"LV-2164"},"muižas iela 12 - 3":{"address":"Muižas iela 12 - 3","city":"Ādaži","zip":"LV-2164"},"muižas iela 12 - 4":{"address":"Muižas iela 12 - 4","city":"Liepupe","zip":"LV-4023"},"muižas iela 12 - 5":{"address":"Muižas iela 12 - 5","city":"Liepupe","zip":"LV-4023"},"muižas iela 12 - 6":{"address":"Muižas iela 12 - 6","city":"Liepupe","zip":"LV-4023"},"muižas iela 12 - 7":{"address":"Muižas iela 12 - 7","city":"Liepupe","zip":"LV-4023"},"muižas iela 12 - 8":{"address":"Muižas iela 12 - 8","city":"Liepupe","zip":"LV-4023"},"muižas iela 12 - 9":{"address":"Muižas iela 12 - 9","city":"Liepupe","zip":"LV-4023"},"muižas ceļš 12 - 1":{"address":"Muižas ceļš 12 - 1","city":"Zaļenieki","zip":"LV-3011"},"muižas ceļš 12 - 2":{"address":"Muižas ceļš 12 - 2","city":"Zaļenieki","zip":"LV-3011"},"muižas ceļš 12 - 3":{"address":"Muižas ceļš 12 - 3","city":"Zaļenieki","zip":"LV-3011"},"muižas ceļš 12 - 4":{"address":"Muižas ceļš 12 - 4","city":"Zaļenieki","zip":"LV-3011"},"muižas ceļš 10 - 1":{"address":"Muižas ceļš 10 - 1","city":"Zaļenieki","zip":"LV-3011"},"muižas ceļš 10 - 4":{"address":"Muižas ceļš 10 - 4","city":"Zaļenieki","zip":"LV-3011"},"muižas ceļš 10 - 3":{"address":"Muižas ceļš 10 - 3","city":"Zaļenieki","zip":"LV-3011"},"muižas ceļš 10 - 2":{"address":"Muižas ceļš 10 - 2","city":"Zaļenieki","zip":"LV-3011"},"muižas ceļš 8 - 1":{"address":"Muižas ceļš 8 - 1","city":"Zaļenieki","zip":"LV-3011"},"muižas ceļš 8 - 2":{"address":"Muižas ceļš 8 - 2","city":"Zaļenieki","zip":"LV-3011"},"muižas ceļš 8 - 3":{"address":"Muižas ceļš 8 - 3","city":"Zaļenieki","zip":"LV-3011"},"muižas ceļš 8 - 4":{"address":"Muižas ceļš 8 - 4","city":"Zaļenieki","zip":"LV-3011"},"muižas ceļš 4 - 1":{"address":"Muižas ceļš 4 - 1","city":"Zaļenieki","zip":"LV-3011"},"muižas ceļš 4 - 3":{"address":"Muižas ceļš 4 - 3","city":"Zaļenieki","zip":"LV-3011"},"muižas ceļš 4 - 4":{"address":"Muižas ceļš 4 - 4","city":"Zaļenieki","zip":"LV-3011"},"muižas ceļš 4 - 7":{"address":"Muižas ceļš 4 - 7","city":"Zaļenieki","zip":"LV-3011"},"muižas ceļš 4 - 6":{"address":"Muižas ceļš 4 - 6","city":"Zaļenieki","zip":"LV-3011"},"muižas ceļš 4 - 13":{"address":"Muižas ceļš 4 - 13","city":"Zaļenieki","zip":"LV-3011"},"muižas ceļš 4 - 8":{"address":"Muižas ceļš 4 - 8","city":"Zaļenieki","zip":"LV-3011"},"muižas ceļš 4 - 2":{"address":"Muižas ceļš 4 - 2","city":"Zaļenieki","zip":"LV-3011"},"muižas ceļš 4 - 10":{"address":"Muižas ceļš 4 - 10","city":"Zaļenieki","zip":"LV-3011"},"muižas ceļš 4 - 11":{"address":"Muižas ceļš 4 - 11","city":"Zaļenieki","zip":"LV-3011"},"muižas ceļš 4 - 9":{"address":"Muižas ceļš 4 - 9","city":"Zaļenieki","zip":"LV-3011"},"muižas ceļš 4 - 12":{"address":"Muižas ceļš 4 - 12","city":"Zaļenieki","zip":"LV-3011"},"muižas ceļš 4 - 5":{"address":"Muižas ceļš 4 - 5","city":"Zaļenieki","zip":"LV-3011"},"muižas ceļš 6 - 1":{"address":"Muižas ceļš 6 - 1","city":"Zaļenieki","zip":"LV-3011"},"muižas ceļš 6 - 2":{"address":"Muižas ceļš 6 - 2","city":"Zaļenieki","zip":"LV-3011"},"muižas ceļš 6 - 3":{"address":"Muižas ceļš 6 - 3","city":"Zaļenieki","zip":"LV-3011"},"muižas ceļš 6 - 4":{"address":"Muižas ceļš 6 - 4","city":"Zaļenieki","zip":"LV-3011"},"muižas ceļš 14 - 1":{"address":"Muižas ceļš 14 - 1","city":"Zaļenieki","zip":"LV-3011"},"muižas ceļš 14 - 2":{"address":"Muižas ceļš 14 - 2","city":"Zaļenieki","zip":"LV-3011"},"muižas ceļš 14 - 3":{"address":"Muižas ceļš 14 - 3","city":"Zaļenieki","zip":"LV-3011"},"muižas ceļš 14 - 4":{"address":"Muižas ceļš 14 - 4","city":"Zaļenieki","zip":"LV-3011"},"muižas iela 12 - 1n":{"address":"Muižas iela 12 - 1N","city":"Ādaži","zip":"LV-2164"}}