{"muižas māja - 1":{"address":"Muižas māja - 1","city":"Centramuiža","zip":"LV-4501"},"muižas māja - 2":{"address":"Muižas māja - 2","city":"Centramuiža","zip":"LV-4501"},"muiža - 1":{"address":"Muiža - 1","city":"Liepna","zip":"LV-4354"},"muiža - 2":{"address":"Muiža - 2","city":"Liepna","zip":"LV-4354"},"muiža - 3":{"address":"Muiža - 3","city":"Liepna","zip":"LV-4354"},"muiža - 4":{"address":"Muiža - 4","city":"Liepna","zip":"LV-4354"},"muiža - 5":{"address":"Muiža - 5","city":"Liepna","zip":"LV-4354"},"muiža - 6":{"address":"Muiža - 6","city":"Liepna","zip":"LV-4354"},"muiža - 7":{"address":"Muiža - 7","city":"Liepna","zip":"LV-4354"},"muiža - 8":{"address":"Muiža - 8","city":"Liepna","zip":"LV-4354"},"naukšēnu muiža - 1":{"address":"Naukšēnu muiža - 1","city":"Naukšēni","zip":"LV-4244"},"naukšēnu muiža - 2":{"address":"Naukšēnu muiža - 2","city":"Naukšēni","zip":"LV-4244"},"naukšēnu muiža - 3":{"address":"Naukšēnu muiža - 3","city":"Naukšēni","zip":"LV-4244"},"naukšēnu muiža - 4":{"address":"Naukšēnu muiža - 4","city":"Naukšēni","zip":"LV-4244"},"drabešu muiža - 1":{"address":"Drabešu muiža - 1","city":"Drabeši","zip":"LV-4101"},"drabešu muiža - 2":{"address":"Drabešu muiža - 2","city":"Drabeši","zip":"LV-4101"},"drabešu muiža - 3":{"address":"Drabešu muiža - 3","city":"Drabeši","zip":"LV-4101"},"drabešu muiža - 4":{"address":"Drabešu muiža - 4","city":"Drabeši","zip":"LV-4101"},"drabešu muiža - 5":{"address":"Drabešu muiža - 5","city":"Drabeši","zip":"LV-4101"},"drabešu muiža - 6":{"address":"Drabešu muiža - 6","city":"Drabeši","zip":"LV-4101"},"drabešu muiža - 7":{"address":"Drabešu muiža - 7","city":"Drabeši","zip":"LV-4101"},"drabešu muiža - 8":{"address":"Drabešu muiža - 8","city":"Drabeši","zip":"LV-4101"},"drabešu muiža - 9":{"address":"Drabešu muiža - 9","city":"Drabeši","zip":"LV-4101"},"ieriķu muiža - 3":{"address":"Ieriķu muiža - 3","city":"Ieriķi","zip":"LV-4139"},"ieriķu muiža - 2":{"address":"Ieriķu muiža - 2","city":"Ieriķi","zip":"LV-4139"},"ieriķu muiža - 1":{"address":"Ieriķu muiža - 1","city":"Ieriķi","zip":"LV-4139"},"muižas iela 5 - 1":{"address":"Muižas iela 5 - 1","city":"Liepupe","zip":"LV-4023"},"muižas iela 5 - 2":{"address":"Muižas iela 5 - 2","city":"Liepupe","zip":"LV-4023"},"muižas iela 5 - 3":{"address":"Muižas iela 5 - 3","city":"Liepupe","zip":"LV-4023"},"muižas iela 5 - 4":{"address":"Muižas iela 5 - 4","city":"Liepupe","zip":"LV-4023"},"mazgaiļi - 1":{"address":"Mazgaiļi - 1","city":"Skultes muiža","zip":"LV-4025"},"mazgaiļi - 2":{"address":"Mazgaiļi - 2","city":"Skultes muiža","zip":"LV-4025"},"mazgaiļi - 3":{"address":"Mazgaiļi - 3","city":"Skultes muiža","zip":"LV-4025"},"mazgaiļi - 4":{"address":"Mazgaiļi - 4","city":"Skultes muiža","zip":"LV-4025"},"mazgaiļi - 5":{"address":"Mazgaiļi - 5","city":"Skultes muiža","zip":"LV-4025"},"gaiļi - 1":{"address":"Gaiļi - 1","city":"Skultes muiža","zip":"LV-4025"},"gaiļi - 2":{"address":"Gaiļi - 2","city":"Skultes muiža","zip":"LV-4025"},"līgotņi - 1":{"address":"Līgotņi - 1","city":"Skultes muiža","zip":"LV-4025"},"līgotņi - 2":{"address":"Līgotņi - 2","city":"Skultes muiža","zip":"LV-4025"},"līgotņi - 3":{"address":"Līgotņi - 3","city":"Skultes muiža","zip":"LV-4025"},"līgotņi - 4":{"address":"Līgotņi - 4","city":"Skultes muiža","zip":"LV-4025"},"mālkalni - 1":{"address":"Mālkalni - 1","city":"Skultes muiža","zip":"LV-4025"},"mālkalni - 2":{"address":"Mālkalni - 2","city":"Skultes muiža","zip":"LV-4025"},"mālkalni - 3":{"address":"Mālkalni - 3","city":"Skultes muiža","zip":"LV-4025"},"mālkalni - 4":{"address":"Mālkalni - 4","city":"Skultes muiža","zip":"LV-4025"},"muižas iela 18 - 1":{"address":"Muižas iela 18 - 1","city":"Liepupe","zip":"LV-4023"},"muižas iela 18 - 2":{"address":"Muižas iela 18 - 2","city":"Liepupe","zip":"LV-4023"},"muižas iela 5 - 5":{"address":"Muižas iela 5 - 5","city":"Liepupe","zip":"LV-4023"},"muižas iela 12 - 1":{"address":"Muižas iela 12 - 1","city":"Liepupe","zip":"LV-4023"},"muižas iela 12 - 2":{"address":"Muižas iela 12 - 2","city":"Liepupe","zip":"LV-4023"},"muižas iela 12 - 3":{"address":"Muižas iela 12 - 3","city":"Liepupe","zip":"LV-4023"},"muižas iela 12 - 4":{"address":"Muižas iela 12 - 4","city":"Liepupe","zip":"LV-4023"},"muižas iela 12 - 5":{"address":"Muižas iela 12 - 5","city":"Liepupe","zip":"LV-4023"},"muižas iela 12 - 6":{"address":"Muižas iela 12 - 6","city":"Liepupe","zip":"LV-4023"},"muižas iela 12 - 7":{"address":"Muižas iela 12 - 7","city":"Liepupe","zip":"LV-4023"},"muižas iela 12 - 8":{"address":"Muižas iela 12 - 8","city":"Liepupe","zip":"LV-4023"},"muižas iela 12 - 9":{"address":"Muižas iela 12 - 9","city":"Liepupe","zip":"LV-4023"}}