{"liepiņu mājas - 1":{"address":"Liepiņu mājas - 1","city":"Lielie Dreizi","zip":"LV-4641"},"liepiņu mājas - 2":{"address":"Liepiņu mājas - 2","city":"Lielie Dreizi","zip":"LV-4641"},"liepiņu mājas - 3":{"address":"Liepiņu mājas - 3","city":"Lielie Dreizi","zip":"LV-4641"},"andrejevu mājas - 1":{"address":"Andrejevu mājas - 1","city":"Silinīki","zip":"LV-4611"},"andrejevu mājas - 2":{"address":"Andrejevu mājas - 2","city":"Silinīki","zip":"LV-4611"},"ivdra mājas - 1":{"address":"Ivdra mājas - 1","city":"Greivuļi","zip":"LV-4611"},"ivdra mājas - 2":{"address":"Ivdra mājas - 2","city":"Greivuļi","zip":"LV-4611"},"kalnu mājas - 1":{"address":"Kalnu mājas - 1","city":"Ritiņi","zip":"LV-4601"},"kalnu mājas - 2":{"address":"Kalnu mājas - 2","city":"Ritiņi","zip":"LV-4601"},"cīruļu mājas - 1":{"address":"Cīruļu mājas - 1","city":"Pleikšņi","zip":"LV-4601"},"cīruļu mājas - 2":{"address":"Cīruļu mājas - 2","city":"Pleikšņi","zip":"LV-4601"},"laipiņu mājas - 1":{"address":"Laipiņu mājas - 1","city":"Beļauski","zip":"LV-4576"},"laipiņu mājas - 2":{"address":"Laipiņu mājas - 2","city":"Beļauski","zip":"LV-4576"},"ceriņu mājas - 1":{"address":"Ceriņu mājas - 1","city":"Tutinava","zip":"LV-4501"},"ceriņu mājas - 2":{"address":"Ceriņu mājas - 2","city":"Tutinava","zip":"LV-4501"},"ceriņu mājas - 3":{"address":"Ceriņu mājas - 3","city":"Tutinava","zip":"LV-4501"},"ceriņu mājas - 4":{"address":"Ceriņu mājas - 4","city":"Tutinava","zip":"LV-4501"},"pakalniešu mājas - 1":{"address":"Pakalniešu mājas - 1","city":"Pērkoni","zip":"LV-4501"},"pakalniešu mājas - 2":{"address":"Pakalniešu mājas - 2","city":"Pērkoni","zip":"LV-4501"},"pakalniešu mājas - 3":{"address":"Pakalniešu mājas - 3","city":"Pērkoni","zip":"LV-4501"},"pakalniešu mājas - 4":{"address":"Pakalniešu mājas - 4","city":"Pērkoni","zip":"LV-4501"},"pakalniešu mājas - 5":{"address":"Pakalniešu mājas - 5","city":"Pērkoni","zip":"LV-4501"},"otrās paegļu mājas - 1":{"address":"Otrās Paegļu mājas - 1","city":"Drēņi","zip":"LV-5316"},"otrās paegļu mājas - 2":{"address":"Otrās Paegļu mājas - 2","city":"Drēņi","zip":"LV-5316"},"neretas mājas - 1":{"address":"Neretas mājas - 1","city":"Turki","zip":"LV-5312"},"neretas mājas - 2":{"address":"Neretas mājas - 2","city":"Turki","zip":"LV-5312"},"neretas mājas - 3":{"address":"Neretas mājas - 3","city":"Turki","zip":"LV-5312"},"neretas mājas - 4":{"address":"Neretas mājas - 4","city":"Turki","zip":"LV-5312"},"neretas mājas - 5":{"address":"Neretas mājas - 5","city":"Turki","zip":"LV-5312"},"neretas mājas - 6":{"address":"Neretas mājas - 6","city":"Turki","zip":"LV-5312"},"neretas mājas - 7":{"address":"Neretas mājas - 7","city":"Turki","zip":"LV-5312"},"neretas mājas - 8":{"address":"Neretas mājas - 8","city":"Turki","zip":"LV-5312"},"lipušku mājas - 1":{"address":"Lipušku mājas - 1","city":"Lipuški","zip":"LV-5334"},"lipušku mājas - 2":{"address":"Lipušku mājas - 2","city":"Lipuški","zip":"LV-5334"},"lipušku mājas - 3":{"address":"Lipušku mājas - 3","city":"Lipuški","zip":"LV-5334"},"lipušku mājas - 4":{"address":"Lipušku mājas - 4","city":"Lipuški","zip":"LV-5334"},"lipušku mājas - 5":{"address":"Lipušku mājas - 5","city":"Lipuški","zip":"LV-5334"},"lipušku mājas - 6":{"address":"Lipušku mājas - 6","city":"Lipuški","zip":"LV-5334"},"lipušku mājas - 7":{"address":"Lipušku mājas - 7","city":"Lipuški","zip":"LV-5334"},"lipušku mājas - 8":{"address":"Lipušku mājas - 8","city":"Lipuški","zip":"LV-5334"},"dzīvojamās mājas 510":{"address":"Dzīvojamās mājas 510","city":"1. km - 3","zip":"LV-5481"},"rauniešu mājas - 1":{"address":"Rauniešu mājas - 1","city":"Raunieši","zip":"LV-5334"},"rauniešu mājas - 2":{"address":"Rauniešu mājas - 2","city":"Raunieši","zip":"LV-5334"},"rauniešu mājas - 3":{"address":"Rauniešu mājas - 3","city":"Raunieši","zip":"LV-5334"},"rauniešu mājas - 4":{"address":"Rauniešu mājas - 4","city":"Raunieši","zip":"LV-5334"},"rauniešu mājas - 5":{"address":"Rauniešu mājas - 5","city":"Raunieši","zip":"LV-5334"},"rauniešu mājas - 6":{"address":"Rauniešu mājas - 6","city":"Raunieši","zip":"LV-5334"},"rauniešu mājas - 7":{"address":"Rauniešu mājas - 7","city":"Raunieši","zip":"LV-5334"},"rauniešu mājas - 8":{"address":"Rauniešu mājas - 8","city":"Raunieši","zip":"LV-5334"},"baltās mājas - 1":{"address":"Baltās mājas - 1","city":"Mihalki","zip":"LV-4648"},"baltās mājas - 2":{"address":"Baltās mājas - 2","city":"Mihalki","zip":"LV-4648"},"antonišķu mājas - 1":{"address":"Antonišķu mājas - 1","city":"Antonišķi","zip":"LV-5329"},"antonišķu mājas - 2":{"address":"Antonišķu mājas - 2","city":"Antonišķi","zip":"LV-5329"},"antonišķu mājas - 3":{"address":"Antonišķu mājas - 3","city":"Antonišķi","zip":"LV-5329"},"antonišķu mājas - 4":{"address":"Antonišķu mājas - 4","city":"Antonišķi","zip":"LV-5329"},"antonišķu mājas - 5":{"address":"Antonišķu mājas - 5","city":"Antonišķi","zip":"LV-5329"},"antonišķu mājas - 6":{"address":"Antonišķu mājas - 6","city":"Antonišķi","zip":"LV-5329"},"apšu mājas - 1":{"address":"Apšu mājas - 1","city":"Rimši","zip":"LV-5456"},"apšu mājas - 2":{"address":"Apšu mājas - 2","city":"Rimši","zip":"LV-5456"},"kozlovu mājas - 1":{"address":"Kozlovu mājas - 1","city":"Greiškāni","zip":"LV-4641"},"kozlovu mājas - 2":{"address":"Kozlovu mājas - 2","city":"Greiškāni","zip":"LV-4641"},"skolotāju mājas - 1":{"address":"Skolotāju mājas - 1","city":"Lauderi","zip":"LV-5722"},"skolotāju mājas - 2":{"address":"Skolotāju mājas - 2","city":"Lauderi","zip":"LV-5722"},"skolotāju mājas - 3":{"address":"Skolotāju mājas - 3","city":"Lauderi","zip":"LV-5722"},"skolotāju mājas - 4":{"address":"Skolotāju mājas - 4","city":"Lauderi","zip":"LV-5722"},"skolotāju mājas - 5":{"address":"Skolotāju mājas - 5","city":"Lauderi","zip":"LV-5722"},"skolotāju mājas - 6":{"address":"Skolotāju mājas - 6","city":"Lauderi","zip":"LV-5722"},"skolotāju mājas - 7":{"address":"Skolotāju mājas - 7","city":"Lauderi","zip":"LV-5722"},"skolotāju mājas - 8":{"address":"Skolotāju mājas - 8","city":"Lauderi","zip":"LV-5722"},"skolotāju mājas - 9":{"address":"Skolotāju mājas - 9","city":"Lauderi","zip":"LV-5722"},"skolotāju mājas - 10":{"address":"Skolotāju mājas - 10","city":"Lauderi","zip":"LV-5722"},"skolotāju mājas - 11":{"address":"Skolotāju mājas - 11","city":"Lauderi","zip":"LV-5722"},"skolotāju mājas - 12":{"address":"Skolotāju mājas - 12","city":"Lauderi","zip":"LV-5722"}}