{"liepiņu mājas - 1":{"address":"Liepiņu mājas - 1","city":"Lielie Dreizi","zip":"LV-4641"},"liepiņu mājas - 2":{"address":"Liepiņu mājas - 2","city":"Lielie Dreizi","zip":"LV-4641"},"liepiņu mājas - 3":{"address":"Liepiņu mājas - 3","city":"Lielie Dreizi","zip":"LV-4641"},"skolas māja - 5":{"address":"Skolas māja - 5","city":"Akmeņrūči","zip":"LV-4572"},"skolas māja - 1":{"address":"Skolas māja - 1","city":"Akmeņrūči","zip":"LV-4572"},"skolas māja - 2":{"address":"Skolas māja - 2","city":"Akmeņrūči","zip":"LV-4572"},"skolas māja - 3":{"address":"Skolas māja - 3","city":"Akmeņrūči","zip":"LV-4572"},"skolas māja - 4":{"address":"Skolas māja - 4","city":"Akmeņrūči","zip":"LV-4572"},"ertas māja - 3":{"address":"Ertas māja - 3","city":"Seksti","zip":"LV-4623"},"ertas māja - 1":{"address":"Ertas māja - 1","city":"Seksti","zip":"LV-4623"},"ertas māja - 2":{"address":"Ertas māja - 2","city":"Seksti","zip":"LV-4623"},"ertas māja - 4":{"address":"Ertas māja - 4","city":"Seksti","zip":"LV-4623"},"stacijas māja - 1":{"address":"Stacijas māja - 1","city":"Pudinava","zip":"LV-4618"},"stacijas māja - 2":{"address":"Stacijas māja - 2","city":"Pudinava","zip":"LV-4618"},"stacijas māja - 3":{"address":"Stacijas māja - 3","city":"Pudinava","zip":"LV-4618"},"jaunā māja 2 - 1":{"address":"Jaunā māja 2 - 1","city":"Dricāni","zip":"LV-4615"},"jaunā māja 2 - 2":{"address":"Jaunā māja 2 - 2","city":"Dricāni","zip":"LV-4615"},"jaunā māja 2 - 3":{"address":"Jaunā māja 2 - 3","city":"Dricāni","zip":"LV-4615"},"jaunā māja 2 - 4":{"address":"Jaunā māja 2 - 4","city":"Dricāni","zip":"LV-4615"},"jaunā māja 2 - 5":{"address":"Jaunā māja 2 - 5","city":"Dricāni","zip":"LV-4615"},"jaunā māja 2 - 6":{"address":"Jaunā māja 2 - 6","city":"Dricāni","zip":"LV-4615"},"jaunā māja 2 - 7":{"address":"Jaunā māja 2 - 7","city":"Dricāni","zip":"LV-4615"},"jaunā māja 2 - 8":{"address":"Jaunā māja 2 - 8","city":"Dricāni","zip":"LV-4615"},"jaunā māja 2 - 9":{"address":"Jaunā māja 2 - 9","city":"Dricāni","zip":"LV-4615"},"jaunā māja 2 - 10":{"address":"Jaunā māja 2 - 10","city":"Dricāni","zip":"LV-4615"},"jaunā māja 2 - 11":{"address":"Jaunā māja 2 - 11","city":"Dricāni","zip":"LV-4615"},"jaunā māja 2 - 12":{"address":"Jaunā māja 2 - 12","city":"Dricāni","zip":"LV-4615"},"jaunā māja 1 - 1":{"address":"Jaunā māja 1 - 1","city":"Dricāni","zip":"LV-4615"},"jaunā māja 1 - 2":{"address":"Jaunā māja 1 - 2","city":"Dricāni","zip":"LV-4615"},"jaunā māja 1 - 3":{"address":"Jaunā māja 1 - 3","city":"Dricāni","zip":"LV-4615"},"jaunā māja 1 - 4":{"address":"Jaunā māja 1 - 4","city":"Dricāni","zip":"LV-4615"},"jaunā māja 1 - 5":{"address":"Jaunā māja 1 - 5","city":"Dricāni","zip":"LV-4615"},"jaunā māja 1 - 6":{"address":"Jaunā māja 1 - 6","city":"Dricāni","zip":"LV-4615"},"jaunā māja 1 - 7":{"address":"Jaunā māja 1 - 7","city":"Dricāni","zip":"LV-4615"},"jaunā māja 1 - 8":{"address":"Jaunā māja 1 - 8","city":"Dricāni","zip":"LV-4615"},"jaunā māja 1 - 9":{"address":"Jaunā māja 1 - 9","city":"Dricāni","zip":"LV-4615"},"jaunā māja 1 - 10":{"address":"Jaunā māja 1 - 10","city":"Dricāni","zip":"LV-4615"},"jaunā māja 1 - 11":{"address":"Jaunā māja 1 - 11","city":"Dricāni","zip":"LV-4615"},"jaunā māja 1 - 12":{"address":"Jaunā māja 1 - 12","city":"Dricāni","zip":"LV-4615"},"andrejevu mājas - 1":{"address":"Andrejevu mājas - 1","city":"Silinīki","zip":"LV-4611"},"andrejevu mājas - 2":{"address":"Andrejevu mājas - 2","city":"Silinīki","zip":"LV-4611"},"ivdra mājas - 1":{"address":"Ivdra mājas - 1","city":"Greivuļi","zip":"LV-4611"},"ivdra mājas - 2":{"address":"Ivdra mājas - 2","city":"Greivuļi","zip":"LV-4611"},"kalnu mājas - 1":{"address":"Kalnu mājas - 1","city":"Ritiņi","zip":"LV-4601"},"kalnu mājas - 2":{"address":"Kalnu mājas - 2","city":"Ritiņi","zip":"LV-4601"},"cīruļu mājas - 1":{"address":"Cīruļu mājas - 1","city":"Pleikšņi","zip":"LV-4601"},"cīruļu mājas - 2":{"address":"Cīruļu mājas - 2","city":"Pleikšņi","zip":"LV-4601"},"ziedu māja - 1":{"address":"Ziedu māja - 1","city":"Borisova","zip":"LV-4585"},"ziedu māja - 2":{"address":"Ziedu māja - 2","city":"Borisova","zip":"LV-4585"},"ziedu māja - 3":{"address":"Ziedu māja - 3","city":"Borisova","zip":"LV-4585"},"ziedu māja - 4":{"address":"Ziedu māja - 4","city":"Borisova","zip":"LV-4585"},"ziedu māja - 5":{"address":"Ziedu māja - 5","city":"Borisova","zip":"LV-4585"},"ziedu māja - 6":{"address":"Ziedu māja - 6","city":"Borisova","zip":"LV-4585"},"ziedu māja - 7":{"address":"Ziedu māja - 7","city":"Borisova","zip":"LV-4585"},"ziedu māja - 8":{"address":"Ziedu māja - 8","city":"Borisova","zip":"LV-4585"},"baltā māja - 1":{"address":"Baltā māja - 1","city":"Tereškova","zip":"LV-4583"},"baltā māja - 2":{"address":"Baltā māja - 2","city":"Tereškova","zip":"LV-4583"},"baltā māja - 3":{"address":"Baltā māja - 3","city":"Tereškova","zip":"LV-4583"},"baltā māja - 4":{"address":"Baltā māja - 4","city":"Tereškova","zip":"LV-4583"},"laipiņu mājas - 1":{"address":"Laipiņu mājas - 1","city":"Beļauski","zip":"LV-4576"},"laipiņu mājas - 2":{"address":"Laipiņu mājas - 2","city":"Beļauski","zip":"LV-4576"},"skolas māja - 6":{"address":"Skolas māja - 6","city":"Akmeņrūči","zip":"LV-4572"},"skolas māja - 7":{"address":"Skolas māja - 7","city":"Akmeņrūči","zip":"LV-4572"},"pasta māja - 5":{"address":"Pasta māja - 5","city":"Vectilža","zip":"LV-4571"},"pasta māja - 6":{"address":"Pasta māja - 6","city":"Vectilža","zip":"LV-4571"},"pasta māja - 7":{"address":"Pasta māja - 7","city":"Vectilža","zip":"LV-4571"},"pasta māja - 11":{"address":"Pasta māja - 11","city":"Vectilža","zip":"LV-4571"},"pasta māja - 3":{"address":"Pasta māja - 3","city":"Vectilža","zip":"LV-4571"},"pasta māja - 1":{"address":"Pasta māja - 1","city":"Vectilža","zip":"LV-4571"},"pasta māja - 2":{"address":"Pasta māja - 2","city":"Vectilža","zip":"LV-4571"},"pasta māja - 4":{"address":"Pasta māja - 4","city":"Vectilža","zip":"LV-4571"},"pasta māja - 8":{"address":"Pasta māja - 8","city":"Vectilža","zip":"LV-4571"},"pasta māja - 9":{"address":"Pasta māja - 9","city":"Vectilža","zip":"LV-4571"},"pasta māja - 10":{"address":"Pasta māja - 10","city":"Vectilža","zip":"LV-4571"},"pasta māja - 12":{"address":"Pasta māja - 12","city":"Vectilža","zip":"LV-4571"},"jaunā māja - 5":{"address":"Jaunā māja - 5","city":"Vectilža","zip":"LV-4571"},"jaunā māja - 6":{"address":"Jaunā māja - 6","city":"Vectilža","zip":"LV-4571"},"jaunā māja - 7":{"address":"Jaunā māja - 7","city":"Vectilža","zip":"LV-4571"},"jaunā māja - 9":{"address":"Jaunā māja - 9","city":"Vectilža","zip":"LV-4571"},"jaunā māja - 12":{"address":"Jaunā māja - 12","city":"Vectilža","zip":"LV-4571"},"jaunā māja - 13":{"address":"Jaunā māja - 13","city":"Vectilža","zip":"LV-4571"},"jaunā māja - 11":{"address":"Jaunā māja - 11","city":"Vectilža","zip":"LV-4571"},"jaunā māja - 1":{"address":"Jaunā māja - 1","city":"Vectilža","zip":"LV-4571"},"jaunā māja - 2":{"address":"Jaunā māja - 2","city":"Vectilža","zip":"LV-4571"},"jaunā māja - 3":{"address":"Jaunā māja - 3","city":"Vectilža","zip":"LV-4571"},"jaunā māja - 4":{"address":"Jaunā māja - 4","city":"Vectilža","zip":"LV-4571"},"jaunā māja - 8":{"address":"Jaunā māja - 8","city":"Vectilža","zip":"LV-4571"},"jaunā māja - 10":{"address":"Jaunā māja - 10","city":"Vectilža","zip":"LV-4571"},"jaunā māja - 14":{"address":"Jaunā māja - 14","city":"Vectilža","zip":"LV-4571"},"jaunā māja - 15":{"address":"Jaunā māja - 15","city":"Vectilža","zip":"LV-4571"},"jaunā māja - 16":{"address":"Jaunā māja - 16","city":"Vectilža","zip":"LV-4571"},"jaunā māja - 17":{"address":"Jaunā māja - 17","city":"Vectilža","zip":"LV-4571"},"jaunā māja - 18":{"address":"Jaunā māja - 18","city":"Vectilža","zip":"LV-4571"},"sāvānu māja - 1":{"address":"Sāvānu māja - 1","city":"Sāvāni","zip":"LV-4571"},"sāvānu māja - 2":{"address":"Sāvānu māja - 2","city":"Sāvāni","zip":"LV-4571"}}