{"mālnieki - 1":{"address":"Mālnieki - 1","city":"Valgale","zip":"LV-3294"},"mālnieki - 2":{"address":"Mālnieki - 2","city":"Valgale","zip":"LV-3294"},"mālnieki - 3":{"address":"Mālnieki - 3","city":"Valgale","zip":"LV-3294"},"mālnieki - 4":{"address":"Mālnieki - 4","city":"Valgale","zip":"LV-3294"},"mālnieki - 5":{"address":"Mālnieki - 5","city":"Valgale","zip":"LV-3294"},"mālnieki - 6":{"address":"Mālnieki - 6","city":"Valgale","zip":"LV-3294"},"mālnieki - 7":{"address":"Mālnieki - 7","city":"Valgale","zip":"LV-3294"},"mālnieki - 8":{"address":"Mālnieki - 8","city":"Valgale","zip":"LV-3294"},"mālnieki - 9":{"address":"Mālnieki - 9","city":"Pilskalns","zip":"LV-4409"},"mālnieki - 10":{"address":"Mālnieki - 10","city":"Pilskalns","zip":"LV-4409"},"mālnieki - 11":{"address":"Mālnieki - 11","city":"Pilskalns","zip":"LV-4409"},"mālnieki - 12":{"address":"Mālnieki - 12","city":"Pilskalns","zip":"LV-4409"},"mālnieki":{"address":"Mālnieki","city":"Mālnieki","zip":"LV-4614"},"pirmie alksnīši":{"address":"Pirmie Alksnīši","city":"Mālnieki","zip":"LV-5327"},"cielavas":{"address":"Cielavas","city":"Mālnieki","zip":"LV-5327"},"vaivariņi":{"address":"Vaivariņi","city":"Mālnieki","zip":"LV-5327"},"sārtumi":{"address":"Sārtumi","city":"Mālnieki","zip":"LV-4614"},"miķelīši":{"address":"Miķelīši","city":"Mālnieki","zip":"LV-4614"},"alksnīši":{"address":"Alksnīši","city":"Mālnieki","zip":"LV-5327"},"veiguri":{"address":"Veiguri","city":"Mālnieki","zip":"LV-5327"},"akācijas":{"address":"Akācijas","city":"Mālnieki","zip":"LV-5327"},"kraukļi":{"address":"Kraukļi","city":"Mālnieki","zip":"LV-5327"},"liepnieki":{"address":"Liepnieki","city":"Mālnieki","zip":"LV-5327"},"puplakši":{"address":"Puplakši","city":"Mālnieki","zip":"LV-4614"},"puriņi":{"address":"Puriņi","city":"Mālnieki","zip":"LV-4614"},"samiņi":{"address":"Samiņi","city":"Mālnieki","zip":"LV-4614"},"santa":{"address":"Santa","city":"Mālnieki","zip":"LV-4614"},"bērzu aleja":{"address":"Bērzu aleja","city":"Mālnieki","zip":"LV-4614"},"bites":{"address":"Bites","city":"Mālnieki","zip":"LV-4614"},"ceriņi":{"address":"Ceriņi","city":"Mālnieki","zip":"LV-4614"},"gatiņi":{"address":"Gatiņi","city":"Mālnieki","zip":"LV-4614"},"jāņu sēta":{"address":"Jāņu sēta","city":"Mālnieki","zip":"LV-4614"},"kaupers":{"address":"Kaupers","city":"Mālnieki","zip":"LV-4614"},"lucāni":{"address":"Lucāni","city":"Mālnieki","zip":"LV-4614"}}