{"upes mala":{"address":"Upes mala","city":"Saksmale","zip":"LV-4576"},"mālakalni":{"address":"Mālakalni","city":"Vecpils","zip":"LV-4576"},"elkšņu mala":{"address":"Elkšņu mala","city":"Apšenieki","zip":"LV-4576"},"alkšņu malas":{"address":"Alkšņu malas","city":"Robežnieki","zip":"LV-4566"},"mālaines":{"address":"Mālaines","city":"Reči","zip":"LV-4561"},"malas":{"address":"Malas","city":"Vētras","zip":"LV-2167"},"māla iela 17":{"address":"Māla iela 17","city":"Sunīši","zip":"LV-2137"},"māla iela 18":{"address":"Māla iela 18","city":"Sunīši","zip":"LV-2137"},"māla iela 20":{"address":"Māla iela 20","city":"Sunīši","zip":"LV-2137"},"māla iela 22":{"address":"Māla iela 22","city":"Sunīši","zip":"LV-2137"},"māla iela 24":{"address":"Māla iela 24","city":"Sunīši","zip":"LV-2137"},"māla iela 26":{"address":"Māla iela 26","city":"Sunīši","zip":"LV-2137"},"māla iela 11":{"address":"Māla iela 11","city":"Sunīši","zip":"LV-2137"},"māla iela 12":{"address":"Māla iela 12","city":"Sunīši","zip":"LV-2137"},"māla iela 13":{"address":"Māla iela 13","city":"Sunīši","zip":"LV-2137"},"māla iela 14":{"address":"Māla iela 14","city":"Sunīši","zip":"LV-2137"},"māla iela 15":{"address":"Māla iela 15","city":"Sunīši","zip":"LV-2137"},"māla iela 16":{"address":"Māla iela 16","city":"Sunīši","zip":"LV-2137"},"māla iela 1":{"address":"Māla iela 1","city":"Sunīši","zip":"LV-2137"},"māla iela 3":{"address":"Māla iela 3","city":"Sunīši","zip":"LV-2137"},"māla iela 4":{"address":"Māla iela 4","city":"Sunīši","zip":"LV-2137"},"māla iela 5":{"address":"Māla iela 5","city":"Sunīši","zip":"LV-2137"},"māla iela 5a":{"address":"Māla iela 5A","city":"Sunīši","zip":"LV-2137"},"māla iela 6":{"address":"Māla iela 6","city":"Sunīši","zip":"LV-2137"},"māla iela 7":{"address":"Māla iela 7","city":"Sunīši","zip":"LV-2137"},"māla iela 7a":{"address":"Māla iela 7A","city":"Sunīši","zip":"LV-2137"},"māla iela 8":{"address":"Māla iela 8","city":"Sunīši","zip":"LV-2137"},"māla iela 9":{"address":"Māla iela 9","city":"Sunīši","zip":"LV-2137"},"māla iela 10":{"address":"Māla iela 10","city":"Sunīši","zip":"LV-2137"},"malas iela 2":{"address":"Malas iela 2","city":"Saurieši","zip":"LV-2118"},"malas iela 4":{"address":"Malas iela 4","city":"Saurieši","zip":"LV-2118"},"salas mala":{"address":"Salas mala","city":"Gātciems","zip":"LV-2105"},"priežu malas iela 1":{"address":"Priežu malas iela 1","city":"Spuņciems","zip":"LV-2105"},"priežu malas iela 2":{"address":"Priežu malas iela 2","city":"Spuņciems","zip":"LV-2105"},"priežu malas iela 3":{"address":"Priežu malas iela 3","city":"Spuņciems","zip":"LV-2105"},"priežu malas iela 4":{"address":"Priežu malas iela 4","city":"Spuņciems","zip":"LV-2105"},"priežu malas iela 5":{"address":"Priežu malas iela 5","city":"Spuņciems","zip":"LV-2105"},"priežu malas iela 6":{"address":"Priežu malas iela 6","city":"Spuņciems","zip":"LV-2105"},"priežu malas iela 7":{"address":"Priežu malas iela 7","city":"Spuņciems","zip":"LV-2105"},"priežu malas iela 8":{"address":"Priežu malas iela 8","city":"Spuņciems","zip":"LV-2105"},"priežu malas iela 9":{"address":"Priežu malas iela 9","city":"Spuņciems","zip":"LV-2105"},"priežu malas iela 10":{"address":"Priežu malas iela 10","city":"Spuņciems","zip":"LV-2105"},"priežu malas iela 11":{"address":"Priežu malas iela 11","city":"Spuņciems","zip":"LV-2105"},"priežu malas iela 12":{"address":"Priežu malas iela 12","city":"Spuņciems","zip":"LV-2105"},"priežu malas iela 13":{"address":"Priežu malas iela 13","city":"Spuņciems","zip":"LV-2105"},"priežu malas iela 14":{"address":"Priežu malas iela 14","city":"Spuņciems","zip":"LV-2105"},"priežu malas iela 15":{"address":"Priežu malas iela 15","city":"Spuņciems","zip":"LV-2105"},"priežu malas iela 17":{"address":"Priežu malas iela 17","city":"Spuņciems","zip":"LV-2105"},"priežu malas iela 18":{"address":"Priežu malas iela 18","city":"Spuņciems","zip":"LV-2105"},"sēņu mala":{"address":"Sēņu mala","city":"Meļņova","zip":"LV-4604"},"mala":{"address":"Mala","city":"Liuzinīki","zip":"LV-4625"},"malahīti":{"address":"Malahīti","city":"Rutki","zip":"LV-5707"},"malas iela 1":{"address":"Malas iela 1","city":"Saurieši","zip":"LV-2118"}}