{"mērnieki 5 - 9":{"address":"Mērnieki 5 - 9","city":"Mērnieki","zip":"LV-4035"},"mērnieki 5 - 10":{"address":"Mērnieki 5 - 10","city":"Mērnieki","zip":"LV-4035"},"mērnieki 5 - 11":{"address":"Mērnieki 5 - 11","city":"Mērnieki","zip":"LV-4035"},"mērnieki 5 - 12":{"address":"Mērnieki 5 - 12","city":"Mērnieki","zip":"LV-4035"},"mērnieki 2 - 1":{"address":"Mērnieki 2 - 1","city":"Mērnieki","zip":"LV-4035"},"mērnieki 2 - 2":{"address":"Mērnieki 2 - 2","city":"Mērnieki","zip":"LV-4035"},"mērnieki 3 - 1":{"address":"Mērnieki 3 - 1","city":"Mērnieki","zip":"LV-4035"},"mērnieki 3 - 2":{"address":"Mērnieki 3 - 2","city":"Mērnieki","zip":"LV-4035"},"mērnieki 3 - 3":{"address":"Mērnieki 3 - 3","city":"Mērnieki","zip":"LV-4035"},"mērnieki 3 - 4":{"address":"Mērnieki 3 - 4","city":"Mērnieki","zip":"LV-4035"},"mērnieki 3 - 5":{"address":"Mērnieki 3 - 5","city":"Mērnieki","zip":"LV-4035"},"mērnieki 3 - 6":{"address":"Mērnieki 3 - 6","city":"Mērnieki","zip":"LV-4035"},"mērnieki 3 - 7":{"address":"Mērnieki 3 - 7","city":"Mērnieki","zip":"LV-4035"},"mērnieki 3 - 8":{"address":"Mērnieki 3 - 8","city":"Mērnieki","zip":"LV-4035"},"mērnieki 3 - 9":{"address":"Mērnieki 3 - 9","city":"Mērnieki","zip":"LV-4035"},"mērnieki 3 - 10":{"address":"Mērnieki 3 - 10","city":"Mērnieki","zip":"LV-4035"},"mērnieki 3 - 11":{"address":"Mērnieki 3 - 11","city":"Mērnieki","zip":"LV-4035"},"mērnieki 3 - 12":{"address":"Mērnieki 3 - 12","city":"Mērnieki","zip":"LV-4035"},"mērnieki 4 - 1":{"address":"Mērnieki 4 - 1","city":"Mērnieki","zip":"LV-4035"},"mērnieki 4 - 2":{"address":"Mērnieki 4 - 2","city":"Mērnieki","zip":"LV-4035"},"mērnieki 4 - 3":{"address":"Mērnieki 4 - 3","city":"Mērnieki","zip":"LV-4035"},"mērnieki 4 - 4":{"address":"Mērnieki 4 - 4","city":"Mērnieki","zip":"LV-4035"},"mērnieki 4 - 5":{"address":"Mērnieki 4 - 5","city":"Mērnieki","zip":"LV-4035"},"mērnieki 4 - 6":{"address":"Mērnieki 4 - 6","city":"Mērnieki","zip":"LV-4035"},"mērnieki 4 - 7":{"address":"Mērnieki 4 - 7","city":"Mērnieki","zip":"LV-4035"},"mērnieki 4 - 8":{"address":"Mērnieki 4 - 8","city":"Mērnieki","zip":"LV-4035"},"mērnieki 4 - 9":{"address":"Mērnieki 4 - 9","city":"Mērnieki","zip":"LV-4035"},"mērnieki 4 - 10":{"address":"Mērnieki 4 - 10","city":"Mērnieki","zip":"LV-4035"},"mērnieki 4 - 11":{"address":"Mērnieki 4 - 11","city":"Mērnieki","zip":"LV-4035"},"mērnieki 4 - 12":{"address":"Mērnieki 4 - 12","city":"Mērnieki","zip":"LV-4035"},"mērnieki 5 - 1":{"address":"Mērnieki 5 - 1","city":"Mērnieki","zip":"LV-4035"},"mērnieki 5 - 2":{"address":"Mērnieki 5 - 2","city":"Mērnieki","zip":"LV-4035"},"mērnieki 5 - 3":{"address":"Mērnieki 5 - 3","city":"Mērnieki","zip":"LV-4035"},"mērnieki 5 - 4":{"address":"Mērnieki 5 - 4","city":"Mērnieki","zip":"LV-4035"},"mērnieki 5 - 5":{"address":"Mērnieki 5 - 5","city":"Mērnieki","zip":"LV-4035"},"mērnieki 5 - 6":{"address":"Mērnieki 5 - 6","city":"Mērnieki","zip":"LV-4035"},"mērnieki 5 - 7":{"address":"Mērnieki 5 - 7","city":"Mērnieki","zip":"LV-4035"},"mērnieki - 1":{"address":"Mērnieki - 1","city":"Valdlauči","zip":"LV-1076"},"mērnieki - 2":{"address":"Mērnieki - 2","city":"Valdlauči","zip":"LV-1076"},"mērnieki - 3":{"address":"Mērnieki - 3","city":"Valdlauči","zip":"LV-1076"},"mērnieki - 4":{"address":"Mērnieki - 4","city":"Valdlauči","zip":"LV-1076"},"mērnieki 5":{"address":"Mērnieki 5","city":"Mērnieki","zip":"LV-4035"},"salaca":{"address":"Salaca","city":"Mērnieki","zip":"LV-4035"},"upes":{"address":"Upes","city":"Mērnieki","zip":"LV-4035"},"mērnieki 2":{"address":"Mērnieki 2","city":"Mērnieki","zip":"LV-4035"},"lazdas":{"address":"Lazdas","city":"Mērnieki","zip":"LV-4035"},"mērnieki 4":{"address":"Mērnieki 4","city":"Mērnieki","zip":"LV-4035"},"mērnieki 3":{"address":"Mērnieki 3","city":"Mērnieki","zip":"LV-4035"},"mērnieki":{"address":"Mērnieki","city":"Sondori","zip":"LV-4647"}}