{"mētras - 1":{"address":"Mētras - 1","city":"Saulesdārzs","zip":"LV-5052"},"mētras - 2":{"address":"Mētras - 2","city":"Saulesdārzs","zip":"LV-5052"},"mētras - 3":{"address":"Mētras - 3","city":"Birzgale","zip":"LV-5033"},"mētras - 4":{"address":"Mētras - 4","city":"Birzgale","zip":"LV-5033"},"mētras - 6":{"address":"Mētras - 6","city":"Jaunzemi","zip":"LV-4344"},"mētras - 7":{"address":"Mētras - 7","city":"Sikšņi","zip":"LV-3480"},"mētras - 8":{"address":"Mētras - 8","city":"Sikšņi","zip":"LV-3480"},"mētras - 9":{"address":"Mētras - 9","city":"Sikšņi","zip":"LV-3480"},"mētras - 10":{"address":"Mētras - 10","city":"Sikšņi","zip":"LV-3480"},"mētras - 11":{"address":"Mētras - 11","city":"Sikšņi","zip":"LV-3480"},"mētras - 12":{"address":"Mētras - 12","city":"Sikšņi","zip":"LV-3480"},"mētras - 13":{"address":"Mētras - 13","city":"Sikšņi","zip":"LV-3480"},"mētras - 14":{"address":"Mētras - 14","city":"Sikšņi","zip":"LV-3480"},"mētras - 15":{"address":"Mētras - 15","city":"Sikšņi","zip":"LV-3480"},"mētras - 16":{"address":"Mētras - 16","city":"Sikšņi","zip":"LV-3480"},"mētras - 17":{"address":"Mētras - 17","city":"Sikšņi","zip":"LV-3480"},"mētras - 18":{"address":"Mētras - 18","city":"Sikšņi","zip":"LV-3480"},"mētras - 5":{"address":"Mētras - 5","city":"Jaunzemi","zip":"LV-4344"},"mētras":{"address":"Mētras","city":"Ziras","zip":"LV-3624"}}