{"mētru iela 4 - 1":{"address":"Mētru iela 4 - 1","city":"Baltezers","zip":"LV-2164"},"mētru iela 4 - 2":{"address":"Mētru iela 4 - 2","city":"Baltezers","zip":"LV-2164"},"mētru iela 6 - 1":{"address":"Mētru iela 6 - 1","city":"Baltezers","zip":"LV-2164"},"mētru iela 6 - 2":{"address":"Mētru iela 6 - 2","city":"Baltezers","zip":"LV-2164"},"mētru iela 3 - 1":{"address":"Mētru iela 3 - 1","city":"Mētriena","zip":"LV-4865"},"mētru iela 3 - 2":{"address":"Mētru iela 3 - 2","city":"Mētriena","zip":"LV-4865"},"mētru iela 3 - 3":{"address":"Mētru iela 3 - 3","city":"Mētriena","zip":"LV-4865"},"mētru iela 3 - 4":{"address":"Mētru iela 3 - 4","city":"Mētriena","zip":"LV-4865"},"mētrukalns":{"address":"Mētrukalns","city":"Beļauski","zip":"LV-4576"},"mētru iela 2":{"address":"Mētru iela 2","city":"Atpūta","zip":"LV-3008"},"mētru iela 25":{"address":"Mētru iela 25","city":"Sarkaņi","zip":"LV-4128"},"mētru iela 9":{"address":"Mētru iela 9","city":"Baltezers","zip":"LV-2164"},"mētru iela 23":{"address":"Mētru iela 23","city":"Sarkaņi","zip":"LV-4128"},"mētru iela 11":{"address":"Mētru iela 11","city":"Baltezers","zip":"LV-2164"},"mētru iela 21":{"address":"Mētru iela 21","city":"Sarkaņi","zip":"LV-4128"},"mētru iela 15":{"address":"Mētru iela 15","city":"Sarkaņi","zip":"LV-4128"},"mētru iela 17":{"address":"Mētru iela 17","city":"Baltezers","zip":"LV-2164"},"mētrukalni":{"address":"Mētrukalni","city":"Jaundundaga","zip":"LV-3270"},"mētru iela 14":{"address":"Mētru iela 14","city":"Baltezers","zip":"LV-2164"},"mētru iela 1":{"address":"Mētru iela 1","city":"Baltezers","zip":"LV-2164"},"mētru iela 3":{"address":"Mētru iela 3","city":"Baltezers","zip":"LV-2164"},"mētru iela 16":{"address":"Mētru iela 16","city":"Baltezers","zip":"LV-2164"},"mētru iela 4":{"address":"Mētru iela 4","city":"Baltezers","zip":"LV-2164"},"mētru iela 5":{"address":"Mētru iela 5","city":"Baltezers","zip":"LV-2164"},"mētru iela 6":{"address":"Mētru iela 6","city":"Baltezers","zip":"LV-2164"},"mētru iela 7":{"address":"Mētru iela 7","city":"Baltezers","zip":"LV-2164"},"mētru iela 8":{"address":"Mētru iela 8","city":"Baltezers","zip":"LV-2164"},"mētru iela 10":{"address":"Mētru iela 10","city":"Baltezers","zip":"LV-2164"},"mētru iela 10a":{"address":"Mētru iela 10A","city":"Baltezers","zip":"LV-2164"},"mētru iela 12":{"address":"Mētru iela 12","city":"Baltezers","zip":"LV-2164"},"mētru iela 14a":{"address":"Mētru iela 14A","city":"Baltezers","zip":"LV-2164"},"mētru iela 307":{"address":"Mētru iela 307","city":"Egļupe","zip":"LV-2154"},"mētru iela 308":{"address":"Mētru iela 308","city":"Egļupe","zip":"LV-2154"},"mētru iela 309":{"address":"Mētru iela 309","city":"Egļupe","zip":"LV-2154"},"mētru iela 310":{"address":"Mētru iela 310","city":"Egļupe","zip":"LV-2154"},"mētru iela 311":{"address":"Mētru iela 311","city":"Egļupe","zip":"LV-2154"},"mētru iela 312":{"address":"Mētru iela 312","city":"Egļupe","zip":"LV-2154"},"mētru iela 313":{"address":"Mētru iela 313","city":"Egļupe","zip":"LV-2154"},"mētru iela 314":{"address":"Mētru iela 314","city":"Egļupe","zip":"LV-2154"},"mētru iela 315":{"address":"Mētru iela 315","city":"Egļupe","zip":"LV-2154"},"mētru iela 316":{"address":"Mētru iela 316","city":"Egļupe","zip":"LV-2154"}}