{"biedrības nams - 1":{"address":"Biedrības nams - 1","city":"Tirza","zip":"LV-4424"},"biedrības nams - 2":{"address":"Biedrības nams - 2","city":"Tirza","zip":"LV-4424"},"tautas nams - 1":{"address":"Tautas nams - 1","city":"Lībagi","zip":"LV-3258"},"tautas nams - 2":{"address":"Tautas nams - 2","city":"Lībagi","zip":"LV-3258"},"tautas nams - 3":{"address":"Tautas nams - 3","city":"Cīrava","zip":"LV-3453"},"tautas nams - 4":{"address":"Tautas nams - 4","city":"Plācis","zip":"LV-4152"},"zūru pagasta nams - 1":{"address":"Zūru pagasta nams - 1","city":"Zūras","zip":"LV-3623"},"zūru pagasta nams - 2":{"address":"Zūru pagasta nams - 2","city":"Zūras","zip":"LV-3623"},"zūru pagasta nams - 3":{"address":"Zūru pagasta nams - 3","city":"Zūras","zip":"LV-3623"},"zūru pagasta nams - 4":{"address":"Zūru pagasta nams - 4","city":"Zūras","zip":"LV-3623"},"zūru pagasta nams - 5":{"address":"Zūru pagasta nams - 5","city":"Zūras","zip":"LV-3623"},"zūru pagasta nams - 6":{"address":"Zūru pagasta nams - 6","city":"Zūras","zip":"LV-3623"},"zūru pagasta nams - 7":{"address":"Zūru pagasta nams - 7","city":"Zūras","zip":"LV-3623"},"zūru pagasta nams - 8":{"address":"Zūru pagasta nams - 8","city":"Zūras","zip":"LV-3623"},"zūru pagasta nams - 9":{"address":"Zūru pagasta nams - 9","city":"Zūras","zip":"LV-3623"},"zūru pagasta nams - 10":{"address":"Zūru pagasta nams - 10","city":"Zūras","zip":"LV-3623"},"zūru pagasta nams - 11":{"address":"Zūru pagasta nams - 11","city":"Zūras","zip":"LV-3623"},"zūru pagasta nams - 12":{"address":"Zūru pagasta nams - 12","city":"Zūras","zip":"LV-3623"},"pagasta nams - 7":{"address":"Pagasta nams - 7","city":"Abrupe","zip":"LV-4125"},"pagasta nams - 8":{"address":"Pagasta nams - 8","city":"Abrupe","zip":"LV-4125"},"pagasta nams - 1":{"address":"Pagasta nams - 1","city":"Abrupe","zip":"LV-4125"},"pagasta nams - 2":{"address":"Pagasta nams - 2","city":"Abrupe","zip":"LV-4125"},"pagasta nams - 3":{"address":"Pagasta nams - 3","city":"Abrupe","zip":"LV-4125"},"pagasta nams - 4":{"address":"Pagasta nams - 4","city":"Abrupe","zip":"LV-4125"},"pagasta nams - 5":{"address":"Pagasta nams - 5","city":"Abrupe","zip":"LV-4125"},"kraukļu tautas nams - 5":{"address":"Kraukļu tautas nams - 5","city":"Kraukļi","zip":"LV-4880"},"kraukļu tautas nams - 1":{"address":"Kraukļu tautas nams - 1","city":"Kraukļi","zip":"LV-4880"},"kraukļu tautas nams - 2":{"address":"Kraukļu tautas nams - 2","city":"Kraukļi","zip":"LV-4880"},"kraukļu tautas nams - 3":{"address":"Kraukļu tautas nams - 3","city":"Kraukļi","zip":"LV-4880"},"kraukļu tautas nams - 4":{"address":"Kraukļu tautas nams - 4","city":"Kraukļi","zip":"LV-4880"},"kraukļu tautas nams - 1a":{"address":"Kraukļu tautas nams - 1A","city":"Kraukļi","zip":"LV-4880"},"biedrības nams":{"address":"Biedrības nams","city":"Tirza","zip":"LV-4424"},"sinoles nams":{"address":"Sinoles nams","city":"Sinole","zip":"LV-4412"},"tautas nams":{"address":"Tautas nams","city":"Bārta","zip":"LV-3482"},"kultūras nams-alsviķi":{"address":"Kultūras nams-Alsviķi","city":"Alsviķi","zip":"LV-4333"},"pagasta nams":{"address":"Pagasta nams","city":"Ipiķi","zip":"LV-4242"},"kultūras nams":{"address":"Kultūras nams","city":"Kapsēde","zip":"LV-3461"},"latvijas kino nams":{"address":"Latvijas Kino nams","city":"Ieriķi","zip":"LV-4139"},"vilzēnu tautas nams":{"address":"Vilzēnu tautas nams","city":"Vilzēni","zip":"LV-4068"},"puikules tautas nams":{"address":"Puikules tautas nams","city":"Puikule","zip":"LV-4063"},"ārciema tautas nams":{"address":"Ārciema tautas nams","city":"Ārciems","zip":"LV-4052"},"vadakstes tautas nams":{"address":"Vadakstes tautas nams","city":"Vadakste","zip":"LV-3895"},"gaiķu pagasta nams":{"address":"Gaiķu pagasta nams","city":"Gaiķi","zip":"LV-3873"},"zūru pagasta nams":{"address":"Zūru pagasta nams","city":"Zūras","zip":"LV-3623"},"bērnu nams stikli":{"address":"Bērnu nams Stikli","city":"Stikli","zip":"LV-3613"},"rudes sporta nams":{"address":"Rudes sporta nams","city":"Rude","zip":"LV-3475"},"baptistu draudzes lūgšanu nams":{"address":"Baptistu draudzes lūgšanu nams","city":"Jūrmalciems","zip":"LV-3473"},"ziemupes tautas nams":{"address":"Ziemupes tautas nams","city":"Ziemupe","zip":"LV-3463"}}