{"noras - 1":{"address":"Noras - 1","city":"Rude","zip":"LV-3475"},"noras - 2":{"address":"Noras - 2","city":"Rude","zip":"LV-3475"},"noras - 3":{"address":"Noras - 3","city":"Rude","zip":"LV-3475"},"noras - 4":{"address":"Noras - 4","city":"Rude","zip":"LV-3475"},"noras - 5":{"address":"Noras - 5","city":"Rude","zip":"LV-3475"},"noras - 6":{"address":"Noras - 6","city":"Rude","zip":"LV-3475"},"noras - 7":{"address":"Noras - 7","city":"Rude","zip":"LV-3475"},"noras - 8":{"address":"Noras - 8","city":"Rude","zip":"LV-3475"},"noras - 9":{"address":"Noras - 9","city":"Rude","zip":"LV-3475"},"noras - 10":{"address":"Noras - 10","city":"Rude","zip":"LV-3475"},"noras - 11":{"address":"Noras - 11","city":"Rude","zip":"LV-3475"},"noras - 12":{"address":"Noras - 12","city":"Rude","zip":"LV-3475"},"noras - 13":{"address":"Noras - 13","city":"Rude","zip":"LV-3475"},"noras - 14":{"address":"Noras - 14","city":"Rude","zip":"LV-3475"},"noras - 15":{"address":"Noras - 15","city":"Rude","zip":"LV-3475"},"noras - 16":{"address":"Noras - 16","city":"Rude","zip":"LV-3475"},"noras - 17":{"address":"Noras - 17","city":"Rude","zip":"LV-3475"},"noras - 18":{"address":"Noras - 18","city":"Rude","zip":"LV-3475"},"noras - 1a":{"address":"Noras - 1A","city":"Kursīši","zip":"LV-3890"},"noras - 1b":{"address":"Noras - 1B","city":"Kursīši","zip":"LV-3890"},"noras - 19":{"address":"Noras - 19","city":"Rude","zip":"LV-3475"},"noras - 20":{"address":"Noras - 20","city":"Rude","zip":"LV-3475"},"noras - 21":{"address":"Noras - 21","city":"Rude","zip":"LV-3475"}}