{"nostūrīšu iela 9 - 1":{"address":"Nostūrīšu iela 9 - 1","city":"Ādaži","zip":"LV-2164"},"nostūrīšu iela 9 - 2":{"address":"Nostūrīšu iela 9 - 2","city":"Ādaži","zip":"LV-2164"},"nostūrīšu iela 8 - 1":{"address":"Nostūrīšu iela 8 - 1","city":"Ādaži","zip":"LV-2164"},"nostūrīšu iela 8 - 2":{"address":"Nostūrīšu iela 8 - 2","city":"Ādaži","zip":"LV-2164"},"nostūrīšu iela 10 - 2":{"address":"Nostūrīšu iela 10 - 2","city":"Ādaži","zip":"LV-2164"},"nostūrīšu iela 10 - 1":{"address":"Nostūrīšu iela 10 - 1","city":"Ādaži","zip":"LV-2164"},"nostūrīši":{"address":"Nostūrīši","city":"Lutriņi","zip":"LV-3861"},"nostūrīšu iela 9":{"address":"Nostūrīšu iela 9","city":"Ādaži","zip":"LV-2164"},"nostūrīšu iela 8":{"address":"Nostūrīšu iela 8","city":"Ādaži","zip":"LV-2164"},"nostūrīšu iela 1":{"address":"Nostūrīšu iela 1","city":"Ādaži","zip":"LV-2164"},"nostūrīšu iela 2":{"address":"Nostūrīšu iela 2","city":"Ādaži","zip":"LV-2164"},"nostūrīšu iela 3":{"address":"Nostūrīšu iela 3","city":"Ādaži","zip":"LV-2164"},"nostūrīšu iela 4":{"address":"Nostūrīšu iela 4","city":"Ādaži","zip":"LV-2164"},"nostūrīšu iela 5":{"address":"Nostūrīšu iela 5","city":"Ādaži","zip":"LV-2164"},"nostūrīšu iela 6":{"address":"Nostūrīšu iela 6","city":"Ādaži","zip":"LV-2164"},"nostūrīšu iela 7":{"address":"Nostūrīšu iela 7","city":"Ādaži","zip":"LV-2164"},"nostūrīšu iela 10":{"address":"Nostūrīšu iela 10","city":"Ādaži","zip":"LV-2164"},"nostūrīšu iela 11":{"address":"Nostūrīšu iela 11","city":"Ādaži","zip":"LV-2164"},"nostūrīšu iela 12":{"address":"Nostūrīšu iela 12","city":"Ādaži","zip":"LV-2164"},"nostūrīšu iela 13":{"address":"Nostūrīšu iela 13","city":"Ādaži","zip":"LV-2164"},"nostūris":{"address":"Nostūris","city":"Belomoje","zip":"LV-5751"},"paradīzes nostūris":{"address":"Paradīzes nostūris","city":"Pipiņi","zip":"LV-5671"}}