{"starteri - 1":{"address":"Starteri - 1","city":"Omuļi","zip":"LV-4711"},"starteri - 2":{"address":"Starteri - 2","city":"Omuļi","zip":"LV-4711"},"starteri - 3":{"address":"Starteri - 3","city":"Omuļi","zip":"LV-4711"},"starteri - 4":{"address":"Starteri - 4","city":"Omuļi","zip":"LV-4711"},"starteri - 5":{"address":"Starteri - 5","city":"Omuļi","zip":"LV-4711"},"starteri - 6":{"address":"Starteri - 6","city":"Omuļi","zip":"LV-4711"},"starteri - 7":{"address":"Starteri - 7","city":"Omuļi","zip":"LV-4711"},"starteri - 8":{"address":"Starteri - 8","city":"Omuļi","zip":"LV-4711"},"omulīši":{"address":"Omulīši","city":"Krasnogorka","zip":"LV-5329"},"omuļi":{"address":"Omuļi","city":"Krumāni","zip":"LV-5666"},"andrupes":{"address":"Andrupes","city":"Omuļi","zip":"LV-4711"},"āres":{"address":"Āres","city":"Omuļi","zip":"LV-4711"},"ausekļi":{"address":"Ausekļi","city":"Omuļi","zip":"LV-4711"},"dzintari":{"address":"Dzintari","city":"Omuļi","zip":"LV-4711"},"eglītes":{"address":"Eglītes","city":"Omuļi","zip":"LV-4711"},"grunduļi":{"address":"Grunduļi","city":"Omuļi","zip":"LV-4711"},"kalniņi":{"address":"Kalniņi","city":"Omuļi","zip":"LV-4711"},"kalnspriči":{"address":"Kalnspriči","city":"Omuļi","zip":"LV-4711"},"vītoliņi":{"address":"Vītoliņi","city":"Omuļi","zip":"LV-4711"},"noras":{"address":"Noras","city":"Omuļi","zip":"LV-4711"},"omuļu skola":{"address":"Omuļu Skola","city":"Omuļi","zip":"LV-4711"},"omuļu veikals":{"address":"Omuļu veikals","city":"Omuļi","zip":"LV-4711"},"rogas":{"address":"Rogas","city":"Omuļi","zip":"LV-4711"},"rozītes":{"address":"Rozītes","city":"Omuļi","zip":"LV-4711"},"starteri":{"address":"Starteri","city":"Omuļi","zip":"LV-4711"},"omuli":{"address":"Omuli","city":"Deičmaņi","zip":"LV-4638"}}