{"viesu māja":{"address":"Viesu māja","city":"Osinovka","zip":"LV-4617"},"dzirkstelītes":{"address":"Dzirkstelītes","city":"Osinovka","zip":"LV-4617"},"putniņi":{"address":"Putniņi","city":"Osinovka","zip":"LV-4592"},"osinovka":{"address":"Osinovka","city":"Osinovka","zip":"LV-5440"},"osinovka otrā":{"address":"Osinovka otrā","city":"Osinovka","zip":"LV-5440"},"pirmās vasariņas":{"address":"Pirmās Vasariņas","city":"Osinovka","zip":"LV-5711"},"osinovka 2":{"address":"Osinovka 2","city":"Osinovka","zip":"LV-5440"},"zīlītes":{"address":"Zīlītes","city":"Osinovka","zip":"LV-5729"},"vasariņas":{"address":"Vasariņas","city":"Osinovka","zip":"LV-5711"},"vītoliņi":{"address":"Vītoliņi","city":"Osinovka","zip":"LV-5711"},"ezerkalni":{"address":"Ezerkalni","city":"Osinovka","zip":"LV-5711"},"jurčenoki":{"address":"Jurčenoki","city":"Osinovka","zip":"LV-5711"},"kadiši":{"address":"Kadiši","city":"Osinovka","zip":"LV-5711"},"uļbiki":{"address":"Uļbiki","city":"Osinovka","zip":"LV-5711"},"osinovka 3":{"address":"Osinovka 3","city":"Osinovka","zip":"LV-5465"},"zeltiņi":{"address":"Zeltiņi","city":"Osinovka","zip":"LV-5465"},"solņečnoje":{"address":"Solņečnoje","city":"Osinovka","zip":"LV-5440"},"zaļsala":{"address":"Zaļsala","city":"Osinovka","zip":"LV-5440"},"ausma":{"address":"Ausma","city":"Osinovka","zip":"LV-5440"},"draudzība":{"address":"Draudzība","city":"Osinovka","zip":"LV-5440"},"ērglis":{"address":"Ērglis","city":"Osinovka","zip":"LV-5440"},"ērglis 1":{"address":"Ērglis 1","city":"Osinovka","zip":"LV-5440"},"gulbji 1":{"address":"Gulbji 1","city":"Osinovka","zip":"LV-5440"},"gulbji 2":{"address":"Gulbji 2","city":"Osinovka","zip":"LV-5440"},"kohtla jarve":{"address":"Kohtla Jarve","city":"Osinovka","zip":"LV-5440"},"mazā upe":{"address":"Mazā upe","city":"Osinovka","zip":"LV-5440"},"nadežda":{"address":"Nadežda","city":"Osinovka","zip":"LV-5440"},"osinovka 1":{"address":"Osinovka 1","city":"Osinovka","zip":"LV-5440"},"pavasaris":{"address":"Pavasaris","city":"Osinovka","zip":"LV-5440"},"plociņi":{"address":"Plociņi","city":"Osinovka","zip":"LV-5440"}}