{"ozoliņi - 1":{"address":"Ozoliņi - 1","city":"Patmaļi","zip":"LV-5456"},"ozoliņi - 2":{"address":"Ozoliņi - 2","city":"Patmaļi","zip":"LV-5456"},"ozoliņi - 3":{"address":"Ozoliņi - 3","city":"Patmaļi","zip":"LV-5456"},"ozoliņi - 4":{"address":"Ozoliņi - 4","city":"Rude","zip":"LV-3475"},"ozoliņi - 5":{"address":"Ozoliņi - 5","city":"Rude","zip":"LV-3475"},"ozoliņi - 6":{"address":"Ozoliņi - 6","city":"Rude","zip":"LV-3475"},"ozoliņi - 7":{"address":"Ozoliņi - 7","city":"Rude","zip":"LV-3475"},"ozoliņi - 8":{"address":"Ozoliņi - 8","city":"Rude","zip":"LV-3475"},"ozoliņi 1 - 1":{"address":"Ozoliņi 1 - 1","city":"Dikļi","zip":"LV-4223"},"ozoliņi 1 - 2":{"address":"Ozoliņi 1 - 2","city":"Dikļi","zip":"LV-4223"},"akācijas - 1":{"address":"Akācijas - 1","city":"Ozoliņi","zip":"LV-5674"},"akācijas - 2":{"address":"Akācijas - 2","city":"Ozoliņi","zip":"LV-5674"},"akācijas - 3":{"address":"Akācijas - 3","city":"Ozoliņi","zip":"LV-5674"},"akācijas - 4":{"address":"Akācijas - 4","city":"Ozoliņi","zip":"LV-5674"},"vecās kļavas - 1":{"address":"Vecās Kļavas - 1","city":"Ozoliņi","zip":"LV-5674"},"vecās kļavas - 2":{"address":"Vecās Kļavas - 2","city":"Ozoliņi","zip":"LV-5674"},"ābolmājas - 1":{"address":"Ābolmājas - 1","city":"Ozoliņi","zip":"LV-5674"},"ābolmājas - 2":{"address":"Ābolmājas - 2","city":"Ozoliņi","zip":"LV-5674"},"ceriņmājas - 1":{"address":"Ceriņmājas - 1","city":"Ozoliņi","zip":"LV-5674"},"ceriņmājas - 2":{"address":"Ceriņmājas - 2","city":"Ozoliņi","zip":"LV-5674"},"ceriņmājas - 3":{"address":"Ceriņmājas - 3","city":"Ozoliņi","zip":"LV-5674"},"ceriņmājas - 4":{"address":"Ceriņmājas - 4","city":"Ozoliņi","zip":"LV-5674"},"circenīši - 1":{"address":"Circenīši - 1","city":"Ozoliņi","zip":"LV-5674"},"circenīši - 2":{"address":"Circenīši - 2","city":"Ozoliņi","zip":"LV-5674"},"circenīši - 3":{"address":"Circenīši - 3","city":"Ozoliņi","zip":"LV-5674"},"circenīši - 4":{"address":"Circenīši - 4","city":"Ozoliņi","zip":"LV-5674"},"gobiņas - 1":{"address":"Gobiņas - 1","city":"Ozoliņi","zip":"LV-5674"},"gobiņas - 2":{"address":"Gobiņas - 2","city":"Ozoliņi","zip":"LV-5674"},"pagalmiņi - 1":{"address":"Pagalmiņi - 1","city":"Ozoliņi","zip":"LV-5674"},"pagalmiņi - 2":{"address":"Pagalmiņi - 2","city":"Ozoliņi","zip":"LV-5674"},"pagalmiņi - 3":{"address":"Pagalmiņi - 3","city":"Ozoliņi","zip":"LV-5674"},"pagalmiņi - 4":{"address":"Pagalmiņi - 4","city":"Ozoliņi","zip":"LV-5674"},"pastarīši - 1":{"address":"Pastarīši - 1","city":"Ozoliņi","zip":"LV-5674"},"pastarīši - 2":{"address":"Pastarīši - 2","city":"Ozoliņi","zip":"LV-5674"}}