{"ozolu iela 1 - 1":{"address":"Ozolu iela 1 - 1","city":"Jaungulbene","zip":"LV-4420"},"ozolu iela 1 - 2":{"address":"Ozolu iela 1 - 2","city":"Jaungulbene","zip":"LV-4420"},"ozolu iela 1 - 3":{"address":"Ozolu iela 1 - 3","city":"Jaungulbene","zip":"LV-4420"},"ozolu iela 1 - 4":{"address":"Ozolu iela 1 - 4","city":"Jaungulbene","zip":"LV-4420"},"ozolu iela 1 - 5":{"address":"Ozolu iela 1 - 5","city":"Jaungulbene","zip":"LV-4420"},"ozolu iela 1 - 6":{"address":"Ozolu iela 1 - 6","city":"Jaungulbene","zip":"LV-4420"},"ozolu iela 1 - 7":{"address":"Ozolu iela 1 - 7","city":"Jaungulbene","zip":"LV-4420"},"ozolu iela 1 - 8":{"address":"Ozolu iela 1 - 8","city":"Jaungulbene","zip":"LV-4420"},"ozolu iela 1 - 9":{"address":"Ozolu iela 1 - 9","city":"Jaungulbene","zip":"LV-4420"},"ozolu iela 1 - 10":{"address":"Ozolu iela 1 - 10","city":"Jaungulbene","zip":"LV-4420"},"ozolu iela 1 - 11":{"address":"Ozolu iela 1 - 11","city":"Jaungulbene","zip":"LV-4420"},"ozolu iela 1 - 12":{"address":"Ozolu iela 1 - 12","city":"Jaungulbene","zip":"LV-4420"},"ozolu iela 1 - 13":{"address":"Ozolu iela 1 - 13","city":"Jaungulbene","zip":"LV-4420"},"ozolu iela 1 - 14":{"address":"Ozolu iela 1 - 14","city":"Jaungulbene","zip":"LV-4420"},"ozolu iela 1 - 15":{"address":"Ozolu iela 1 - 15","city":"Jaungulbene","zip":"LV-4420"},"ozolu iela 1 - 16":{"address":"Ozolu iela 1 - 16","city":"Jaungulbene","zip":"LV-4420"},"ozolu iela 1 - 17":{"address":"Ozolu iela 1 - 17","city":"Jaungulbene","zip":"LV-4420"},"ozolu iela 1 - 18":{"address":"Ozolu iela 1 - 18","city":"Jaungulbene","zip":"LV-4420"},"ozolu iela 1 - 19":{"address":"Ozolu iela 1 - 19","city":"Jaungulbene","zip":"LV-4420"},"ozolu iela 1 - 20":{"address":"Ozolu iela 1 - 20","city":"Jaungulbene","zip":"LV-4420"},"ozolu iela 1 - 21":{"address":"Ozolu iela 1 - 21","city":"Jaungulbene","zip":"LV-4420"},"ozolu iela 1 - 22":{"address":"Ozolu iela 1 - 22","city":"Jaungulbene","zip":"LV-4420"},"ozolu iela 1 - 23":{"address":"Ozolu iela 1 - 23","city":"Jaungulbene","zip":"LV-4420"},"ozolu iela 1 - 24":{"address":"Ozolu iela 1 - 24","city":"Jaungulbene","zip":"LV-4420"},"ozolu iela 2 - 1":{"address":"Ozolu iela 2 - 1","city":"Jaungulbene","zip":"LV-4420"},"ozolu iela 2 - 2":{"address":"Ozolu iela 2 - 2","city":"Jaungulbene","zip":"LV-4420"},"ozolu iela 2 - 3":{"address":"Ozolu iela 2 - 3","city":"Jaungulbene","zip":"LV-4420"},"ozolu iela 2 - 4":{"address":"Ozolu iela 2 - 4","city":"Jaungulbene","zip":"LV-4420"},"ozolu iela 2 - 5":{"address":"Ozolu iela 2 - 5","city":"Jaungulbene","zip":"LV-4420"},"ozolu iela 2 - 6":{"address":"Ozolu iela 2 - 6","city":"Jaungulbene","zip":"LV-4420"},"ozolu iela 2 - 7":{"address":"Ozolu iela 2 - 7","city":"Jaungulbene","zip":"LV-4420"},"ozolu iela 2 - 8":{"address":"Ozolu iela 2 - 8","city":"Jaungulbene","zip":"LV-4420"},"ozolu iela 2 - 9":{"address":"Ozolu iela 2 - 9","city":"Jaungulbene","zip":"LV-4420"},"ozolu iela 2 - 10":{"address":"Ozolu iela 2 - 10","city":"Jaungulbene","zip":"LV-4420"},"ozolu iela 2 - 11":{"address":"Ozolu iela 2 - 11","city":"Jaungulbene","zip":"LV-4420"},"ozolu iela 2 - 12":{"address":"Ozolu iela 2 - 12","city":"Jaungulbene","zip":"LV-4420"},"ozolu iela 2 - 13":{"address":"Ozolu iela 2 - 13","city":"Jaungulbene","zip":"LV-4420"},"ozolu iela 2 - 14":{"address":"Ozolu iela 2 - 14","city":"Jaungulbene","zip":"LV-4420"},"ozolu iela 2 - 15":{"address":"Ozolu iela 2 - 15","city":"Jaungulbene","zip":"LV-4420"},"ozolu iela 2 - 16":{"address":"Ozolu iela 2 - 16","city":"Jaungulbene","zip":"LV-4420"},"ozolu iela 2 - 17":{"address":"Ozolu iela 2 - 17","city":"Jaungulbene","zip":"LV-4420"},"ozolu iela 2 - 18":{"address":"Ozolu iela 2 - 18","city":"Jaungulbene","zip":"LV-4420"},"ozolu iela 2 - 19":{"address":"Ozolu iela 2 - 19","city":"Jaungulbene","zip":"LV-4420"},"ozolu iela 2 - 20":{"address":"Ozolu iela 2 - 20","city":"Jaungulbene","zip":"LV-4420"},"ozolu iela 2 - 21":{"address":"Ozolu iela 2 - 21","city":"Jaungulbene","zip":"LV-4420"},"ozolu iela 2 - 22":{"address":"Ozolu iela 2 - 22","city":"Jaungulbene","zip":"LV-4420"},"ozolu iela 2 - 23":{"address":"Ozolu iela 2 - 23","city":"Jaungulbene","zip":"LV-4420"},"ozolu iela 2 - 24":{"address":"Ozolu iela 2 - 24","city":"Jaungulbene","zip":"LV-4420"}}