{"ozolītes - 1":{"address":"Ozolītes - 1","city":"Zeltiņi","zip":"LV-4611"},"ozolītes - 2":{"address":"Ozolītes - 2","city":"Zeltiņi","zip":"LV-4611"},"ozoliņi - 1":{"address":"Ozoliņi - 1","city":"Augšlīgatne","zip":"LV-4108"},"ozoliņi - 2":{"address":"Ozoliņi - 2","city":"Augšlīgatne","zip":"LV-4108"},"ozoliņi - 3":{"address":"Ozoliņi - 3","city":"Augšlīgatne","zip":"LV-4108"},"ozoliņi - 4":{"address":"Ozoliņi - 4","city":"Augšlīgatne","zip":"LV-4108"},"ozoliņi - 5":{"address":"Ozoliņi - 5","city":"Katleši","zip":"LV-4584"},"ozoliņi - 6":{"address":"Ozoliņi - 6","city":"Katleši","zip":"LV-4584"},"ozoliņi - 7":{"address":"Ozoliņi - 7","city":"Katleši","zip":"LV-4584"},"ozoliņi - 8":{"address":"Ozoliņi - 8","city":"Katleši","zip":"LV-4584"},"ozoliņi 1 - 1":{"address":"Ozoliņi 1 - 1","city":"Dikļi","zip":"LV-4223"},"ozoliņi 1 - 2":{"address":"Ozoliņi 1 - 2","city":"Dikļi","zip":"LV-4223"},"ozoli - 1":{"address":"Ozoli - 1","city":"Ruba","zip":"LV-3894"},"ozoli - 2":{"address":"Ozoli - 2","city":"Ruba","zip":"LV-3894"},"ozoli - 3":{"address":"Ozoli - 3","city":"Ruba","zip":"LV-3894"},"ozoli - 4":{"address":"Ozoli - 4","city":"Ruba","zip":"LV-3894"},"ozoli - 5":{"address":"Ozoli - 5","city":"Ruba","zip":"LV-3894"},"ozoli - 6":{"address":"Ozoli - 6","city":"Ruba","zip":"LV-3894"},"ozoli - 7":{"address":"Ozoli - 7","city":"Ruba","zip":"LV-3894"},"ozoli - 8":{"address":"Ozoli - 8","city":"Ruba","zip":"LV-3894"},"ozoli - 9":{"address":"Ozoli - 9","city":"Ruba","zip":"LV-3894"},"ozoli - 10":{"address":"Ozoli - 10","city":"Zaube","zip":"LV-4113"},"ozoli - 11":{"address":"Ozoli - 11","city":"Zaube","zip":"LV-4113"},"ozoli - 12":{"address":"Ozoli - 12","city":"Zaube","zip":"LV-4113"},"ozoli - 13":{"address":"Ozoli - 13","city":"Zaube","zip":"LV-4113"},"ozoli - 14":{"address":"Ozoli - 14","city":"Zaube","zip":"LV-4113"},"ozoli - 15":{"address":"Ozoli - 15","city":"Zaube","zip":"LV-4113"},"ozoli - 16":{"address":"Ozoli - 16","city":"Zaube","zip":"LV-4113"},"ozoli - 17":{"address":"Ozoli - 17","city":"Zaube","zip":"LV-4113"},"ozoli - 18":{"address":"Ozoli - 18","city":"Zaube","zip":"LV-4113"}}