{"seski - 1":{"address":"Seski - 1","city":"Oškalni","zip":"LV-3851"},"seski - 2":{"address":"Seski - 2","city":"Oškalni","zip":"LV-3851"},"seski - 3":{"address":"Seski - 3","city":"Oškalni","zip":"LV-3851"},"seski - 4":{"address":"Seski - 4","city":"Oškalni","zip":"LV-3851"},"seski - 5":{"address":"Seski - 5","city":"Oškalni","zip":"LV-3851"},"seski - 6":{"address":"Seski - 6","city":"Oškalni","zip":"LV-3851"},"seski - 7":{"address":"Seski - 7","city":"Oškalni","zip":"LV-3851"},"seski - 8":{"address":"Seski - 8","city":"Oškalni","zip":"LV-3851"},"seski - 9":{"address":"Seski - 9","city":"Oškalni","zip":"LV-3851"},"seski - 10":{"address":"Seski - 10","city":"Oškalni","zip":"LV-3851"},"seski - 11":{"address":"Seski - 11","city":"Oškalni","zip":"LV-3851"},"mērnieki - 1":{"address":"Mērnieki - 1","city":"Oškalni","zip":"LV-3851"},"mērnieki - 2":{"address":"Mērnieki - 2","city":"Oškalni","zip":"LV-3851"},"ziediņi - 1":{"address":"Ziediņi - 1","city":"Oškalni","zip":"LV-3851"},"ziediņi - 2":{"address":"Ziediņi - 2","city":"Oškalni","zip":"LV-3851"},"oškalni - 1":{"address":"Oškalni - 1","city":"Sece","zip":"LV-5124"},"oškalni - 2":{"address":"Oškalni - 2","city":"Sece","zip":"LV-5124"},"oškalni - 3":{"address":"Oškalni - 3","city":"Sece","zip":"LV-5124"},"oškalni - 4":{"address":"Oškalni - 4","city":"Sece","zip":"LV-5124"},"oškalni - 8":{"address":"Oškalni - 8","city":"Sece","zip":"LV-5124"},"oškalni - 5":{"address":"Oškalni - 5","city":"Sece","zip":"LV-5124"},"oškalni - 6":{"address":"Oškalni - 6","city":"Sece","zip":"LV-5124"},"oškalni - 7":{"address":"Oškalni - 7","city":"Sece","zip":"LV-5124"},"pilskalna iela 19 - 1":{"address":"Pilskalna iela 19 - 1","city":"Oškalni","zip":"LV-3851"},"pilskalna iela 19 - 2":{"address":"Pilskalna iela 19 - 2","city":"Oškalni","zip":"LV-3851"},"oškalni - 9":{"address":"Oškalni - 9","city":"Zebrene","zip":"LV-3731"},"oškalni - 10":{"address":"Oškalni - 10","city":"Zebrene","zip":"LV-3731"},"oškalni - 11":{"address":"Oškalni - 11","city":"Zebrene","zip":"LV-3731"},"oškalni - 12":{"address":"Oškalni - 12","city":"Zebrene","zip":"LV-3731"},"oškalniņi - 1":{"address":"Oškalniņi - 1","city":"Ugāle","zip":"LV-3615"},"oškalniņi - 2":{"address":"Oškalniņi - 2","city":"Ugāle","zip":"LV-3615"},"oškalniņi - 3":{"address":"Oškalniņi - 3","city":"Ugāle","zip":"LV-3615"},"oškalniņi - 4":{"address":"Oškalniņi - 4","city":"Ugāle","zip":"LV-3615"},"oškalni":{"address":"Oškalni","city":"Āstere","zip":"LV-4052"},"plūdoņi":{"address":"Plūdoņi","city":"Oškalni","zip":"LV-3851"},"seski":{"address":"Seski","city":"Oškalni","zip":"LV-3851"},"skujas":{"address":"Skujas","city":"Oškalni","zip":"LV-3851"},"smiltnieki":{"address":"Smiltnieki","city":"Oškalni","zip":"LV-3851"},"ziediņi":{"address":"Ziediņi","city":"Oškalni","zip":"LV-3851"},"mērnieki":{"address":"Mērnieki","city":"Oškalni","zip":"LV-3851"},"znotiņi":{"address":"Znotiņi","city":"Oškalni","zip":"LV-3851"},"pilskalna iela 3":{"address":"Pilskalna iela 3","city":"Oškalni","zip":"LV-3851"},"pilskalna iela 4":{"address":"Pilskalna iela 4","city":"Oškalni","zip":"LV-3851"},"pilskalna iela 5":{"address":"Pilskalna iela 5","city":"Oškalni","zip":"LV-3851"},"pilskalna iela 7":{"address":"Pilskalna iela 7","city":"Oškalni","zip":"LV-3851"},"pilskalna iela 9":{"address":"Pilskalna iela 9","city":"Oškalni","zip":"LV-3851"},"pilskalna iela 11":{"address":"Pilskalna iela 11","city":"Oškalni","zip":"LV-3851"},"pilskalna iela 13":{"address":"Pilskalna iela 13","city":"Oškalni","zip":"LV-3851"},"pilskalna iela 15":{"address":"Pilskalna iela 15","city":"Oškalni","zip":"LV-3851"}}