{"ošupes iela 1 - 3":{"address":"Ošupes iela 1 - 3","city":"Galēni","zip":"LV-5311"},"ošupes iela 1 - 1":{"address":"Ošupes iela 1 - 1","city":"Galēni","zip":"LV-5311"},"ošupes iela 1 - 2":{"address":"Ošupes iela 1 - 2","city":"Galēni","zip":"LV-5311"},"ošupes iela 1 - 4":{"address":"Ošupes iela 1 - 4","city":"Galēni","zip":"LV-5311"},"ošupes iela 1 - 5":{"address":"Ošupes iela 1 - 5","city":"Galēni","zip":"LV-5311"},"ošupes iela 1 - 6":{"address":"Ošupes iela 1 - 6","city":"Galēni","zip":"LV-5311"},"ošupes iela 20 - 1":{"address":"Ošupes iela 20 - 1","city":"Galēni","zip":"LV-5311"},"ošupes iela 20 - 2":{"address":"Ošupes iela 20 - 2","city":"Galēni","zip":"LV-5311"},"ošupes iela 20 - 3":{"address":"Ošupes iela 20 - 3","city":"Galēni","zip":"LV-5311"},"ošupes iela 20 - 4":{"address":"Ošupes iela 20 - 4","city":"Galēni","zip":"LV-5311"},"ošupes iela 20 - 5":{"address":"Ošupes iela 20 - 5","city":"Galēni","zip":"LV-5311"},"ošupes iela 20 - 6":{"address":"Ošupes iela 20 - 6","city":"Galēni","zip":"LV-5311"},"ošupe 2 - 5":{"address":"Ošupe 2 - 5","city":"Ošupe","zip":"LV-4830"},"ošupe 2 - 4":{"address":"Ošupe 2 - 4","city":"Ošupe","zip":"LV-4830"},"ošupe 2 - 3":{"address":"Ošupe 2 - 3","city":"Ošupe","zip":"LV-4830"},"ošupe 2 - 7":{"address":"Ošupe 2 - 7","city":"Ošupe","zip":"LV-4830"},"ošupe 2 - 1":{"address":"Ošupe 2 - 1","city":"Ošupe","zip":"LV-4830"},"ošupe 2 - 2":{"address":"Ošupe 2 - 2","city":"Ošupe","zip":"LV-4830"},"ošupe 2 - 6":{"address":"Ošupe 2 - 6","city":"Ošupe","zip":"LV-4830"},"ošupe 2 - 8":{"address":"Ošupe 2 - 8","city":"Ošupe","zip":"LV-4830"},"skolas iela 10 - 1":{"address":"Skolas iela 10 - 1","city":"Degumnieki","zip":"LV-4833"},"skolas iela 10 - 2":{"address":"Skolas iela 10 - 2","city":"Degumnieki","zip":"LV-4833"},"skolas iela 10 - 3":{"address":"Skolas iela 10 - 3","city":"Degumnieki","zip":"LV-4833"},"skolas iela 10 - 4":{"address":"Skolas iela 10 - 4","city":"Degumnieki","zip":"LV-4833"},"skolas iela 10 - 5":{"address":"Skolas iela 10 - 5","city":"Degumnieki","zip":"LV-4833"},"skolas iela 5 - 3":{"address":"Skolas iela 5 - 3","city":"Degumnieki","zip":"LV-4833"},"skolas iela 1 - 1":{"address":"Skolas iela 1 - 1","city":"Degumnieki","zip":"LV-4833"},"skolas iela 1 - 2":{"address":"Skolas iela 1 - 2","city":"Degumnieki","zip":"LV-4833"},"skolas iela 1 - 3":{"address":"Skolas iela 1 - 3","city":"Degumnieki","zip":"LV-4833"},"skolas iela 1 - 4":{"address":"Skolas iela 1 - 4","city":"Degumnieki","zip":"LV-4833"},"celtnieku iela 4 - 1":{"address":"Celtnieku iela 4 - 1","city":"Degumnieki","zip":"LV-4833"},"celtnieku iela 4 - 2":{"address":"Celtnieku iela 4 - 2","city":"Degumnieki","zip":"LV-4833"},"celtnieku iela 4 - 3":{"address":"Celtnieku iela 4 - 3","city":"Degumnieki","zip":"LV-4833"},"celtnieku iela 4 - 4":{"address":"Celtnieku iela 4 - 4","city":"Degumnieki","zip":"LV-4833"},"celtnieku iela 4 - 5":{"address":"Celtnieku iela 4 - 5","city":"Degumnieki","zip":"LV-4833"},"celtnieku iela 4 - 6":{"address":"Celtnieku iela 4 - 6","city":"Degumnieki","zip":"LV-4833"},"celtnieku iela 4 - 7":{"address":"Celtnieku iela 4 - 7","city":"Degumnieki","zip":"LV-4833"},"celtnieku iela 4 - 8":{"address":"Celtnieku iela 4 - 8","city":"Degumnieki","zip":"LV-4833"},"skolas iela 11 - 1":{"address":"Skolas iela 11 - 1","city":"Degumnieki","zip":"LV-4833"},"skolas iela 11 - 2":{"address":"Skolas iela 11 - 2","city":"Degumnieki","zip":"LV-4833"},"skolas iela 11 - 3":{"address":"Skolas iela 11 - 3","city":"Degumnieki","zip":"LV-4833"},"skolas iela 11 - 4":{"address":"Skolas iela 11 - 4","city":"Degumnieki","zip":"LV-4833"},"skolas iela 11 - 5":{"address":"Skolas iela 11 - 5","city":"Degumnieki","zip":"LV-4833"},"skolas iela 11 - 6":{"address":"Skolas iela 11 - 6","city":"Degumnieki","zip":"LV-4833"},"skolas iela 11 - 7":{"address":"Skolas iela 11 - 7","city":"Degumnieki","zip":"LV-4833"},"skolas iela 11 - 8":{"address":"Skolas iela 11 - 8","city":"Degumnieki","zip":"LV-4833"},"skolas iela 11 - 9":{"address":"Skolas iela 11 - 9","city":"Degumnieki","zip":"LV-4833"},"skolas iela 11 - 10":{"address":"Skolas iela 11 - 10","city":"Degumnieki","zip":"LV-4833"},"skolas iela 11 - 11":{"address":"Skolas iela 11 - 11","city":"Degumnieki","zip":"LV-4833"},"skolas iela 11 - 12":{"address":"Skolas iela 11 - 12","city":"Degumnieki","zip":"LV-4833"},"skolas iela 11 - 13":{"address":"Skolas iela 11 - 13","city":"Degumnieki","zip":"LV-4833"},"skolas iela 11 - 14":{"address":"Skolas iela 11 - 14","city":"Degumnieki","zip":"LV-4833"},"skolas iela 11 - 15":{"address":"Skolas iela 11 - 15","city":"Degumnieki","zip":"LV-4833"},"skolas iela 11 - 16":{"address":"Skolas iela 11 - 16","city":"Degumnieki","zip":"LV-4833"},"skolas iela 11 - 17":{"address":"Skolas iela 11 - 17","city":"Degumnieki","zip":"LV-4833"},"skolas iela 11 - 18":{"address":"Skolas iela 11 - 18","city":"Degumnieki","zip":"LV-4833"},"skolas iela 12 - 1":{"address":"Skolas iela 12 - 1","city":"Degumnieki","zip":"LV-4833"},"skolas iela 12 - 2":{"address":"Skolas iela 12 - 2","city":"Degumnieki","zip":"LV-4833"},"skolas iela 12 - 3":{"address":"Skolas iela 12 - 3","city":"Degumnieki","zip":"LV-4833"},"skolas iela 12 - 4":{"address":"Skolas iela 12 - 4","city":"Degumnieki","zip":"LV-4833"},"skolas iela 12 - 6":{"address":"Skolas iela 12 - 6","city":"Degumnieki","zip":"LV-4833"},"skolas iela 12 - 7":{"address":"Skolas iela 12 - 7","city":"Degumnieki","zip":"LV-4833"},"skolas iela 12 - 8":{"address":"Skolas iela 12 - 8","city":"Degumnieki","zip":"LV-4833"},"skolas iela 12 - 9":{"address":"Skolas iela 12 - 9","city":"Degumnieki","zip":"LV-4833"},"skolas iela 12 - 10":{"address":"Skolas iela 12 - 10","city":"Degumnieki","zip":"LV-4833"},"skolas iela 12 - 11":{"address":"Skolas iela 12 - 11","city":"Degumnieki","zip":"LV-4833"},"skolas iela 12 - 12":{"address":"Skolas iela 12 - 12","city":"Degumnieki","zip":"LV-4833"},"skolas iela 12 - 14":{"address":"Skolas iela 12 - 14","city":"Degumnieki","zip":"LV-4833"},"skolas iela 12 - 15":{"address":"Skolas iela 12 - 15","city":"Degumnieki","zip":"LV-4833"},"skolas iela 12 - 16":{"address":"Skolas iela 12 - 16","city":"Degumnieki","zip":"LV-4833"},"skolas iela 12 - 17":{"address":"Skolas iela 12 - 17","city":"Degumnieki","zip":"LV-4833"},"skolas iela 12 - 18":{"address":"Skolas iela 12 - 18","city":"Degumnieki","zip":"LV-4833"},"skolas iela 12 - 13":{"address":"Skolas iela 12 - 13","city":"Degumnieki","zip":"LV-4833"},"skolas iela 12 - 5":{"address":"Skolas iela 12 - 5","city":"Degumnieki","zip":"LV-4833"},"ošupe 3 - 1":{"address":"Ošupe 3 - 1","city":"Ošupe","zip":"LV-4830"},"ošupe 3 - 2":{"address":"Ošupe 3 - 2","city":"Ošupe","zip":"LV-4830"},"ošupe 3 - 3":{"address":"Ošupe 3 - 3","city":"Ošupe","zip":"LV-4830"},"ošupe 3 - 4":{"address":"Ošupe 3 - 4","city":"Ošupe","zip":"LV-4830"},"ošupe 3 - 5":{"address":"Ošupe 3 - 5","city":"Ošupe","zip":"LV-4830"}}