{"paegļu iela 8 - 1":{"address":"Paegļu iela 8 - 1","city":"Vītoliņi","zip":"LV-3017"},"paegļu iela 8 - 2":{"address":"Paegļu iela 8 - 2","city":"Vītoliņi","zip":"LV-3017"},"paegļu iela 8 - 3":{"address":"Paegļu iela 8 - 3","city":"Vītoliņi","zip":"LV-3017"},"paegļu iela 8 - 4":{"address":"Paegļu iela 8 - 4","city":"Vītoliņi","zip":"LV-3017"},"paegļu iela 8 - 5":{"address":"Paegļu iela 8 - 5","city":"Vītoliņi","zip":"LV-3017"},"paegļu iela 8 - 6":{"address":"Paegļu iela 8 - 6","city":"Vītoliņi","zip":"LV-3017"},"paegļu iela 8 - 7":{"address":"Paegļu iela 8 - 7","city":"Vītoliņi","zip":"LV-3017"},"paegļu iela 8 - 8":{"address":"Paegļu iela 8 - 8","city":"Vītoliņi","zip":"LV-3017"},"paegļu iela 4 - 1":{"address":"Paegļu iela 4 - 1","city":"Vītoliņi","zip":"LV-3017"},"paegļu iela 4 - 2":{"address":"Paegļu iela 4 - 2","city":"Vītoliņi","zip":"LV-3017"},"paegļu iela 4 - 3":{"address":"Paegļu iela 4 - 3","city":"Vītoliņi","zip":"LV-3017"},"paegļu iela 4 - 4":{"address":"Paegļu iela 4 - 4","city":"Vītoliņi","zip":"LV-3017"},"paegļu iela 4 - 5":{"address":"Paegļu iela 4 - 5","city":"Vītoliņi","zip":"LV-3017"},"paegļu iela 4 - 6":{"address":"Paegļu iela 4 - 6","city":"Vītoliņi","zip":"LV-3017"},"paegļu iela 4 - 7":{"address":"Paegļu iela 4 - 7","city":"Vītoliņi","zip":"LV-3017"},"paegļu iela 4 - 8":{"address":"Paegļu iela 4 - 8","city":"Vītoliņi","zip":"LV-3017"},"paegļu iela 4 - 9":{"address":"Paegļu iela 4 - 9","city":"Vītoliņi","zip":"LV-3017"},"paegļu iela 4 - 10":{"address":"Paegļu iela 4 - 10","city":"Vītoliņi","zip":"LV-3017"},"paegļu iela 4 - 11":{"address":"Paegļu iela 4 - 11","city":"Vītoliņi","zip":"LV-3017"},"paegļu iela 4 - 12":{"address":"Paegļu iela 4 - 12","city":"Vītoliņi","zip":"LV-3017"},"paegļu iela 6 - 1":{"address":"Paegļu iela 6 - 1","city":"Vītoliņi","zip":"LV-3017"},"paegļu iela 6 - 2":{"address":"Paegļu iela 6 - 2","city":"Vītoliņi","zip":"LV-3017"},"paegļu iela 6 - 3":{"address":"Paegļu iela 6 - 3","city":"Vītoliņi","zip":"LV-3017"},"paegļu iela 6 - 4":{"address":"Paegļu iela 6 - 4","city":"Vītoliņi","zip":"LV-3017"},"paegļu iela 6 - 5":{"address":"Paegļu iela 6 - 5","city":"Vītoliņi","zip":"LV-3017"},"paegļu iela 6 - 6":{"address":"Paegļu iela 6 - 6","city":"Vītoliņi","zip":"LV-3017"},"paegļu iela 6 - 7":{"address":"Paegļu iela 6 - 7","city":"Vītoliņi","zip":"LV-3017"},"paegļu iela 6 - 8":{"address":"Paegļu iela 6 - 8","city":"Vītoliņi","zip":"LV-3017"},"otrās paegļu mājas - 1":{"address":"Otrās Paegļu mājas - 1","city":"Drēņi","zip":"LV-5316"},"otrās paegļu mājas - 2":{"address":"Otrās Paegļu mājas - 2","city":"Drēņi","zip":"LV-5316"},"paegļu iela 16":{"address":"Paegļu iela 16","city":"Vītoliņi","zip":"LV-3017"},"paegļu iela 10":{"address":"Paegļu iela 10","city":"Rāmava","zip":"LV-2111"},"paegļu iela 8":{"address":"Paegļu iela 8","city":"Rāmava","zip":"LV-2111"},"paegļu iela 6":{"address":"Paegļu iela 6","city":"Rāmava","zip":"LV-2111"},"paegļu iela 4":{"address":"Paegļu iela 4","city":"Rāmava","zip":"LV-2111"},"paegļu iela 1":{"address":"Paegļu iela 1","city":"Garciems","zip":"LV-2163"},"paegļu iela 2":{"address":"Paegļu iela 2","city":"Rāmava","zip":"LV-2111"},"paegļu iela 3":{"address":"Paegļu iela 3","city":"Garciems","zip":"LV-2163"},"paegļu iela 5":{"address":"Paegļu iela 5","city":"Garciems","zip":"LV-2163"},"paegļu iela 7":{"address":"Paegļu iela 7","city":"Garciems","zip":"LV-2163"},"paegļu iela 9":{"address":"Paegļu iela 9","city":"Garciems","zip":"LV-2163"},"paegļu iela 11":{"address":"Paegļu iela 11","city":"Garciems","zip":"LV-2163"},"paegļu iela 12":{"address":"Paegļu iela 12","city":"Piņķi","zip":"LV-2107"},"paegļu iela 13":{"address":"Paegļu iela 13","city":"Garciems","zip":"LV-2163"},"paegļu iela 14":{"address":"Paegļu iela 14","city":"Piņķi","zip":"LV-2107"},"paegļu iela 15":{"address":"Paegļu iela 15","city":"Garciems","zip":"LV-2163"},"paegļu iela 17":{"address":"Paegļu iela 17","city":"Garciems","zip":"LV-2163"},"paegļu iela 19":{"address":"Paegļu iela 19","city":"Garciems","zip":"LV-2163"},"paegļu iela 21":{"address":"Paegļu iela 21","city":"Garciems","zip":"LV-2163"}}