{"pagastmāja - 1":{"address":"Pagastmāja - 1","city":"Marientāle","zip":"LV-4612"},"pagastmāja - 2":{"address":"Pagastmāja - 2","city":"Marientāle","zip":"LV-4612"},"pagastmāja - 3":{"address":"Pagastmāja - 3","city":"Marientāle","zip":"LV-4612"},"pagastmāja - 4":{"address":"Pagastmāja - 4","city":"Marientāle","zip":"LV-4612"},"pagastmāja - 5":{"address":"Pagastmāja - 5","city":"Ģibuļi","zip":"LV-3297"},"pagastmāja - 7":{"address":"Pagastmāja - 7","city":"Ģibuļi","zip":"LV-3297"},"pagastmāja - 8":{"address":"Pagastmāja - 8","city":"Ģibuļi","zip":"LV-3297"},"pagastmāja - 6":{"address":"Pagastmāja - 6","city":"Ģibuļi","zip":"LV-3297"},"slates pagastmāja - 1":{"address":"Slates pagastmāja - 1","city":"Slate","zip":"LV-5229"},"slates pagastmāja - 2":{"address":"Slates pagastmāja - 2","city":"Slate","zip":"LV-5229"},"slates pagastmāja - 3":{"address":"Slates pagastmāja - 3","city":"Slate","zip":"LV-5229"},"pagastmāja":{"address":"Pagastmāja","city":"Bebrene","zip":"LV-5439"},"pagastmājas":{"address":"Pagastmājas","city":"Ezernieki","zip":"LV-5692"},"vecā pagastmāja":{"address":"Vecā pagastmāja","city":"Neikšāni","zip":"LV-5677"}}