{"pakalnieši 1 - 1":{"address":"Pakalnieši 1 - 1","city":"Siliņi","zip":"LV-4572"},"pakalnieši 1 - 2":{"address":"Pakalnieši 1 - 2","city":"Siliņi","zip":"LV-4572"},"pakalnieši 1 - 3":{"address":"Pakalnieši 1 - 3","city":"Siliņi","zip":"LV-4572"},"pakalnieši 1 - 4":{"address":"Pakalnieši 1 - 4","city":"Siliņi","zip":"LV-4572"},"pakalnieši 1 - 5":{"address":"Pakalnieši 1 - 5","city":"Siliņi","zip":"LV-4572"},"pakalnieši 1 - 6":{"address":"Pakalnieši 1 - 6","city":"Siliņi","zip":"LV-4572"},"pakalnieši 1 - 7":{"address":"Pakalnieši 1 - 7","city":"Siliņi","zip":"LV-4572"},"pakalnieši 1 - 8":{"address":"Pakalnieši 1 - 8","city":"Siliņi","zip":"LV-4572"},"irbītes 1":{"address":"Irbītes 1","city":"Pakalnieši","zip":"LV-4580"},"kurpnieki":{"address":"Kurpnieki","city":"Pakalnieši","zip":"LV-4580"},"pēdiņas 1":{"address":"Pēdiņas 1","city":"Pakalnieši","zip":"LV-4580"},"pērkoni":{"address":"Pērkoni","city":"Pakalnieši","zip":"LV-4580"},"smilgas":{"address":"Smilgas","city":"Pakalnieši","zip":"LV-4580"},"vītoli":{"address":"Vītoli","city":"Pakalnieši","zip":"LV-4580"},"pakalnieši 1":{"address":"Pakalnieši 1","city":"Kščeva","zip":"LV-5460"},"pakalnieši":{"address":"Pakalnieši","city":"Geinova","zip":"LV-4583"}}