{"pakalniešu mājas - 1":{"address":"Pakalniešu mājas - 1","city":"Pērkoni","zip":"LV-4501"},"pakalniešu mājas - 2":{"address":"Pakalniešu mājas - 2","city":"Pērkoni","zip":"LV-4501"},"pakalniešu mājas - 3":{"address":"Pakalniešu mājas - 3","city":"Pērkoni","zip":"LV-4501"},"pakalniešu mājas - 4":{"address":"Pakalniešu mājas - 4","city":"Pērkoni","zip":"LV-4501"},"pakalniešu mājas - 5":{"address":"Pakalniešu mājas - 5","city":"Pērkoni","zip":"LV-4501"},"pakalniešu mājas":{"address":"Pakalniešu mājas","city":"Pērkoni","zip":"LV-4501"},"pakalniešu iela 2":{"address":"Pakalniešu iela 2","city":"Bukulti","zip":"LV-1024"},"pakalniešu iela 4":{"address":"Pakalniešu iela 4","city":"Bukulti","zip":"LV-1024"},"pakalniešu iela 6":{"address":"Pakalniešu iela 6","city":"Bukulti","zip":"LV-1024"},"pakalniešu iela 8":{"address":"Pakalniešu iela 8","city":"Bukulti","zip":"LV-1024"},"pakalniešu iela 10":{"address":"Pakalniešu iela 10","city":"Bukulti","zip":"LV-1024"},"pakalniešu iela 12":{"address":"Pakalniešu iela 12","city":"Bukulti","zip":"LV-1024"}}