{"pakalnieši 1 - 1":{"address":"Pakalnieši 1 - 1","city":"Siliņi","zip":"LV-4572"},"pakalnieši 1 - 2":{"address":"Pakalnieši 1 - 2","city":"Siliņi","zip":"LV-4572"},"pakalnieši 1 - 3":{"address":"Pakalnieši 1 - 3","city":"Siliņi","zip":"LV-4572"},"pakalnieši 1 - 4":{"address":"Pakalnieši 1 - 4","city":"Siliņi","zip":"LV-4572"},"pakalnieši 1 - 5":{"address":"Pakalnieši 1 - 5","city":"Siliņi","zip":"LV-4572"},"pakalnieši 1 - 6":{"address":"Pakalnieši 1 - 6","city":"Siliņi","zip":"LV-4572"},"pakalnieši 1 - 7":{"address":"Pakalnieši 1 - 7","city":"Siliņi","zip":"LV-4572"},"pakalnieši 1 - 8":{"address":"Pakalnieši 1 - 8","city":"Siliņi","zip":"LV-4572"},"pakalniešu mājas - 1":{"address":"Pakalniešu mājas - 1","city":"Pērkoni","zip":"LV-4501"},"pakalniešu mājas - 2":{"address":"Pakalniešu mājas - 2","city":"Pērkoni","zip":"LV-4501"},"pakalniešu mājas - 3":{"address":"Pakalniešu mājas - 3","city":"Pērkoni","zip":"LV-4501"},"pakalniešu mājas - 4":{"address":"Pakalniešu mājas - 4","city":"Pērkoni","zip":"LV-4501"},"pakalniešu mājas - 5":{"address":"Pakalniešu mājas - 5","city":"Pērkoni","zip":"LV-4501"},"pakalni - 1":{"address":"Pakalni - 1","city":"Tīnūži","zip":"LV-5015"},"pakalni - 2":{"address":"Pakalni - 2","city":"Tīnūži","zip":"LV-5015"},"pakalni - 3":{"address":"Pakalni - 3","city":"Tīnūži","zip":"LV-5015"},"pakalni - 4":{"address":"Pakalni - 4","city":"Tīnūži","zip":"LV-5015"},"pakalniņi - 1":{"address":"Pakalniņi - 1","city":"Sēļi","zip":"LV-4723"},"pakalniņi - 2":{"address":"Pakalniņi - 2","city":"Sēļi","zip":"LV-4723"},"pakalniņi - 3":{"address":"Pakalniņi - 3","city":"Sermīte","zip":"LV-3330"},"pakalniņi - 4":{"address":"Pakalniņi - 4","city":"Sermīte","zip":"LV-3330"},"pakalniņi - 5":{"address":"Pakalniņi - 5","city":"Sermīte","zip":"LV-3330"},"pakalniņi - 6":{"address":"Pakalniņi - 6","city":"Sermīte","zip":"LV-3330"},"pakalniņi - 7":{"address":"Pakalniņi - 7","city":"Sermīte","zip":"LV-3330"},"pakalniņi - 8":{"address":"Pakalniņi - 8","city":"Sermīte","zip":"LV-3330"},"pakalni 3 - 1":{"address":"Pakalni 3 - 1","city":"Krogsils","zip":"LV-2111"},"pakalni 3 - 2":{"address":"Pakalni 3 - 2","city":"Krogsils","zip":"LV-2111"},"irbītes 1":{"address":"Irbītes 1","city":"Pakalnieši","zip":"LV-4580"}}