{"palejas - 1":{"address":"Palejas - 1","city":"Stelpe","zip":"LV-3925"},"palejas - 2":{"address":"Palejas - 2","city":"Stelpe","zip":"LV-3925"},"palejas - 3":{"address":"Palejas - 3","city":"Stelpe","zip":"LV-3925"},"palejas - 4":{"address":"Palejas - 4","city":"Stelpe","zip":"LV-3925"},"palejas - 5":{"address":"Palejas - 5","city":"Stelpe","zip":"LV-3925"},"palejas - 6":{"address":"Palejas - 6","city":"Stelpe","zip":"LV-3925"},"palejas - 7":{"address":"Palejas - 7","city":"Stelpe","zip":"LV-3925"},"palejas - 8":{"address":"Palejas - 8","city":"Stelpe","zip":"LV-3925"},"palejas - 9":{"address":"Palejas - 9","city":"Stelpe","zip":"LV-3925"},"palejas - 10":{"address":"Palejas - 10","city":"Stelpe","zip":"LV-3925"},"palejas - 11":{"address":"Palejas - 11","city":"Stelpe","zip":"LV-3925"},"palejas - 12":{"address":"Palejas - 12","city":"Stelpe","zip":"LV-3925"},"palejas - 13":{"address":"Palejas - 13","city":"Stelpe","zip":"LV-3925"},"palejas - 14":{"address":"Palejas - 14","city":"Stelpe","zip":"LV-3925"},"palejas - 15":{"address":"Palejas - 15","city":"Stelpe","zip":"LV-3925"},"palejas - 16":{"address":"Palejas - 16","city":"Stelpe","zip":"LV-3925"},"palejas - 17":{"address":"Palejas - 17","city":"Stelpe","zip":"LV-3925"},"palejas - 18":{"address":"Palejas - 18","city":"Stelpe","zip":"LV-3925"},"palejas - 19":{"address":"Palejas - 19","city":"Stelpe","zip":"LV-3925"},"palejas - 20":{"address":"Palejas - 20","city":"Stelpe","zip":"LV-3925"},"palejas - 21":{"address":"Palejas - 21","city":"Stelpe","zip":"LV-3925"},"palejas - 22":{"address":"Palejas - 22","city":"Stelpe","zip":"LV-3925"},"palejas - 23":{"address":"Palejas - 23","city":"Stelpe","zip":"LV-3925"},"palejas 1 - 1":{"address":"Palejas 1 - 1","city":"Biksti","zip":"LV-3713"},"palejas 1 - 2":{"address":"Palejas 1 - 2","city":"Biksti","zip":"LV-3713"},"palejas 1 - 3":{"address":"Palejas 1 - 3","city":"Biksti","zip":"LV-3713"},"palejas 1 - 4":{"address":"Palejas 1 - 4","city":"Biksti","zip":"LV-3713"},"palejas 2 - 1":{"address":"Palejas 2 - 1","city":"Biksti","zip":"LV-3713"},"palejas 2 - 2":{"address":"Palejas 2 - 2","city":"Biksti","zip":"LV-3713"},"palejas 2 - 3":{"address":"Palejas 2 - 3","city":"Biksti","zip":"LV-3713"},"palejas 2 - 4":{"address":"Palejas 2 - 4","city":"Biksti","zip":"LV-3713"},"palejas 2 - 5":{"address":"Palejas 2 - 5","city":"Biksti","zip":"LV-3713"},"palejas 2 - 6":{"address":"Palejas 2 - 6","city":"Biksti","zip":"LV-3713"},"palejas 2 - 7":{"address":"Palejas 2 - 7","city":"Biksti","zip":"LV-3713"},"palejas dzirnavas - 1":{"address":"Palejas dzirnavas - 1","city":"Biksti","zip":"LV-3713"},"palejas dzirnavas - 2":{"address":"Palejas dzirnavas - 2","city":"Biksti","zip":"LV-3713"},"palejas dzirnavas - 3":{"address":"Palejas dzirnavas - 3","city":"Biksti","zip":"LV-3713"},"palejas dzirnavas - 4":{"address":"Palejas dzirnavas - 4","city":"Biksti","zip":"LV-3713"},"palejas 3 - 1":{"address":"Palejas 3 - 1","city":"Biksti","zip":"LV-3713"},"palejas 3 - 2":{"address":"Palejas 3 - 2","city":"Biksti","zip":"LV-3713"}}