{"papardes - 1":{"address":"Papardes - 1","city":"Ērģeme","zip":"LV-4711"},"papardes - 2":{"address":"Papardes - 2","city":"Ērģeme","zip":"LV-4711"},"papardes - 3":{"address":"Papardes - 3","city":"Ērģeme","zip":"LV-4711"},"papardes - 4":{"address":"Papardes - 4","city":"Vecbebri","zip":"LV-5135"},"papardes - 5":{"address":"Papardes - 5","city":"Vecbebri","zip":"LV-5135"},"papardes - 6":{"address":"Papardes - 6","city":"Bolūži","zip":"LV-5656"},"papardes - 7":{"address":"Papardes - 7","city":"Bolūži","zip":"LV-5656"},"papardes - 8":{"address":"Papardes - 8","city":"Bolūži","zip":"LV-5656"},"papardes - 9":{"address":"Papardes - 9","city":"Laidi","zip":"LV-3317"},"papardes - 10":{"address":"Papardes - 10","city":"Laidi","zip":"LV-3317"},"papardes - 11":{"address":"Papardes - 11","city":"Laidi","zip":"LV-3317"},"papardes - 12":{"address":"Papardes - 12","city":"Laidi","zip":"LV-3317"},"papardes":{"address":"Papardes","city":"Eriņi","zip":"LV-4240"},"papardes 1":{"address":"Papardes 1","city":"Korneti","zip":"LV-4335"},"papardes 2":{"address":"Papardes 2","city":"Korneti","zip":"LV-4335"},"papardes 3":{"address":"Papardes 3","city":"Korneti","zip":"LV-4335"},"papardes 4":{"address":"Papardes 4","city":"Korneti","zip":"LV-4335"},"papardes 5":{"address":"Papardes 5","city":"Korneti","zip":"LV-4335"},"papardes 6":{"address":"Papardes 6","city":"Korneti","zip":"LV-4335"},"papardes 7":{"address":"Papardes 7","city":"Korneti","zip":"LV-4335"},"papardes 8":{"address":"Papardes 8","city":"Korneti","zip":"LV-4335"},"papardes 9":{"address":"Papardes 9","city":"Korneti","zip":"LV-4335"},"papardes 10":{"address":"Papardes 10","city":"Korneti","zip":"LV-4335"},"papardes 11":{"address":"Papardes 11","city":"Korneti","zip":"LV-4335"},"papardes 12":{"address":"Papardes 12","city":"Korneti","zip":"LV-4335"},"papardes 14":{"address":"Papardes 14","city":"Korneti","zip":"LV-4335"},"papardes 15":{"address":"Papardes 15","city":"Korneti","zip":"LV-4335"},"papardes 16":{"address":"Papardes 16","city":"Korneti","zip":"LV-4335"},"papardes 17":{"address":"Papardes 17","city":"Korneti","zip":"LV-4335"},"papardes 18":{"address":"Papardes 18","city":"Korneti","zip":"LV-4335"},"papardes 19":{"address":"Papardes 19","city":"Korneti","zip":"LV-4335"},"papardes 20":{"address":"Papardes 20","city":"Korneti","zip":"LV-4335"},"papardes 21":{"address":"Papardes 21","city":"Korneti","zip":"LV-4335"},"papardes 22":{"address":"Papardes 22","city":"Korneti","zip":"LV-4335"},"papardes 23":{"address":"Papardes 23","city":"Korneti","zip":"LV-4335"},"papardes 24":{"address":"Papardes 24","city":"Korneti","zip":"LV-4335"},"papardes 25":{"address":"Papardes 25","city":"Korneti","zip":"LV-4335"},"papardes 26":{"address":"Papardes 26","city":"Korneti","zip":"LV-4335"},"papardes 27":{"address":"Papardes 27","city":"Korneti","zip":"LV-4335"},"papardes 28":{"address":"Papardes 28","city":"Korneti","zip":"LV-4335"},"papardes 29":{"address":"Papardes 29","city":"Korneti","zip":"LV-4335"},"papardes 30":{"address":"Papardes 30","city":"Korneti","zip":"LV-4335"},"papardes 31":{"address":"Papardes 31","city":"Korneti","zip":"LV-4335"}}