{"sējas pils parks - 1":{"address":"Sējas pils parks - 1","city":"Sēja","zip":"LV-2142"},"sējas pils parks - 2":{"address":"Sējas pils parks - 2","city":"Sēja","zip":"LV-2142"},"sējas pils parks - 3":{"address":"Sējas pils parks - 3","city":"Sēja","zip":"LV-2142"},"sējas pils parks - 4":{"address":"Sējas pils parks - 4","city":"Sēja","zip":"LV-2142"},"sējas pils parks":{"address":"Sējas pils parks","city":"Sēja","zip":"LV-2142"},"parks":{"address":"Parks","city":"Baltmuiža","zip":"LV-5450"},"vitas parks":{"address":"Vitas parks","city":"Pape","zip":"LV-3477"},"biznesa parks":{"address":"Biznesa Parks","city":"Stūnīši","zip":"LV-2127"},"industrālais parks":{"address":"Industrālais Parks","city":"Stūnīši","zip":"LV-2127"},"industriālais parks":{"address":"Industriālais parks","city":"Vītoliņi","zip":"LV-3017"},"industriālais parks elektra":{"address":"Industriālais parks Elektra","city":"Jaudzemi","zip":"LV-5316"},"bmx parks":{"address":"BMX Parks","city":"Valmiermuiža","zip":"LV-4219"},"vladas un aleksandras parks":{"address":"Vladas un Aleksandras parks","city":"Pērnciems","zip":"LV-2105"},"skolas parks":{"address":"Skolas parks","city":"Pēternieki","zip":"LV-2127"},"zaļais parks":{"address":"Zaļais parks","city":"Šķaune","zip":"LV-5695"},"muižas parks":{"address":"Muižas Parks","city":"Astašova","zip":"LV-5687"},"liepu parks":{"address":"Liepu parks","city":"Baltais Dukstigals","zip":"LV-4617"}}