{"pavasaris ol 69":{"address":"Pavasaris OL 69","city":"Virši","zip":"LV-2127"},"pavasaris ol 106":{"address":"Pavasaris OL 106","city":"Virši","zip":"LV-2127"},"pavasaris ol 127":{"address":"Pavasaris OL 127","city":"Virši","zip":"LV-2127"},"pavasaris ol 195":{"address":"Pavasaris OL 195","city":"Virši","zip":"LV-2127"},"pavasaris ol 101":{"address":"Pavasaris OL 101","city":"Virši","zip":"LV-2127"},"pavasaris ol 96":{"address":"Pavasaris OL 96","city":"Virši","zip":"LV-2127"},"pavasaris ol 92":{"address":"Pavasaris OL 92","city":"Virši","zip":"LV-2127"},"pavasaris ol 76":{"address":"Pavasaris OL 76","city":"Virši","zip":"LV-2127"},"pavasaris ol 162":{"address":"Pavasaris OL 162","city":"Virši","zip":"LV-2127"},"pavasaris ol 85":{"address":"Pavasaris OL 85","city":"Virši","zip":"LV-2127"},"pavasaris ol 227":{"address":"Pavasaris OL 227","city":"Virši","zip":"LV-2127"},"pavasaris ol 86":{"address":"Pavasaris OL 86","city":"Virši","zip":"LV-2127"},"pavasaris ol 159":{"address":"Pavasaris OL 159","city":"Virši","zip":"LV-2127"},"pavasaris ol 184":{"address":"Pavasaris OL 184","city":"Virši","zip":"LV-2127"},"pavasaris ol 153":{"address":"Pavasaris OL 153","city":"Virši","zip":"LV-2127"},"pavasaris ol 209":{"address":"Pavasaris OL 209","city":"Virši","zip":"LV-2127"},"pavasaris ol 113":{"address":"Pavasaris OL 113","city":"Virši","zip":"LV-2127"},"pavasaris ol 66":{"address":"Pavasaris OL 66","city":"Virši","zip":"LV-2127"},"pavasaris ol 163":{"address":"Pavasaris OL 163","city":"Virši","zip":"LV-2127"},"pavasaris ol 174":{"address":"Pavasaris OL 174","city":"Virši","zip":"LV-2127"},"pavasaris ol 56":{"address":"Pavasaris OL 56","city":"Virši","zip":"LV-2127"},"pavasaris ol 188":{"address":"Pavasaris OL 188","city":"Virši","zip":"LV-2127"},"pavasaris ol 70":{"address":"Pavasaris OL 70","city":"Virši","zip":"LV-2127"},"pavasaris ol 81":{"address":"Pavasaris OL 81","city":"Virši","zip":"LV-2127"},"pavasaris ol 167":{"address":"Pavasaris OL 167","city":"Virši","zip":"LV-2127"},"pavasaris ol 157":{"address":"Pavasaris OL 157","city":"Virši","zip":"LV-2127"},"pavasaris ol 144":{"address":"Pavasaris OL 144","city":"Virši","zip":"LV-2127"},"pavasaris-ol 44":{"address":"Pavasaris-OL 44","city":"Virši","zip":"LV-2127"},"pavasaris ol 118":{"address":"Pavasaris OL 118","city":"Virši","zip":"LV-2127"},"pavasaris ol 142":{"address":"Pavasaris OL 142","city":"Virši","zip":"LV-2127"},"pavasaris ol 187":{"address":"Pavasaris OL 187","city":"Virši","zip":"LV-2127"},"pavasaris ol 230":{"address":"Pavasaris OL 230","city":"Virši","zip":"LV-2127"},"pavasaris ol 77":{"address":"Pavasaris OL 77","city":"Virši","zip":"LV-2127"},"pavasaris ol 154":{"address":"Pavasaris OL 154","city":"Virši","zip":"LV-2127"},"pavasaris ol 99":{"address":"Pavasaris OL 99","city":"Virši","zip":"LV-2127"},"pavasaris ol 53":{"address":"Pavasaris OL 53","city":"Virši","zip":"LV-2127"},"pavasaris ol 166":{"address":"Pavasaris OL 166","city":"Virši","zip":"LV-2127"},"pavasaris ol 215":{"address":"Pavasaris OL 215","city":"Virši","zip":"LV-2127"},"pavasaris ol 83":{"address":"Pavasaris OL 83","city":"Virši","zip":"LV-2127"},"pavasaris ol 111":{"address":"Pavasaris OL 111","city":"Virši","zip":"LV-2127"},"pavasaris ol 64":{"address":"Pavasaris OL 64","city":"Virši","zip":"LV-2127"},"pavasaris ol 160":{"address":"Pavasaris OL 160","city":"Virši","zip":"LV-2127"},"pavasaris ol 186/190":{"address":"Pavasaris OL 186/190","city":"Virši","zip":"LV-2127"},"pavasaris ol 73":{"address":"Pavasaris OL 73","city":"Virši","zip":"LV-2127"},"pavasaris ol 152":{"address":"Pavasaris OL 152","city":"Virši","zip":"LV-2127"},"pavasaris ol 143":{"address":"Pavasaris OL 143","city":"Virši","zip":"LV-2127"},"pavasaris ol 137":{"address":"Pavasaris OL 137","city":"Virši","zip":"LV-2127"},"pavasaris ol 148":{"address":"Pavasaris OL 148","city":"Virši","zip":"LV-2127"},"pavasaris ol 52":{"address":"Pavasaris OL 52","city":"Virši","zip":"LV-2127"},"pavasaris ol 210":{"address":"Pavasaris OL 210","city":"Virši","zip":"LV-2127"},"pavasaris ol 202":{"address":"Pavasaris OL 202","city":"Virši","zip":"LV-2127"},"pavasaris ol 180":{"address":"Pavasaris OL 180","city":"Virši","zip":"LV-2127"},"pavasaris ol 224":{"address":"Pavasaris OL 224","city":"Virši","zip":"LV-2127"},"pavasaris ol 140":{"address":"Pavasaris OL 140","city":"Virši","zip":"LV-2127"},"pavasaris ol 65":{"address":"Pavasaris OL 65","city":"Virši","zip":"LV-2127"},"pavasaris ol 51":{"address":"Pavasaris OL 51","city":"Virši","zip":"LV-2127"},"pavasaris ol 149":{"address":"Pavasaris OL 149","city":"Virši","zip":"LV-2127"},"pavasaris ol 189":{"address":"Pavasaris OL 189","city":"Virši","zip":"LV-2127"},"pavasaris ol 219":{"address":"Pavasaris OL 219","city":"Virši","zip":"LV-2127"},"pavasaris ol 158":{"address":"Pavasaris OL 158","city":"Virši","zip":"LV-2127"},"pavasaris ol 136":{"address":"Pavasaris OL 136","city":"Virši","zip":"LV-2127"},"pavasaris ol 62":{"address":"Pavasaris OL 62","city":"Virši","zip":"LV-2127"},"pavasaris ol 205":{"address":"Pavasaris OL 205","city":"Virši","zip":"LV-2127"},"pavasaris ol 61":{"address":"Pavasaris OL 61","city":"Virši","zip":"LV-2127"},"pavasaris ol 59":{"address":"Pavasaris OL 59","city":"Virši","zip":"LV-2127"},"pavasaris ol 110":{"address":"Pavasaris OL 110","city":"Virši","zip":"LV-2127"},"pavasaris ol 124":{"address":"Pavasaris OL 124","city":"Virši","zip":"LV-2127"},"pavasaris ol 119":{"address":"Pavasaris OL 119","city":"Virši","zip":"LV-2127"},"pavasaris ol 181":{"address":"Pavasaris OL 181","city":"Virši","zip":"LV-2127"},"pavasaris ol 55":{"address":"Pavasaris OL 55","city":"Virši","zip":"LV-2127"},"pavasaris ol 179":{"address":"Pavasaris OL 179","city":"Virši","zip":"LV-2127"},"pavasaris ol 201":{"address":"Pavasaris OL 201","city":"Virši","zip":"LV-2127"},"pavasaris ol 131":{"address":"Pavasaris OL 131","city":"Virši","zip":"LV-2127"},"pavasaris ol 60":{"address":"Pavasaris OL 60","city":"Virši","zip":"LV-2127"},"pavasaris ol 199":{"address":"Pavasaris OL 199","city":"Virši","zip":"LV-2127"},"pavasaris ol 138":{"address":"Pavasaris OL 138","city":"Virši","zip":"LV-2127"},"pavasaris ol 221":{"address":"Pavasaris OL 221","city":"Virši","zip":"LV-2127"},"pavasaris ol 150":{"address":"Pavasaris OL 150","city":"Virši","zip":"LV-2127"},"pavasaris ol 203/204":{"address":"Pavasaris OL 203/204","city":"Virši","zip":"LV-2127"},"pavasaris-ol 218":{"address":"Pavasaris-OL 218","city":"Virši","zip":"LV-2127"},"pavasaris ol 191":{"address":"Pavasaris OL 191","city":"Virši","zip":"LV-2127"},"pavasaris ol 206":{"address":"Pavasaris OL 206","city":"Virši","zip":"LV-2127"},"pavasaris ol 151":{"address":"Pavasaris OL 151","city":"Virši","zip":"LV-2127"},"pavasaris ol 129":{"address":"Pavasaris OL 129","city":"Virši","zip":"LV-2127"},"pavasaris ol 156":{"address":"Pavasaris OL 156","city":"Virši","zip":"LV-2127"},"pavasaris ol 88":{"address":"Pavasaris OL 88","city":"Virši","zip":"LV-2127"},"pavasaris ol 146":{"address":"Pavasaris OL 146","city":"Virši","zip":"LV-2127"},"pavasaris ol 226":{"address":"Pavasaris OL 226","city":"Virši","zip":"LV-2127"},"pavasaris ol 141":{"address":"Pavasaris OL 141","city":"Virši","zip":"LV-2127"},"pavasaris ol 196":{"address":"Pavasaris OL 196","city":"Virši","zip":"LV-2127"},"pavasaris ol 139":{"address":"Pavasaris OL 139","city":"Virši","zip":"LV-2127"},"pavasaris ol 128":{"address":"Pavasaris OL 128","city":"Virši","zip":"LV-2127"},"pavasaris ol 170":{"address":"Pavasaris OL 170","city":"Virši","zip":"LV-2127"},"pavasaris ol 114":{"address":"Pavasaris OL 114","city":"Virši","zip":"LV-2127"},"pavasaris ol 130":{"address":"Pavasaris OL 130","city":"Virši","zip":"LV-2127"},"pavasaris ol 102":{"address":"Pavasaris OL 102","city":"Virši","zip":"LV-2127"},"pavasaris ol 212":{"address":"Pavasaris OL 212","city":"Virši","zip":"LV-2127"},"pavasaris ol 121":{"address":"Pavasaris OL 121","city":"Virši","zip":"LV-2127"},"pavasaris ol 182":{"address":"Pavasaris OL 182","city":"Virši","zip":"LV-2127"},"pavasaris ol 82":{"address":"Pavasaris OL 82","city":"Virši","zip":"LV-2127"}}