{"pipari - 7":{"address":"Pipari - 7","city":"Kārļmuiža","zip":"LV-3270"},"ruskuļi - 1":{"address":"Ruskuļi - 1","city":"Pipari","zip":"LV-5443"},"ruskuļi - 2":{"address":"Ruskuļi - 2","city":"Pipari","zip":"LV-5443"},"pipari":{"address":"Pipari","city":"Krīviņi","zip":"LV-5601"},"pipariņi":{"address":"Pipariņi","city":"Lielkangari","zip":"LV-2135"},"pipariņš":{"address":"Pipariņš","city":"Zapoļniki","zip":"LV-5651"},"bebri":{"address":"Bebri","city":"Pipari","zip":"LV-5443"},"deļa kolns":{"address":"Deļa Kolns","city":"Pipari","zip":"LV-5443"},"dzeguzes":{"address":"Dzeguzes","city":"Pipari","zip":"LV-5443"},"kastaņi":{"address":"Kastaņi","city":"Pipari","zip":"LV-5443"},"krustceļi":{"address":"Krustceļi","city":"Pipari","zip":"LV-5443"},"līči":{"address":"Līči","city":"Pipari","zip":"LV-5443"},"mālaine":{"address":"Mālaine","city":"Pipari","zip":"LV-5443"},"atvari":{"address":"Atvari","city":"Pipari","zip":"LV-5443"},"kalnieši":{"address":"Kalnieši","city":"Pipari","zip":"LV-5443"},"ruskuļi":{"address":"Ruskuļi","city":"Pipari","zip":"LV-5443"}}