{"pirmie purviņi":{"address":"Pirmie Purviņi","city":"Maremonts","zip":"LV-4601"},"pirmie aužguļāni":{"address":"Pirmie Aužguļāni","city":"Aužguļāni","zip":"LV-5456"},"cielavkalns":{"address":"Cielavkalns","city":"Pirmie Vucāni","zip":"LV-5305"},"pirmie noviki":{"address":"Pirmie Noviki","city":"Senčati","zip":"LV-5707"},"pirmie lapseņi":{"address":"Pirmie Lapseņi","city":"Reiki","zip":"LV-5707"},"pirmie vizbuļi":{"address":"Pirmie Vizbuļi","city":"Lielā Pīkova","zip":"LV-5707"},"pirmie purvmaļi":{"address":"Pirmie Purvmaļi","city":"Šuškova","zip":"LV-5711"},"sparāni":{"address":"Sparāni","city":"Pirmie Sparāni","zip":"LV-5305"},"pirmie liepkalni":{"address":"Pirmie Liepkalni","city":"Birkineļi","zip":"LV-5449"},"pirmie medņi":{"address":"Pirmie Medņi","city":"Muitas","zip":"LV-5449"},"pirmie stivrenieki":{"address":"Pirmie Stivrenieki","city":"Stivrenieki","zip":"LV-5337"},"pirmie lupstāji":{"address":"Pirmie Lupstāji","city":"Lipuški","zip":"LV-5334"},"pirmie alksnīši":{"address":"Pirmie Alksnīši","city":"Mālnieki","zip":"LV-5327"},"pirmie ņesterovi":{"address":"Pirmie Ņesterovi","city":"Kurnalina","zip":"LV-5733"},"pirmie olūti":{"address":"Pirmie Olūti","city":"Mazie Kukuļi","zip":"LV-5733"},"pirmie kalnāji":{"address":"Pirmie Kalnāji","city":"Ņukši","zip":"LV-5730"},"pirmie božki":{"address":"Pirmie Božki","city":"Garanu Šķaune","zip":"LV-5711"},"pirmie kalni":{"address":"Pirmie Kalni","city":"Riuseņi","zip":"LV-5748"},"pirmie audzeļi":{"address":"Pirmie Audzeļi","city":"Vecslabada","zip":"LV-5748"},"pirmie iļjusi":{"address":"Pirmie Iļjusi","city":"Iļjusi","zip":"LV-5722"},"virsaiši":{"address":"Virsaiši","city":"Pirmie Sparāni","zip":"LV-5305"},"gaujenieki":{"address":"Gaujenieki","city":"Pirmie Zīmeļi","zip":"LV-5305"},"brīvkalni":{"address":"Brīvkalni","city":"Pirmie Garkalni","zip":"LV-5305"},"jaunpienenes":{"address":"Jaunpienenes","city":"Pirmie Garkalni","zip":"LV-5305"},"lazdiņas":{"address":"Lazdiņas","city":"Pirmie Zīmeļi","zip":"LV-5305"},"lāču purvi":{"address":"Lāču purvi","city":"Pirmie Zukuliški","zip":"LV-5671"},"algādži":{"address":"Algādži","city":"Pirmie Boki","zip":"LV-5716"},"dīķīši":{"address":"Dīķīši","city":"Pirmie Zukuliški","zip":"LV-5671"},"indrāni":{"address":"Indrāni","city":"Pirmie Zukuliški","zip":"LV-5671"},"jāņu sētas":{"address":"Jāņu sētas","city":"Pirmie Zukuliški","zip":"LV-5671"},"pamales":{"address":"Pamales","city":"Pirmie Zukuliški","zip":"LV-5671"},"upītes":{"address":"Upītes","city":"Pirmie Zukuliški","zip":"LV-5671"},"ziedlapas":{"address":"Ziedlapas","city":"Pirmie Zukuliški","zip":"LV-5671"},"baloži":{"address":"Baloži","city":"Pirmie Tračumi","zip":"LV-5601"},"braslas":{"address":"Braslas","city":"Pirmie Tračumi","zip":"LV-5601"},"kūlas":{"address":"Kūlas","city":"Pirmie Tračumi","zip":"LV-5601"},"liniņi":{"address":"Liniņi","city":"Pirmie Tračumi","zip":"LV-5601"},"liniņi 1":{"address":"Liniņi 1","city":"Pirmie Tračumi","zip":"LV-5601"},"pūpēži":{"address":"Pūpēži","city":"Pirmie Tračumi","zip":"LV-5601"},"kārkli":{"address":"Kārkli","city":"Pirmie Vingri","zip":"LV-5477"},"vingri":{"address":"Vingri","city":"Pirmie Vingri","zip":"LV-5477"},"vingri 1":{"address":"Vingri 1","city":"Pirmie Vingri","zip":"LV-5477"},"pirmie ezeri":{"address":"Pirmie Ezeri","city":"Guta","zip":"LV-5438"},"oši":{"address":"Oši","city":"Pirmie Prīkuļi","zip":"LV-5318"},"pirmie ozoliņi":{"address":"Pirmie Ozoliņi","city":"Priževoiti","zip":"LV-5311"},"jasmīni":{"address":"Jasmīni","city":"Pirmie Garkalni","zip":"LV-5305"},"kukori":{"address":"Kukori","city":"Pirmie Garkalni","zip":"LV-5305"},"dauguļi":{"address":"Dauguļi","city":"Pirmie Pastari","zip":"LV-5305"},"antoni":{"address":"Antoni","city":"Pirmie Pastari","zip":"LV-5305"},"alksnīši":{"address":"Alksnīši","city":"Pirmie Džeriņi","zip":"LV-5305"},"bērziņi":{"address":"Bērziņi","city":"Pirmie Džeriņi","zip":"LV-5305"},"džeriņi":{"address":"Džeriņi","city":"Pirmie Džeriņi","zip":"LV-5305"},"jāņkalns":{"address":"Jāņkalns","city":"Pirmie Vucāni","zip":"LV-5305"},"jaunaudzītes":{"address":"Jaunaudzītes","city":"Pirmie Džeriņi","zip":"LV-5305"},"mežaugi":{"address":"Mežaugi","city":"Pirmie Džeriņi","zip":"LV-5305"},"garkalni":{"address":"Garkalni","city":"Pirmie Garkalni","zip":"LV-5305"},"pastari":{"address":"Pastari","city":"Pirmie Pastari","zip":"LV-5305"},"tīrelieši":{"address":"Tīrelieši","city":"Pirmie Pastari","zip":"LV-5305"},"zīlītes":{"address":"Zīlītes","city":"Pirmie Pastari","zip":"LV-5305"},"medulāji":{"address":"Medulāji","city":"Pirmie Sparāni","zip":"LV-5305"},"miķelīši":{"address":"Miķelīši","city":"Pirmie Sparāni","zip":"LV-5305"},"buduļi":{"address":"Buduļi","city":"Pirmie Vucāni","zip":"LV-5305"},"kalnsēta":{"address":"Kalnsēta","city":"Pirmie Vucāni","zip":"LV-5305"},"kraujas":{"address":"Kraujas","city":"Pirmie Vucāni","zip":"LV-5305"},"pļavnieki":{"address":"Pļavnieki","city":"Pirmie Vucāni","zip":"LV-5305"},"sidrabiņi":{"address":"Sidrabiņi","city":"Pirmie Vucāni","zip":"LV-5305"},"sniedzes":{"address":"Sniedzes","city":"Pirmie Vucāni","zip":"LV-5305"},"bērzulejas":{"address":"Bērzulejas","city":"Pirmie Zīmeļi","zip":"LV-5305"},"dziedoņi":{"address":"Dziedoņi","city":"Pirmie Zīmeļi","zip":"LV-5305"},"grīvupes":{"address":"Grīvupes","city":"Pirmie Zīmeļi","zip":"LV-5305"},"kalnasāta":{"address":"Kalnasāta","city":"Pirmie Zīmeļi","zip":"LV-5305"},"liepas":{"address":"Liepas","city":"Pirmie Zīmeļi","zip":"LV-5305"},"zīmeļi":{"address":"Zīmeļi","city":"Pirmie Zīmeļi","zip":"LV-5305"},"krauklīši":{"address":"Krauklīši","city":"Pirmie Vucāni","zip":"LV-5305"},"atvari":{"address":"Atvari","city":"Pirmie Bluzmi","zip":"LV-5301"},"kivlenieki":{"address":"Kivlenieki","city":"Pirmie Bluzmi","zip":"LV-5301"},"zelteņi":{"address":"Zelteņi","city":"Pirmie Bluzmi","zip":"LV-5301"},"bitenes":{"address":"Bitenes","city":"Pirmie Škierbinīki","zip":"LV-4619"},"garšāni":{"address":"Garšāni","city":"Pirmie Škierbinīki","zip":"LV-4619"},"kaktiņi":{"address":"Kaktiņi","city":"Pirmie Škierbinīki","zip":"LV-4619"},"kalēji":{"address":"Kalēji","city":"Pirmie Škierbinīki","zip":"LV-4619"},"kalniņi":{"address":"Kalniņi","city":"Pirmie Škierbinīki","zip":"LV-4619"},"koteņi":{"address":"Koteņi","city":"Pirmie Škierbinīki","zip":"LV-4619"},"pliksteņi":{"address":"Pliksteņi","city":"Pirmie Škierbinīki","zip":"LV-4619"},"putrinīki":{"address":"Putrinīki","city":"Pirmie Škierbinīki","zip":"LV-4619"},"ūzuļnīki":{"address":"Ūzuļnīki","city":"Pirmie Škierbinīki","zip":"LV-4619"}}