{"pirmās mežsētas - 1":{"address":"Pirmās Mežsētas - 1","city":"Jaunsaimnieki","zip":"LV-5301"},"pirmās mežsētas - 2":{"address":"Pirmās Mežsētas - 2","city":"Jaunsaimnieki","zip":"LV-5301"},"pirmās mežsētas - 3":{"address":"Pirmās Mežsētas - 3","city":"Jaunsaimnieki","zip":"LV-5301"},"pirmās mežsētas - 4":{"address":"Pirmās Mežsētas - 4","city":"Jaunsaimnieki","zip":"LV-5301"},"pirmās mežsētas - 5":{"address":"Pirmās Mežsētas - 5","city":"Jaunsaimnieki","zip":"LV-5301"},"pirmās mežsētas - 6":{"address":"Pirmās Mežsētas - 6","city":"Jaunsaimnieki","zip":"LV-5301"},"pirmās mežsētas - 7":{"address":"Pirmās Mežsētas - 7","city":"Jaunsaimnieki","zip":"LV-5301"},"pirmās mežsētas - 8":{"address":"Pirmās Mežsētas - 8","city":"Jaunsaimnieki","zip":"LV-5301"},"pirmās rubuļmājas":{"address":"Pirmās rubuļmājas","city":"Greivuļi","zip":"LV-4604"},"pirmās ozollapas":{"address":"Pirmās ozollapas","city":"Inčuki","zip":"LV-4612"},"pirmās pļaviņas":{"address":"Pirmās pļaviņas","city":"Soltā","zip":"LV-4628"},"pirmās augšupes":{"address":"Pirmās Augšupes","city":"Augšmukti","zip":"LV-5325"},"pirmās lieldruvas":{"address":"Pirmās Lieldruvas","city":"Lakauski","zip":"LV-5323"},"sakarnieki":{"address":"Sakarnieki","city":"Pirmās Drankas","zip":"LV-4652"},"pirmās vecvietas":{"address":"Pirmās Vecvietas","city":"Lipuški","zip":"LV-5334"},"pirmās māriņu mājas":{"address":"Pirmās Māriņu mājas","city":"Ragaviki","zip":"LV-5334"},"pirmās paegļu mājas":{"address":"Pirmās Paegļu mājas","city":"Rubeņkalns","zip":"LV-5328"},"pirmās upmājas":{"address":"Pirmās Upmājas","city":"Raki","zip":"LV-5733"},"pirmās lazdas":{"address":"Pirmās Lazdas","city":"Staromeļņica","zip":"LV-5733"},"pirmās sakšas":{"address":"Pirmās Sakšas","city":"Vertulova","zip":"LV-5739"},"pirmās vasariņas":{"address":"Pirmās Vasariņas","city":"Osinovka","zip":"LV-5711"},"pirmās mežsētas":{"address":"Pirmās Mežsētas","city":"Jaunsaimnieki","zip":"LV-5301"},"birztalas":{"address":"Birztalas","city":"Pirmās Drankas","zip":"LV-4652"},"dravas":{"address":"Dravas","city":"Pirmās Drankas","zip":"LV-4652"},"ozoliņi":{"address":"Ozoliņi","city":"Pirmās Drankas","zip":"LV-4652"},"ozolmājas":{"address":"Ozolmājas","city":"Pirmās Drankas","zip":"LV-4652"}}