{"platači - 1":{"address":"Platači - 1","city":"Ezernieki","zip":"LV-5692"},"platači - 2":{"address":"Platači - 2","city":"Ezernieki","zip":"LV-5692"},"platači":{"address":"Platači","city":"Platači","zip":"LV-4601"},"pēterīši":{"address":"Pēterīši","city":"Platači","zip":"LV-5656"},"solveigas":{"address":"Solveigas","city":"Platači","zip":"LV-5656"},"mežavidi":{"address":"Mežavidi","city":"Platači","zip":"LV-5733"},"asteres":{"address":"Asteres","city":"Platači","zip":"LV-5733"},"rasa":{"address":"Rasa","city":"Platači","zip":"LV-5733"},"rudeņi":{"address":"Rudeņi","city":"Platači","zip":"LV-5733"},"samti":{"address":"Samti","city":"Platači","zip":"LV-5733"},"sirsniņas":{"address":"Sirsniņas","city":"Platači","zip":"LV-5733"},"strautiņi":{"address":"Strautiņi","city":"Platači","zip":"LV-5733"},"tālumi":{"address":"Tālumi","city":"Platači","zip":"LV-5733"},"zīmītes":{"address":"Zīmītes","city":"Platači","zip":"LV-5733"},"irbenāji":{"address":"Irbenāji","city":"Platači","zip":"LV-5733"},"loretas":{"address":"Loretas","city":"Platači","zip":"LV-5733"},"lazdas":{"address":"Lazdas","city":"Platači","zip":"LV-5696"},"leiči":{"address":"Leiči","city":"Platači","zip":"LV-5696"},"ābeļdārzi":{"address":"Ābeļdārzi","city":"Platači","zip":"LV-5656"},"celmiņi":{"address":"Celmiņi","city":"Platači","zip":"LV-5656"},"kļavas":{"address":"Kļavas","city":"Platači","zip":"LV-5656"},"keidāni":{"address":"Keidāni","city":"Platači","zip":"LV-4601"},"lejas":{"address":"Lejas","city":"Platači","zip":"LV-4601"},"lejas 2":{"address":"Lejas 2","city":"Platači","zip":"LV-4601"},"mežvidi":{"address":"Mežvidi","city":"Platači","zip":"LV-4601"},"mokuļi":{"address":"Mokuļi","city":"Platači","zip":"LV-4601"},"saulkalns":{"address":"Saulkalns","city":"Platači","zip":"LV-4601"},"skrebi":{"address":"Skrebi","city":"Platači","zip":"LV-4601"},"topoli":{"address":"Topoli","city":"Platači","zip":"LV-4601"},"ulāni":{"address":"Ulāni","city":"Platači","zip":"LV-4601"},"vilnīši":{"address":"Vilnīši","city":"Platači","zip":"LV-4601"},"zaļoni":{"address":"Zaļoni","city":"Platači","zip":"LV-4601"},"arāju mājas":{"address":"Arāju mājas","city":"Platači","zip":"LV-4601"},"ausekļi":{"address":"Ausekļi","city":"Platači","zip":"LV-4601"},"avoti":{"address":"Avoti","city":"Platači","zip":"LV-4601"},"dekšņi":{"address":"Dekšņi","city":"Platači","zip":"LV-4601"},"gabrusāni":{"address":"Gabrusāni","city":"Platači","zip":"LV-4601"}}