{"plieņciema kaijas - 3":{"address":"Plieņciema Kaijas - 3","city":"Plieņciems","zip":"LV-3113"},"plieņciema kaijas - 4":{"address":"Plieņciema Kaijas - 4","city":"Plieņciems","zip":"LV-3113"},"plieņciema kaijas - 5":{"address":"Plieņciema Kaijas - 5","city":"Plieņciems","zip":"LV-3113"},"plieņciema kaijas - 6":{"address":"Plieņciema Kaijas - 6","city":"Plieņciems","zip":"LV-3113"},"plieņciema kaijas - 1":{"address":"Plieņciema Kaijas - 1","city":"Plieņciems","zip":"LV-3113"},"plieņciema kaijas - 2":{"address":"Plieņciema Kaijas - 2","city":"Plieņciems","zip":"LV-3113"},"plieņciema airītes":{"address":"Plieņciema Airītes","city":"Plieņciems","zip":"LV-3113"},"plieņciema bumburi":{"address":"Plieņciema Bumburi","city":"Plieņciems","zip":"LV-3113"},"plieņciema cehs":{"address":"Plieņciema cehs","city":"Plieņciems","zip":"LV-3113"},"plieņciema kaijas":{"address":"Plieņciema Kaijas","city":"Plieņciems","zip":"LV-3113"},"plieņciema kuģenieki":{"address":"Plieņciema Kuģenieki","city":"Plieņciems","zip":"LV-3113"},"plieņciema mežvidi":{"address":"Plieņciema Mežvidi","city":"Plieņciems","zip":"LV-3113"},"plieņciema pīlādzīši":{"address":"Plieņciema Pīlādzīši","city":"Plieņciems","zip":"LV-3113"},"plieņciema plunči":{"address":"Plieņciema Plunči","city":"Plieņciems","zip":"LV-3113"},"plieņciema priedītes":{"address":"Plieņciema Priedītes","city":"Plieņciems","zip":"LV-3113"},"plieņciema tiltiņi":{"address":"Plieņciema Tiltiņi","city":"Plieņciems","zip":"LV-3113"},"plieņciema iela 29":{"address":"Plieņciema iela 29","city":"Mārupe","zip":"LV-2167"},"plieņciema iela 29a":{"address":"Plieņciema iela 29A","city":"Mārupe","zip":"LV-2167"},"plieņciema iela 30":{"address":"Plieņciema iela 30","city":"Mārupe","zip":"LV-2167"},"plieņciema iela 31":{"address":"Plieņciema iela 31","city":"Mārupe","zip":"LV-2167"},"plieņciema iela 34":{"address":"Plieņciema iela 34","city":"Mārupe","zip":"LV-2167"},"plieņciema iela 35":{"address":"Plieņciema iela 35","city":"Mārupe","zip":"LV-2167"},"plieņciema iela 36":{"address":"Plieņciema iela 36","city":"Mārupe","zip":"LV-2167"},"plieņciema iela 24":{"address":"Plieņciema iela 24","city":"Mārupe","zip":"LV-2167"},"plieņciema iela 5":{"address":"Plieņciema iela 5","city":"Mārupe","zip":"LV-2167"},"plieņciema iela 25a":{"address":"Plieņciema iela 25A","city":"Mārupe","zip":"LV-2167"},"plieņciema iela 26":{"address":"Plieņciema iela 26","city":"Mārupe","zip":"LV-2167"},"plieņciema iela 27":{"address":"Plieņciema iela 27","city":"Mārupe","zip":"LV-2167"},"plieņciema iela 8":{"address":"Plieņciema iela 8","city":"Mārupe","zip":"LV-2167"},"plieņciema iela 9":{"address":"Plieņciema iela 9","city":"Mārupe","zip":"LV-2167"},"plieņciema iela 10":{"address":"Plieņciema iela 10","city":"Mārupe","zip":"LV-2167"},"plieņciema iela 11":{"address":"Plieņciema iela 11","city":"Mārupe","zip":"LV-2167"},"plieņciema iela 12":{"address":"Plieņciema iela 12","city":"Mārupe","zip":"LV-2167"},"plieņciema iela 13":{"address":"Plieņciema iela 13","city":"Mārupe","zip":"LV-2167"},"plieņciema iela 14":{"address":"Plieņciema iela 14","city":"Mārupe","zip":"LV-2167"},"plieņciema iela 15":{"address":"Plieņciema iela 15","city":"Mārupe","zip":"LV-2167"},"plieņciema iela 16":{"address":"Plieņciema iela 16","city":"Mārupe","zip":"LV-2167"},"plieņciema iela 17":{"address":"Plieņciema iela 17","city":"Mārupe","zip":"LV-2167"},"plieņciema iela 18":{"address":"Plieņciema iela 18","city":"Mārupe","zip":"LV-2167"},"plieņciema iela 19":{"address":"Plieņciema iela 19","city":"Mārupe","zip":"LV-2167"},"plieņciema iela 32":{"address":"Plieņciema iela 32","city":"Mārupe","zip":"LV-2167"},"plieņciema iela 43":{"address":"Plieņciema iela 43","city":"Mārupe","zip":"LV-2167"},"plieņciema iela 33":{"address":"Plieņciema iela 33","city":"Mārupe","zip":"LV-2167"},"plieņciema iela 37":{"address":"Plieņciema iela 37","city":"Mārupe","zip":"LV-2167"},"plieņciema iela 39":{"address":"Plieņciema iela 39","city":"Mārupe","zip":"LV-2167"},"plieņciema iela 41":{"address":"Plieņciema iela 41","city":"Mārupe","zip":"LV-2167"}}