{"plociņi":{"address":"Plociņi","city":"Osinovka","zip":"LV-5440"},"ružas":{"address":"Ružas","city":"Plociņi","zip":"LV-5651"},"plociņi 2":{"address":"Plociņi 2","city":"Plociņi","zip":"LV-5477"},"pudāni 2":{"address":"Pudāni 2","city":"Plociņi","zip":"LV-5477"},"kastaņas":{"address":"Kastaņas","city":"Plociņi","zip":"LV-5325"},"krastmala":{"address":"Krastmala","city":"Plociņi","zip":"LV-5325"},"meldri":{"address":"Meldri","city":"Plociņi","zip":"LV-5325"},"aļņukalni":{"address":"Aļņukalni","city":"Plociņi","zip":"LV-5651"},"homertoni":{"address":"Homertoni","city":"Plociņi","zip":"LV-5651"},"mustangi":{"address":"Mustangi","city":"Plociņi","zip":"LV-5651"},"potapovi":{"address":"Potapovi","city":"Plociņi","zip":"LV-5651"},"rietumi":{"address":"Rietumi","city":"Plociņi","zip":"LV-5651"},"dridzītis":{"address":"Dridzītis","city":"Plociņi","zip":"LV-5656"},"rudzupuķes":{"address":"Rudzupuķes","city":"Plociņi","zip":"LV-5651"},"eglītes":{"address":"Eglītes","city":"Plociņi","zip":"LV-5477"},"plociņi 1":{"address":"Plociņi 1","city":"Pudāni","zip":"LV-5477"},"puķukalns":{"address":"Puķukalns","city":"Plociņi","zip":"LV-5477"},"indrāni":{"address":"Indrāni","city":"Plociņi","zip":"LV-5325"}}