{"aizupe":{"address":"Aizupe","city":"Poludņi","zip":"LV-4642"},"bitītes":{"address":"Bitītes","city":"Poludņi","zip":"LV-4642"},"dārziņi":{"address":"Dārziņi","city":"Poludņi","zip":"LV-4642"},"iļjinka":{"address":"Iļjinka","city":"Poludņi","zip":"LV-4642"},"jāņu mājas":{"address":"Jāņu mājas","city":"Poludņi","zip":"LV-4642"},"kalniņi":{"address":"Kalniņi","city":"Poludņi","zip":"LV-4642"},"pedāni":{"address":"Pedāni","city":"Poludņi","zip":"LV-4642"},"poludņi":{"address":"Poludņi","city":"Poludņi","zip":"LV-4642"},"uļjana":{"address":"Uļjana","city":"Poludņi","zip":"LV-4642"},"upes līči":{"address":"Upes Līči","city":"Poludņi","zip":"LV-4642"},"spruktu hes":{"address":"Spruktu HES","city":"Poludņi","zip":"LV-4642"},"poļu šķērsiela":{"address":"Poļu šķērsiela","city":"Dudari","zip":"LV-4623"},"tjapši":{"address":"Tjapši","city":"Poļu Gorbuni","zip":"LV-5716"},"ceļmalas":{"address":"Ceļmalas","city":"Poļu Gorbuni","zip":"LV-5716"},"kalnāji":{"address":"Kalnāji","city":"Poļu Gorbuni","zip":"LV-5716"},"lielkalni":{"address":"Lielkalni","city":"Poļu Gorbuni","zip":"LV-5716"}}