{"priedaines - 1":{"address":"Priedaines - 1","city":"Plācis","zip":"LV-4152"},"priedaines - 2":{"address":"Priedaines - 2","city":"Plācis","zip":"LV-4152"},"krasti - 1":{"address":"Krasti - 1","city":"Priedaine","zip":"LV-3301"},"krasti - 2":{"address":"Krasti - 2","city":"Priedaine","zip":"LV-3301"},"ozolgravas 2 - 1":{"address":"Ozolgravas 2 - 1","city":"Priedaine","zip":"LV-3301"},"ozolgravas 2 - 2":{"address":"Ozolgravas 2 - 2","city":"Priedaine","zip":"LV-3301"},"ozolgravas 2 - 3":{"address":"Ozolgravas 2 - 3","city":"Priedaine","zip":"LV-3301"},"ozolgravas 2 - 4":{"address":"Ozolgravas 2 - 4","city":"Priedaine","zip":"LV-3301"},"ozolgravas - 1":{"address":"Ozolgravas - 1","city":"Priedaine","zip":"LV-3301"},"ozolgravas - 2":{"address":"Ozolgravas - 2","city":"Priedaine","zip":"LV-3301"},"ozolgravas - 3":{"address":"Ozolgravas - 3","city":"Priedaine","zip":"LV-3301"},"ozolgravas - 4":{"address":"Ozolgravas - 4","city":"Priedaine","zip":"LV-3301"},"priedītes - 1":{"address":"Priedītes - 1","city":"Priedaine","zip":"LV-3301"},"priedītes - 2":{"address":"Priedītes - 2","city":"Priedaine","zip":"LV-3301"},"priedītes - 3":{"address":"Priedītes - 3","city":"Priedaine","zip":"LV-3301"},"priedītes - 4":{"address":"Priedītes - 4","city":"Priedaine","zip":"LV-3301"},"priedes - 1":{"address":"Priedes - 1","city":"Priedaine","zip":"LV-3301"},"priedes - 2":{"address":"Priedes - 2","city":"Priedaine","zip":"LV-3301"},"priedes - 3":{"address":"Priedes - 3","city":"Priedaine","zip":"LV-3301"},"priedes - 4":{"address":"Priedes - 4","city":"Priedaine","zip":"LV-3301"},"priedes - 5":{"address":"Priedes - 5","city":"Priedaine","zip":"LV-3301"},"priedes - 6":{"address":"Priedes - 6","city":"Priedaine","zip":"LV-3301"},"priedes - 7":{"address":"Priedes - 7","city":"Priedaine","zip":"LV-3301"},"priedes - 8":{"address":"Priedes - 8","city":"Priedaine","zip":"LV-3301"},"priedes - 9":{"address":"Priedes - 9","city":"Priedaine","zip":"LV-3301"},"priedes - 10":{"address":"Priedes - 10","city":"Priedaine","zip":"LV-3301"},"priedes - 11":{"address":"Priedes - 11","city":"Priedaine","zip":"LV-3301"},"priedes - 12":{"address":"Priedes - 12","city":"Priedaine","zip":"LV-3301"},"priedes - 13":{"address":"Priedes - 13","city":"Priedaine","zip":"LV-3301"},"priedes - 14":{"address":"Priedes - 14","city":"Priedaine","zip":"LV-3301"},"priedes - 15":{"address":"Priedes - 15","city":"Priedaine","zip":"LV-3301"},"priedes - 16":{"address":"Priedes - 16","city":"Priedaine","zip":"LV-3301"},"priedes - 17":{"address":"Priedes - 17","city":"Priedaine","zip":"LV-3301"},"priedes - 18":{"address":"Priedes - 18","city":"Priedaine","zip":"LV-3301"},"priedes - 19":{"address":"Priedes - 19","city":"Priedaine","zip":"LV-3301"},"priedes - 20":{"address":"Priedes - 20","city":"Priedaine","zip":"LV-3301"},"priedes - 21":{"address":"Priedes - 21","city":"Priedaine","zip":"LV-3301"},"priedes - 22":{"address":"Priedes - 22","city":"Priedaine","zip":"LV-3301"},"priedes - 23":{"address":"Priedes - 23","city":"Priedaine","zip":"LV-3301"},"priedes - 24":{"address":"Priedes - 24","city":"Priedaine","zip":"LV-3301"},"skalbes - 1":{"address":"Skalbes - 1","city":"Priedaine","zip":"LV-3301"},"skalbes - 2":{"address":"Skalbes - 2","city":"Priedaine","zip":"LV-3301"},"skalbes - 3":{"address":"Skalbes - 3","city":"Priedaine","zip":"LV-3301"},"skalbes - 4":{"address":"Skalbes - 4","city":"Priedaine","zip":"LV-3301"},"skalbes - 5":{"address":"Skalbes - 5","city":"Priedaine","zip":"LV-3301"},"skalbes - 6":{"address":"Skalbes - 6","city":"Priedaine","zip":"LV-3301"},"skalbes - 7":{"address":"Skalbes - 7","city":"Priedaine","zip":"LV-3301"},"skalbes - 8":{"address":"Skalbes - 8","city":"Priedaine","zip":"LV-3301"},"skalbes - 9":{"address":"Skalbes - 9","city":"Priedaine","zip":"LV-3301"},"skalbes - 10":{"address":"Skalbes - 10","city":"Priedaine","zip":"LV-3301"},"skalbes - 11":{"address":"Skalbes - 11","city":"Priedaine","zip":"LV-3301"},"skalbes - 12":{"address":"Skalbes - 12","city":"Priedaine","zip":"LV-3301"},"skalbes - 13":{"address":"Skalbes - 13","city":"Priedaine","zip":"LV-3301"},"skalbes - 14":{"address":"Skalbes - 14","city":"Priedaine","zip":"LV-3301"},"skalbes - 15":{"address":"Skalbes - 15","city":"Priedaine","zip":"LV-3301"},"skalbes - 16":{"address":"Skalbes - 16","city":"Priedaine","zip":"LV-3301"},"skalbes - 17":{"address":"Skalbes - 17","city":"Priedaine","zip":"LV-3301"},"skalbes - 18":{"address":"Skalbes - 18","city":"Priedaine","zip":"LV-3301"},"skalbes - 19":{"address":"Skalbes - 19","city":"Priedaine","zip":"LV-3301"},"skalbes - 20":{"address":"Skalbes - 20","city":"Priedaine","zip":"LV-3301"},"skalbes - 21":{"address":"Skalbes - 21","city":"Priedaine","zip":"LV-3301"},"skalbes - 22":{"address":"Skalbes - 22","city":"Priedaine","zip":"LV-3301"},"skalbes - 23":{"address":"Skalbes - 23","city":"Priedaine","zip":"LV-3301"},"skalbes - 24":{"address":"Skalbes - 24","city":"Priedaine","zip":"LV-3301"},"tērces - 1":{"address":"Tērces - 1","city":"Priedaine","zip":"LV-3301"},"tērces - 2":{"address":"Tērces - 2","city":"Priedaine","zip":"LV-3301"},"tērces - 3":{"address":"Tērces - 3","city":"Priedaine","zip":"LV-3301"},"tērces - 4":{"address":"Tērces - 4","city":"Priedaine","zip":"LV-3301"},"tērces - 5":{"address":"Tērces - 5","city":"Priedaine","zip":"LV-3301"},"tērces - 6":{"address":"Tērces - 6","city":"Priedaine","zip":"LV-3301"},"tērces - 7":{"address":"Tērces - 7","city":"Priedaine","zip":"LV-3301"},"tērces - 8":{"address":"Tērces - 8","city":"Priedaine","zip":"LV-3301"},"tērces - 9":{"address":"Tērces - 9","city":"Priedaine","zip":"LV-3301"},"tērces - 10":{"address":"Tērces - 10","city":"Priedaine","zip":"LV-3301"},"tērces - 11":{"address":"Tērces - 11","city":"Priedaine","zip":"LV-3301"},"tērces - 12":{"address":"Tērces - 12","city":"Priedaine","zip":"LV-3301"},"tērces - 13":{"address":"Tērces - 13","city":"Priedaine","zip":"LV-3301"},"tērces - 14":{"address":"Tērces - 14","city":"Priedaine","zip":"LV-3301"},"tērces - 15":{"address":"Tērces - 15","city":"Priedaine","zip":"LV-3301"},"tērces - 16":{"address":"Tērces - 16","city":"Priedaine","zip":"LV-3301"},"tērces - 17":{"address":"Tērces - 17","city":"Priedaine","zip":"LV-3301"},"tērces - 18":{"address":"Tērces - 18","city":"Priedaine","zip":"LV-3301"},"tērces - 19":{"address":"Tērces - 19","city":"Priedaine","zip":"LV-3301"},"tērces - 20":{"address":"Tērces - 20","city":"Priedaine","zip":"LV-3301"},"tērces - 21":{"address":"Tērces - 21","city":"Priedaine","zip":"LV-3301"},"tērces - 22":{"address":"Tērces - 22","city":"Priedaine","zip":"LV-3301"},"tērces - 23":{"address":"Tērces - 23","city":"Priedaine","zip":"LV-3301"},"tērces - 24":{"address":"Tērces - 24","city":"Priedaine","zip":"LV-3301"}}