{"zvejnieki - 1":{"address":"Zvejnieki - 1","city":"Priedītes","zip":"LV-3901"},"zvejnieki - 2":{"address":"Zvejnieki - 2","city":"Priedītes","zip":"LV-3901"},"zvejnieki - 3":{"address":"Zvejnieki - 3","city":"Priedītes","zip":"LV-3901"},"zvejnieki - 4":{"address":"Zvejnieki - 4","city":"Priedītes","zip":"LV-3901"},"kārkliņi - 1":{"address":"Kārkliņi - 1","city":"Priedītes","zip":"LV-3901"},"kārkliņi - 2":{"address":"Kārkliņi - 2","city":"Priedītes","zip":"LV-3901"},"priedītes - 1":{"address":"Priedītes - 1","city":"Tome","zip":"LV-5020"},"priedītes - 2":{"address":"Priedītes - 2","city":"Tome","zip":"LV-5020"},"priedītes - 3":{"address":"Priedītes - 3","city":"Tome","zip":"LV-5020"},"priedītes - 4":{"address":"Priedītes - 4","city":"Tome","zip":"LV-5020"},"priedītes":{"address":"Priedītes","city":"Irlava","zip":"LV-3137"},"lienjāņi":{"address":"Lienjāņi","city":"Priedītes","zip":"LV-3901"},"upītes":{"address":"Upītes","city":"Priedītes","zip":"LV-3901"},"zvejnieki":{"address":"Zvejnieki","city":"Priedītes","zip":"LV-3901"},"kārkliņi":{"address":"Kārkliņi","city":"Priedītes","zip":"LV-3901"},"mariannas":{"address":"Mariannas","city":"Priedītes","zip":"LV-3901"},"priedītes 1":{"address":"Priedītes 1","city":"Priedītes","zip":"LV-3901"},"straumēni":{"address":"Straumēni","city":"Priedītes","zip":"LV-3901"},"jaunkārkliņi":{"address":"Jaunkārkliņi","city":"Priedītes","zip":"LV-3901"},"aivari":{"address":"Aivari","city":"Priedītes","zip":"LV-3901"}}