{"priežu sils - 1":{"address":"Priežu sils - 1","city":"Nagļi","zip":"LV-4631"},"priežu sils - 2":{"address":"Priežu sils - 2","city":"Nagļi","zip":"LV-4631"},"priežu iela 2 - 1":{"address":"Priežu iela 2 - 1","city":"Priedes","zip":"LV-4001"},"priežu iela 2 - 2":{"address":"Priežu iela 2 - 2","city":"Priedes","zip":"LV-4001"},"priežu iela 9 - 1":{"address":"Priežu iela 9 - 1","city":"Gardene","zip":"LV-3701"},"priežu iela 9 - 2":{"address":"Priežu iela 9 - 2","city":"Gardene","zip":"LV-3701"},"priežu iela 9 - 3":{"address":"Priežu iela 9 - 3","city":"Gardene","zip":"LV-3701"},"priežu iela 9 - 4":{"address":"Priežu iela 9 - 4","city":"Gardene","zip":"LV-3701"},"priežu iela 9 - 5":{"address":"Priežu iela 9 - 5","city":"Gardene","zip":"LV-3701"},"priežu iela 9 - 6":{"address":"Priežu iela 9 - 6","city":"Gardene","zip":"LV-3701"},"priežu iela 9 - 7":{"address":"Priežu iela 9 - 7","city":"Gardene","zip":"LV-3701"},"priežu iela 9 - 8":{"address":"Priežu iela 9 - 8","city":"Gardene","zip":"LV-3701"},"priežu iela 9 - 9":{"address":"Priežu iela 9 - 9","city":"Gardene","zip":"LV-3701"},"priežu iela 9 - 10":{"address":"Priežu iela 9 - 10","city":"Gardene","zip":"LV-3701"},"priežu iela 9 - 11":{"address":"Priežu iela 9 - 11","city":"Gardene","zip":"LV-3701"},"priežu iela 9 - 12":{"address":"Priežu iela 9 - 12","city":"Gardene","zip":"LV-3701"},"priežu iela 28 - 22":{"address":"Priežu iela 28 - 22","city":"Gardene","zip":"LV-3701"},"priežu iela 28 - 23":{"address":"Priežu iela 28 - 23","city":"Gardene","zip":"LV-3701"},"priežu iela 28 - 24":{"address":"Priežu iela 28 - 24","city":"Gardene","zip":"LV-3701"},"priežu iela 28 - 25":{"address":"Priežu iela 28 - 25","city":"Gardene","zip":"LV-3701"},"priežu iela 28 - 26":{"address":"Priežu iela 28 - 26","city":"Gardene","zip":"LV-3701"},"priežu iela 28 - 27":{"address":"Priežu iela 28 - 27","city":"Gardene","zip":"LV-3701"},"priežu iela 28 - 28":{"address":"Priežu iela 28 - 28","city":"Gardene","zip":"LV-3701"},"priežu iela 28 - 29":{"address":"Priežu iela 28 - 29","city":"Gardene","zip":"LV-3701"},"priežu iela 28 - 30":{"address":"Priežu iela 28 - 30","city":"Gardene","zip":"LV-3701"},"priežu iela 28 - 31":{"address":"Priežu iela 28 - 31","city":"Gardene","zip":"LV-3701"},"priežu iela 28 - 32":{"address":"Priežu iela 28 - 32","city":"Gardene","zip":"LV-3701"},"priežu iela 28 - 33":{"address":"Priežu iela 28 - 33","city":"Gardene","zip":"LV-3701"},"priežu iela 28 - 34":{"address":"Priežu iela 28 - 34","city":"Gardene","zip":"LV-3701"},"priežu iela 28 - 35":{"address":"Priežu iela 28 - 35","city":"Gardene","zip":"LV-3701"},"priežu iela 28 - 36":{"address":"Priežu iela 28 - 36","city":"Gardene","zip":"LV-3701"},"priežu iela 28 - 37":{"address":"Priežu iela 28 - 37","city":"Gardene","zip":"LV-3701"},"priežu iela 28 - 38":{"address":"Priežu iela 28 - 38","city":"Gardene","zip":"LV-3701"},"priežu iela 28 - 39":{"address":"Priežu iela 28 - 39","city":"Gardene","zip":"LV-3701"},"priežu iela 28 - 40":{"address":"Priežu iela 28 - 40","city":"Gardene","zip":"LV-3701"},"priežu iela 28 - 41":{"address":"Priežu iela 28 - 41","city":"Gardene","zip":"LV-3701"},"priežu iela 28 - 42":{"address":"Priežu iela 28 - 42","city":"Gardene","zip":"LV-3701"},"priežu iela 28 - 43":{"address":"Priežu iela 28 - 43","city":"Gardene","zip":"LV-3701"},"priežu iela 28 - 44":{"address":"Priežu iela 28 - 44","city":"Gardene","zip":"LV-3701"},"priežu iela 28 - 45":{"address":"Priežu iela 28 - 45","city":"Gardene","zip":"LV-3701"},"priežu iela 28 - 46":{"address":"Priežu iela 28 - 46","city":"Gardene","zip":"LV-3701"},"priežu iela 28 - 47":{"address":"Priežu iela 28 - 47","city":"Gardene","zip":"LV-3701"},"priežu iela 28 - 48":{"address":"Priežu iela 28 - 48","city":"Gardene","zip":"LV-3701"},"priežu iela 28 - 49":{"address":"Priežu iela 28 - 49","city":"Gardene","zip":"LV-3701"},"priežu iela 28 - 50":{"address":"Priežu iela 28 - 50","city":"Gardene","zip":"LV-3701"},"priežu iela 28 - 51":{"address":"Priežu iela 28 - 51","city":"Gardene","zip":"LV-3701"},"priežu iela 28 - 52":{"address":"Priežu iela 28 - 52","city":"Gardene","zip":"LV-3701"},"priežu iela 28 - 53":{"address":"Priežu iela 28 - 53","city":"Gardene","zip":"LV-3701"},"priežu iela 28 - 54":{"address":"Priežu iela 28 - 54","city":"Gardene","zip":"LV-3701"},"priežu iela 28 - 55":{"address":"Priežu iela 28 - 55","city":"Gardene","zip":"LV-3701"},"priežu iela 30 - 1":{"address":"Priežu iela 30 - 1","city":"Gardene","zip":"LV-3701"},"priežu iela 30 - 2":{"address":"Priežu iela 30 - 2","city":"Gardene","zip":"LV-3701"},"priežu iela 30 - 3":{"address":"Priežu iela 30 - 3","city":"Gardene","zip":"LV-3701"},"priežu iela 30 - 4":{"address":"Priežu iela 30 - 4","city":"Gardene","zip":"LV-3701"},"priežu iela 30 - 5":{"address":"Priežu iela 30 - 5","city":"Gardene","zip":"LV-3701"},"priežu iela 30 - 6":{"address":"Priežu iela 30 - 6","city":"Gardene","zip":"LV-3701"},"priežu iela 30 - 7":{"address":"Priežu iela 30 - 7","city":"Gardene","zip":"LV-3701"},"priežu iela 30 - 8":{"address":"Priežu iela 30 - 8","city":"Gardene","zip":"LV-3701"},"priežu iela 30 - 9":{"address":"Priežu iela 30 - 9","city":"Gardene","zip":"LV-3701"},"priežu iela 30 - 10":{"address":"Priežu iela 30 - 10","city":"Gardene","zip":"LV-3701"},"priežu iela 30 - 11":{"address":"Priežu iela 30 - 11","city":"Gardene","zip":"LV-3701"},"priežu iela 30 - 12":{"address":"Priežu iela 30 - 12","city":"Gardene","zip":"LV-3701"},"priežu iela 30 - 13":{"address":"Priežu iela 30 - 13","city":"Gardene","zip":"LV-3701"},"priežu iela 30 - 14":{"address":"Priežu iela 30 - 14","city":"Gardene","zip":"LV-3701"},"priežu iela 30 - 15":{"address":"Priežu iela 30 - 15","city":"Gardene","zip":"LV-3701"},"priežu iela 30 - 16":{"address":"Priežu iela 30 - 16","city":"Gardene","zip":"LV-3701"},"priežu iela 30 - 17":{"address":"Priežu iela 30 - 17","city":"Gardene","zip":"LV-3701"},"priežu iela 30 - 18":{"address":"Priežu iela 30 - 18","city":"Gardene","zip":"LV-3701"},"priežu iela 30 - 19":{"address":"Priežu iela 30 - 19","city":"Gardene","zip":"LV-3701"},"priežu iela 30 - 20":{"address":"Priežu iela 30 - 20","city":"Gardene","zip":"LV-3701"},"priežu iela 30 - 21":{"address":"Priežu iela 30 - 21","city":"Gardene","zip":"LV-3701"},"priežu iela 30 - 22":{"address":"Priežu iela 30 - 22","city":"Gardene","zip":"LV-3701"},"priežu iela 30 - 23":{"address":"Priežu iela 30 - 23","city":"Gardene","zip":"LV-3701"},"priežu iela 30 - 24":{"address":"Priežu iela 30 - 24","city":"Gardene","zip":"LV-3701"},"priežu iela 30 - 25":{"address":"Priežu iela 30 - 25","city":"Gardene","zip":"LV-3701"},"priežu iela 30 - 26":{"address":"Priežu iela 30 - 26","city":"Gardene","zip":"LV-3701"},"priežu iela 30 - 27":{"address":"Priežu iela 30 - 27","city":"Gardene","zip":"LV-3701"},"priežu iela 30 - 28":{"address":"Priežu iela 30 - 28","city":"Gardene","zip":"LV-3701"},"priežu iela 30 - 29":{"address":"Priežu iela 30 - 29","city":"Gardene","zip":"LV-3701"},"priežu iela 30 - 30":{"address":"Priežu iela 30 - 30","city":"Gardene","zip":"LV-3701"}}