{"skolas iela 4 - 3":{"address":"Skolas iela 4 - 3","city":"Prīkuļi","zip":"LV-5323"},"zaļā iela 4 - 1":{"address":"Zaļā iela 4 - 1","city":"Prīkuļi","zip":"LV-5323"},"zaļā iela 4 - 2":{"address":"Zaļā iela 4 - 2","city":"Prīkuļi","zip":"LV-5323"},"liepu iela 5 - 1":{"address":"Liepu iela 5 - 1","city":"Prīkuļi","zip":"LV-5323"},"liepu iela 5 - 2":{"address":"Liepu iela 5 - 2","city":"Prīkuļi","zip":"LV-5323"},"skolas iela 2 - 1":{"address":"Skolas iela 2 - 1","city":"Prīkuļi","zip":"LV-5323"},"skolas iela 2 - 2":{"address":"Skolas iela 2 - 2","city":"Prīkuļi","zip":"LV-5323"},"skolas iela 2 - 3":{"address":"Skolas iela 2 - 3","city":"Prīkuļi","zip":"LV-5323"},"skolas iela 2 - 4":{"address":"Skolas iela 2 - 4","city":"Prīkuļi","zip":"LV-5323"},"skolas iela 2 - 5":{"address":"Skolas iela 2 - 5","city":"Prīkuļi","zip":"LV-5323"},"skolas iela 2 - 6":{"address":"Skolas iela 2 - 6","city":"Prīkuļi","zip":"LV-5323"},"skolas iela 2 - 7":{"address":"Skolas iela 2 - 7","city":"Prīkuļi","zip":"LV-5323"},"skolas iela 2 - 8":{"address":"Skolas iela 2 - 8","city":"Prīkuļi","zip":"LV-5323"},"brīvības iela 6 - 4":{"address":"Brīvības iela 6 - 4","city":"Prīkuļi","zip":"LV-5323"},"brīvības iela 6 - 5":{"address":"Brīvības iela 6 - 5","city":"Prīkuļi","zip":"LV-5323"},"brīvības iela 6 - 10":{"address":"Brīvības iela 6 - 10","city":"Prīkuļi","zip":"LV-5323"},"brīvības iela 6 - 12":{"address":"Brīvības iela 6 - 12","city":"Prīkuļi","zip":"LV-5323"},"brīvības iela 6 - 13":{"address":"Brīvības iela 6 - 13","city":"Prīkuļi","zip":"LV-5323"},"brīvības iela 6 - 1":{"address":"Brīvības iela 6 - 1","city":"Prīkuļi","zip":"LV-5323"},"brīvības iela 6 - 2":{"address":"Brīvības iela 6 - 2","city":"Prīkuļi","zip":"LV-5323"},"brīvības iela 6 - 3":{"address":"Brīvības iela 6 - 3","city":"Prīkuļi","zip":"LV-5323"},"brīvības iela 6 - 6":{"address":"Brīvības iela 6 - 6","city":"Prīkuļi","zip":"LV-5323"},"brīvības iela 6 - 7":{"address":"Brīvības iela 6 - 7","city":"Prīkuļi","zip":"LV-5323"},"brīvības iela 6 - 8":{"address":"Brīvības iela 6 - 8","city":"Prīkuļi","zip":"LV-5323"},"brīvības iela 6 - 9":{"address":"Brīvības iela 6 - 9","city":"Prīkuļi","zip":"LV-5323"},"brīvības iela 6 - 11":{"address":"Brīvības iela 6 - 11","city":"Prīkuļi","zip":"LV-5323"},"brīvības iela 6 - 14":{"address":"Brīvības iela 6 - 14","city":"Prīkuļi","zip":"LV-5323"},"brīvības iela 6 - 15":{"address":"Brīvības iela 6 - 15","city":"Prīkuļi","zip":"LV-5323"},"brīvības iela 6 - 16":{"address":"Brīvības iela 6 - 16","city":"Prīkuļi","zip":"LV-5323"},"brīvības iela 6 - 17":{"address":"Brīvības iela 6 - 17","city":"Prīkuļi","zip":"LV-5323"},"brīvības iela 6 - 18":{"address":"Brīvības iela 6 - 18","city":"Prīkuļi","zip":"LV-5323"},"brīvības iela 6 - 19":{"address":"Brīvības iela 6 - 19","city":"Prīkuļi","zip":"LV-5323"},"brīvības iela 6 - 20":{"address":"Brīvības iela 6 - 20","city":"Prīkuļi","zip":"LV-5323"},"brīvības iela 6 - 21":{"address":"Brīvības iela 6 - 21","city":"Prīkuļi","zip":"LV-5323"},"brīvības iela 6 - 22":{"address":"Brīvības iela 6 - 22","city":"Prīkuļi","zip":"LV-5323"},"brīvības iela 6 - 23":{"address":"Brīvības iela 6 - 23","city":"Prīkuļi","zip":"LV-5323"},"brīvības iela 6 - 24":{"address":"Brīvības iela 6 - 24","city":"Prīkuļi","zip":"LV-5323"},"brīvības iela 7 - 1":{"address":"Brīvības iela 7 - 1","city":"Prīkuļi","zip":"LV-5323"},"brīvības iela 7 - 2":{"address":"Brīvības iela 7 - 2","city":"Prīkuļi","zip":"LV-5323"},"brīvības iela 7 - 3":{"address":"Brīvības iela 7 - 3","city":"Prīkuļi","zip":"LV-5323"},"brīvības iela 7 - 4":{"address":"Brīvības iela 7 - 4","city":"Prīkuļi","zip":"LV-5323"},"brīvības iela 11 - 1":{"address":"Brīvības iela 11 - 1","city":"Prīkuļi","zip":"LV-5323"},"brīvības iela 11 - 2":{"address":"Brīvības iela 11 - 2","city":"Prīkuļi","zip":"LV-5323"},"miera iela 2 - 1":{"address":"Miera iela 2 - 1","city":"Prīkuļi","zip":"LV-5323"},"miera iela 2 - 2":{"address":"Miera iela 2 - 2","city":"Prīkuļi","zip":"LV-5323"},"amatnieki":{"address":"Amatnieki","city":"Prīkuļi","zip":"LV-5323"},"punduru tehnika":{"address":"Punduru tehnika","city":"Prīkuļi","zip":"LV-5323"},"otrās dzilnas":{"address":"Otrās Dzilnas","city":"Prīkuļi","zip":"LV-5323"},"prikuļi":{"address":"Prikuļi","city":"Kaļvi","zip":"LV-5335"},"brīvības iela 4a":{"address":"Brīvības iela 4A","city":"Prīkuļi","zip":"LV-5323"},"skolas iela 1":{"address":"Skolas iela 1","city":"Prīkuļi","zip":"LV-5323"},"brīvības iela 8":{"address":"Brīvības iela 8","city":"Prīkuļi","zip":"LV-5323"},"zvaigznīte":{"address":"Zvaigznīte","city":"Prīkuļi","zip":"LV-5323"},"miera iela 6":{"address":"Miera iela 6","city":"Prīkuļi","zip":"LV-5323"},"miera iela 13":{"address":"Miera iela 13","city":"Prīkuļi","zip":"LV-5323"},"ziedkalni":{"address":"Ziedkalni","city":"Prīkuļi","zip":"LV-5323"},"rumbinieki":{"address":"Rumbinieki","city":"Prīkuļi","zip":"LV-5323"},"ozoli gribinānos":{"address":"Ozoli Gribinānos","city":"Prīkuļi","zip":"LV-5323"},"skolas iela 4":{"address":"Skolas iela 4","city":"Prīkuļi","zip":"LV-5323"},"skolas iela 5":{"address":"Skolas iela 5","city":"Prīkuļi","zip":"LV-5323"},"skolas iela 12":{"address":"Skolas iela 12","city":"Prīkuļi","zip":"LV-5323"},"zaļā iela 3":{"address":"Zaļā iela 3","city":"Prīkuļi","zip":"LV-5323"},"liepu iela 3":{"address":"Liepu iela 3","city":"Prīkuļi","zip":"LV-5323"},"brīvības iela 1a":{"address":"Brīvības iela 1A","city":"Prīkuļi","zip":"LV-5323"},"miera iela 7":{"address":"Miera iela 7","city":"Prīkuļi","zip":"LV-5323"},"miera iela 14":{"address":"Miera iela 14","city":"Prīkuļi","zip":"LV-5323"},"miera iela 16":{"address":"Miera iela 16","city":"Prīkuļi","zip":"LV-5323"},"skolas iela 3":{"address":"Skolas iela 3","city":"Prīkuļi","zip":"LV-5323"},"kumelītes":{"address":"Kumelītes","city":"Prīkuļi","zip":"LV-5323"},"miera iela 12":{"address":"Miera iela 12","city":"Prīkuļi","zip":"LV-5323"},"miera iela 18":{"address":"Miera iela 18","city":"Prīkuļi","zip":"LV-5323"},"lazdukalni":{"address":"Lazdukalni","city":"Prīkuļi","zip":"LV-5323"},"miera iela 21":{"address":"Miera iela 21","city":"Prīkuļi","zip":"LV-5323"},"miera iela 22":{"address":"Miera iela 22","city":"Prīkuļi","zip":"LV-5323"},"miera iela 3":{"address":"Miera iela 3","city":"Prīkuļi","zip":"LV-5323"},"miera iela 8":{"address":"Miera iela 8","city":"Prīkuļi","zip":"LV-5323"},"skolas iela 10":{"address":"Skolas iela 10","city":"Prīkuļi","zip":"LV-5323"},"brīvības iela 5":{"address":"Brīvības iela 5","city":"Prīkuļi","zip":"LV-5323"},"brīvības iela 15":{"address":"Brīvības iela 15","city":"Prīkuļi","zip":"LV-5323"},"zaļā iela 1":{"address":"Zaļā iela 1","city":"Prīkuļi","zip":"LV-5323"},"zaļā iela 5":{"address":"Zaļā iela 5","city":"Prīkuļi","zip":"LV-5323"},"zaļā iela 7":{"address":"Zaļā iela 7","city":"Prīkuļi","zip":"LV-5323"},"liepu iela 1":{"address":"Liepu iela 1","city":"Prīkuļi","zip":"LV-5323"},"skolas iela 8":{"address":"Skolas iela 8","city":"Prīkuļi","zip":"LV-5323"},"zaļā iela 4":{"address":"Zaļā iela 4","city":"Prīkuļi","zip":"LV-5323"},"miera iela 5":{"address":"Miera iela 5","city":"Prīkuļi","zip":"LV-5323"},"mehanizatoru iela 12":{"address":"Mehanizatoru iela 12","city":"Prīkuļi","zip":"LV-5323"},"liepu iela 5":{"address":"Liepu iela 5","city":"Prīkuļi","zip":"LV-5323"},"kalnciems":{"address":"Kalnciems","city":"Prīkuļi","zip":"LV-5323"},"mehanizatoru iela 6":{"address":"Mehanizatoru iela 6","city":"Prīkuļi","zip":"LV-5323"},"atvases":{"address":"Atvases","city":"Prīkuļi","zip":"LV-5323"},"miera iela 9":{"address":"Miera iela 9","city":"Prīkuļi","zip":"LV-5323"},"mehanizatoru iela 1":{"address":"Mehanizatoru iela 1","city":"Prīkuļi","zip":"LV-5323"},"miera iela 11":{"address":"Miera iela 11","city":"Prīkuļi","zip":"LV-5323"},"skolas iela 2":{"address":"Skolas iela 2","city":"Prīkuļi","zip":"LV-5323"},"rūķīši":{"address":"Rūķīši","city":"Prīkuļi","zip":"LV-5323"}}