{"pudāni":{"address":"Pudāni","city":"Pudāni","zip":"LV-5450"},"pudānu sādža 1":{"address":"Pudānu sādža 1","city":"Pudāni","zip":"LV-5477"},"pudāni 2":{"address":"Pudāni 2","city":"Pudāni","zip":"LV-5477"},"dimanti":{"address":"Dimanti","city":"Pudāni","zip":"LV-5450"},"priedaine":{"address":"Priedaine","city":"Pudāni","zip":"LV-5477"},"pudāni 1":{"address":"Pudāni 1","city":"Pudāni","zip":"LV-5477"},"pudānu sādža":{"address":"Pudānu sādža","city":"Pudāni","zip":"LV-5477"},"plociņi 1":{"address":"Plociņi 1","city":"Pudāni","zip":"LV-5477"},"aveņu māja":{"address":"Aveņu māja","city":"Pudāni","zip":"LV-5477"},"kastaņu māja":{"address":"Kastaņu māja","city":"Pudāni","zip":"LV-5477"},"garkalni":{"address":"Garkalni","city":"Pudāni","zip":"LV-5450"},"jasmīni":{"address":"Jasmīni","city":"Pudāni","zip":"LV-5450"},"kalna liepas":{"address":"Kalna Liepas","city":"Pudāni","zip":"LV-5450"},"līdakas":{"address":"Līdakas","city":"Pudāni","zip":"LV-5450"},"liepiņas":{"address":"Liepiņas","city":"Pudāni","zip":"LV-5450"},"mailītes":{"address":"Mailītes","city":"Pudāni","zip":"LV-5450"},"olūti":{"address":"Olūti","city":"Pudāni","zip":"LV-5450"},"rīts":{"address":"Rīts","city":"Pudāni","zip":"LV-5450"},"tūjas":{"address":"Tūjas","city":"Pudāni","zip":"LV-5450"},"veras":{"address":"Veras","city":"Pudāni","zip":"LV-5450"},"asari":{"address":"Asari","city":"Pudāni","zip":"LV-5450"},"baltezers":{"address":"Baltezers","city":"Pudāni","zip":"LV-5450"}}