{"pumpuru iela 1":{"address":"Pumpuru iela 1","city":"Ziemeļblāzma","zip":"LV-4025"},"pumpuru iela 3":{"address":"Pumpuru iela 3","city":"Engure","zip":"LV-3113"},"pumpuru iela 5":{"address":"Pumpuru iela 5","city":"Priežciems","zip":"LV-2101"},"pumpuru iela 7":{"address":"Pumpuru iela 7","city":"Priežciems","zip":"LV-2101"},"pumpuru iela 9":{"address":"Pumpuru iela 9","city":"Priežciems","zip":"LV-2101"},"pumpuru iela 11":{"address":"Pumpuru iela 11","city":"Priežciems","zip":"LV-2101"},"pumpuru iela 13":{"address":"Pumpuru iela 13","city":"Priežciems","zip":"LV-2101"},"pumpuru iela 15":{"address":"Pumpuru iela 15","city":"Priežciems","zip":"LV-2101"},"pumpuru iela 2":{"address":"Pumpuru iela 2","city":"Demene","zip":"LV-5442"},"pumpuru iela 4":{"address":"Pumpuru iela 4","city":"Priežciems","zip":"LV-2101"},"pumpuru iela 6":{"address":"Pumpuru iela 6","city":"Priežciems","zip":"LV-2101"},"pumpuru iela 8":{"address":"Pumpuru iela 8","city":"Ērgļi","zip":"LV-4840"},"pumpuru iela 8a":{"address":"Pumpuru iela 8A","city":"Priežciems","zip":"LV-2101"},"pumpuru iela 10":{"address":"Pumpuru iela 10","city":"Priežciems","zip":"LV-2101"},"pumpuru iela 13a":{"address":"Pumpuru iela 13A","city":"Priežciems","zip":"LV-2101"},"pumpuru iela 17":{"address":"Pumpuru iela 17","city":"Priežciems","zip":"LV-2101"},"pumpuru sēta":{"address":"Pumpuru sēta","city":"Dekšāres","zip":"LV-4614"}}