{"pumpuri - 1":{"address":"Pumpuri - 1","city":"Birzgale","zip":"LV-5033"},"pumpuri - 2":{"address":"Pumpuri - 2","city":"Birzgale","zip":"LV-5033"},"pumpuri - 3":{"address":"Pumpuri - 3","city":"Birzgale","zip":"LV-5033"},"pumpuri - 4":{"address":"Pumpuri - 4","city":"Birzgale","zip":"LV-5033"},"pumpuri - 5":{"address":"Pumpuri - 5","city":"Birzgale","zip":"LV-5033"},"pumpuri - 6":{"address":"Pumpuri - 6","city":"Birzgale","zip":"LV-5033"},"pumpuri - 7":{"address":"Pumpuri - 7","city":"Stukmaņi","zip":"LV-5129"},"pumpuri - 8":{"address":"Pumpuri - 8","city":"Jaunanna","zip":"LV-4340"},"pumpuri - 9":{"address":"Pumpuri - 9","city":"Jaunanna","zip":"LV-4340"},"pumpuri - 10":{"address":"Pumpuri - 10","city":"Jaunanna","zip":"LV-4340"},"pumpuri - 11":{"address":"Pumpuri - 11","city":"Jaunanna","zip":"LV-4340"},"pumpuri - 12":{"address":"Pumpuri - 12","city":"Jaunanna","zip":"LV-4340"},"pumpuri 1 - 1":{"address":"Pumpuri 1 - 1","city":"Vecbebri","zip":"LV-5135"},"pumpuri 1 - 2":{"address":"Pumpuri 1 - 2","city":"Vecbebri","zip":"LV-5135"},"pumpuri 1 - 3":{"address":"Pumpuri 1 - 3","city":"Valmiermuiža","zip":"LV-4219"},"pumpuri 1 - 4":{"address":"Pumpuri 1 - 4","city":"Valmiermuiža","zip":"LV-4219"},"pumpuri 1 - 5":{"address":"Pumpuri 1 - 5","city":"Valmiermuiža","zip":"LV-4219"},"pumpuriņi - 1":{"address":"Pumpuriņi - 1","city":"Mēmele","zip":"LV-3915"},"pumpuriņi - 2":{"address":"Pumpuriņi - 2","city":"Mēmele","zip":"LV-3915"}}