{"purenes - 1":{"address":"Purenes - 1","city":"Laidi","zip":"LV-3317"},"purenes - 2":{"address":"Purenes - 2","city":"Laidi","zip":"LV-3317"},"purenes - 7":{"address":"Purenes - 7","city":"Laidi","zip":"LV-3317"},"purenes - 8":{"address":"Purenes - 8","city":"Laidi","zip":"LV-3317"},"purenes - 3":{"address":"Purenes - 3","city":"Laidi","zip":"LV-3317"},"purenes - 4":{"address":"Purenes - 4","city":"Laidi","zip":"LV-3317"},"purenes - 5":{"address":"Purenes - 5","city":"Laidi","zip":"LV-3317"},"purenes - 6":{"address":"Purenes - 6","city":"Laidi","zip":"LV-3317"},"purenes - 9":{"address":"Purenes - 9","city":"Rucava","zip":"LV-3477"},"purenes - 10":{"address":"Purenes - 10","city":"Rucava","zip":"LV-3477"},"purenes - 11":{"address":"Purenes - 11","city":"Rucava","zip":"LV-3477"},"purenes - 12":{"address":"Purenes - 12","city":"Rucava","zip":"LV-3477"},"purenes - 13":{"address":"Purenes - 13","city":"Rucava","zip":"LV-3477"},"purenes - 14":{"address":"Purenes - 14","city":"Rucava","zip":"LV-3477"},"purenes - 15":{"address":"Purenes - 15","city":"Rucava","zip":"LV-3477"},"purenes - 16":{"address":"Purenes - 16","city":"Rucava","zip":"LV-3477"},"purenes - 17":{"address":"Purenes - 17","city":"Rucava","zip":"LV-3477"},"purenes - 18":{"address":"Purenes - 18","city":"Rucava","zip":"LV-3477"},"purenes - 19":{"address":"Purenes - 19","city":"Rucava","zip":"LV-3477"},"purenes - 20":{"address":"Purenes - 20","city":"Rucava","zip":"LV-3477"},"purenes - 21":{"address":"Purenes - 21","city":"Rucava","zip":"LV-3477"},"purenes":{"address":"Purenes","city":"Mucenieki","zip":"LV-5316"},"purenes 4":{"address":"Purenes 4","city":"Ä»adi","zip":"LV-4627"}}