{"purviņi 1 - 1":{"address":"Purviņi 1 - 1","city":"Inčukalns","zip":"LV-2141"},"purviņi 1 - 2":{"address":"Purviņi 1 - 2","city":"Inčukalns","zip":"LV-2141"},"purviņi 1 - 3":{"address":"Purviņi 1 - 3","city":"Inčukalns","zip":"LV-2141"},"purviņi - 1":{"address":"Purviņi - 1","city":"Marki","zip":"LV-5662"},"purviņi - 2":{"address":"Purviņi - 2","city":"Marki","zip":"LV-5662"},"purviņi - 3":{"address":"Purviņi - 3","city":"Marki","zip":"LV-5662"},"stacija - 7":{"address":"Stacija - 7","city":"Purviņi","zip":"LV-5124"},"stacija - 4":{"address":"Stacija - 4","city":"Purviņi","zip":"LV-5124"},"purviņas":{"address":"Purviņas","city":"Bērzieši","zip":"LV-4576"},"vientuļi":{"address":"Vientuļi","city":"Purviņas","zip":"LV-4573"},"vientuļnieki":{"address":"Vientuļnieki","city":"Purviņas","zip":"LV-4573"},"vizbulītes":{"address":"Vizbulītes","city":"Purviņas","zip":"LV-4573"},"kalnmale":{"address":"Kalnmale","city":"Purviņas","zip":"LV-4573"},"klūgu sala":{"address":"Klūgu Sala","city":"Purviņas","zip":"LV-4573"},"lejaskalni":{"address":"Lejaskalni","city":"Purviņas","zip":"LV-4573"},"ozolkalns":{"address":"Ozolkalns","city":"Purviņas","zip":"LV-4573"},"purenes":{"address":"Purenes","city":"Purviņas","zip":"LV-4573"},"purvindava":{"address":"Purvindava","city":"Degumnieki","zip":"LV-4572"},"purvi":{"address":"Purvi","city":"Plintiņi","zip":"LV-3270"},"purvīši":{"address":"Purvīši","city":"Ugāle","zip":"LV-3615"},"purviņi":{"address":"Purviņi","city":"Zentene","zip":"LV-3123"},"pūrvietas":{"address":"Pūrvietas","city":"Ošvalki","zip":"LV-3626"}}