{"putnukalni - 1":{"address":"Putnukalni - 1","city":"Stalbe","zip":"LV-4151"},"putnukalni - 2":{"address":"Putnukalni - 2","city":"Stalbe","zip":"LV-4151"},"putnukalni - 3":{"address":"Putnukalni - 3","city":"Stalbe","zip":"LV-4151"},"putnukalni - 4":{"address":"Putnukalni - 4","city":"Stalbe","zip":"LV-4151"},"putnukalni - 5":{"address":"Putnukalni - 5","city":"Stalbe","zip":"LV-4151"},"putnukalni - 6":{"address":"Putnukalni - 6","city":"Stalbe","zip":"LV-4151"},"putnukalni - 7":{"address":"Putnukalni - 7","city":"Stalbe","zip":"LV-4151"},"putnukalni - 8":{"address":"Putnukalni - 8","city":"Stalbe","zip":"LV-4151"},"putnukalni - 9":{"address":"Putnukalni - 9","city":"Stalbe","zip":"LV-4151"},"putnukalni - 10":{"address":"Putnukalni - 10","city":"Stalbe","zip":"LV-4151"},"putnukalni - 11":{"address":"Putnukalni - 11","city":"Stalbe","zip":"LV-4151"},"putnukalni - 12":{"address":"Putnukalni - 12","city":"Stalbe","zip":"LV-4151"},"putnukalni - 13":{"address":"Putnukalni - 13","city":"Stalbe","zip":"LV-4151"},"putnukalni":{"address":"Putnukalni","city":"Stalbe","zip":"LV-4151"},"putnukalni 21":{"address":"Putnukalni 21","city":"Putnukalni","zip":"LV-5230"},"putnukalni 30":{"address":"Putnukalni 30","city":"Putnukalni","zip":"LV-5230"},"putnukalni 20":{"address":"Putnukalni 20","city":"Putnukalni","zip":"LV-5230"},"putnukalni 14":{"address":"Putnukalni 14","city":"Putnukalni","zip":"LV-5230"},"putnukalni 4":{"address":"Putnukalni 4","city":"Putnukalni","zip":"LV-5230"},"putnukalni 23":{"address":"Putnukalni 23","city":"Putnukalni","zip":"LV-5230"},"putnukalni 6":{"address":"Putnukalni 6","city":"Putnukalni","zip":"LV-5230"},"putnukalni 3":{"address":"Putnukalni 3","city":"Putnukalni","zip":"LV-5230"},"putnukalni 2":{"address":"Putnukalni 2","city":"Putnukalni","zip":"LV-5230"},"putnukalni 11":{"address":"Putnukalni 11","city":"Putnukalni","zip":"LV-5230"},"putnukalni 16":{"address":"Putnukalni 16","city":"Putnukalni","zip":"LV-5230"},"putnukalni 1":{"address":"Putnukalni 1","city":"Putnukalni","zip":"LV-5230"},"putnukalni 8":{"address":"Putnukalni 8","city":"Putnukalni","zip":"LV-5230"},"putnukalni 12":{"address":"Putnukalni 12","city":"Putnukalni","zip":"LV-5230"},"putnukalni 13":{"address":"Putnukalni 13","city":"Putnukalni","zip":"LV-5230"},"putnukalni 17":{"address":"Putnukalni 17","city":"Putnukalni","zip":"LV-5230"},"putnukalni 5/1-9":{"address":"Putnukalni 5/1-9","city":"Putnukalni","zip":"LV-5230"}}