{"putnu māja - 1":{"address":"Putnu māja - 1","city":"Straupe","zip":"LV-4152"},"putnu māja - 2":{"address":"Putnu māja - 2","city":"Straupe","zip":"LV-4152"},"putnukalni - 1":{"address":"Putnukalni - 1","city":"Stalbe","zip":"LV-4151"},"putnukalni - 2":{"address":"Putnukalni - 2","city":"Stalbe","zip":"LV-4151"},"putnukalni - 3":{"address":"Putnukalni - 3","city":"Stalbe","zip":"LV-4151"},"putnukalni - 4":{"address":"Putnukalni - 4","city":"Stalbe","zip":"LV-4151"},"putnukalni - 5":{"address":"Putnukalni - 5","city":"Stalbe","zip":"LV-4151"},"putnukalni - 6":{"address":"Putnukalni - 6","city":"Stalbe","zip":"LV-4151"},"putnukalni - 7":{"address":"Putnukalni - 7","city":"Stalbe","zip":"LV-4151"},"putnukalni - 8":{"address":"Putnukalni - 8","city":"Stalbe","zip":"LV-4151"},"putnukalni - 9":{"address":"Putnukalni - 9","city":"Stalbe","zip":"LV-4151"},"putnukalni - 10":{"address":"Putnukalni - 10","city":"Stalbe","zip":"LV-4151"},"putnukalni - 11":{"address":"Putnukalni - 11","city":"Stalbe","zip":"LV-4151"},"putnukalni - 12":{"address":"Putnukalni - 12","city":"Stalbe","zip":"LV-4151"},"putnukalni - 13":{"address":"Putnukalni - 13","city":"Stalbe","zip":"LV-4151"},"putnudārzi - 1":{"address":"Putnudārzi - 1","city":"Laidze","zip":"LV-3280"},"putnudārzi - 2":{"address":"Putnudārzi - 2","city":"Laidze","zip":"LV-3280"},"putnudārzi - 3":{"address":"Putnudārzi - 3","city":"Laidze","zip":"LV-3280"},"putnudārzi - 4":{"address":"Putnudārzi - 4","city":"Laidze","zip":"LV-3280"}}