{"pārupes iela 6 - 1":{"address":"Pārupes iela 6 - 1","city":"Tilža","zip":"LV-4572"},"pārupes iela 6 - 2":{"address":"Pārupes iela 6 - 2","city":"Tilža","zip":"LV-4572"},"pārupes iela 6 - 3":{"address":"Pārupes iela 6 - 3","city":"Tilža","zip":"LV-4572"},"pārupes iela 6 - 4":{"address":"Pārupes iela 6 - 4","city":"Tilža","zip":"LV-4572"},"pārupes iela 6 - 5":{"address":"Pārupes iela 6 - 5","city":"Tilža","zip":"LV-4572"},"pārupes iela 6 - 6":{"address":"Pārupes iela 6 - 6","city":"Tilža","zip":"LV-4572"},"pārupes iela 6 - 7":{"address":"Pārupes iela 6 - 7","city":"Tilža","zip":"LV-4572"},"pārupes iela 6 - 8":{"address":"Pārupes iela 6 - 8","city":"Tilža","zip":"LV-4572"},"pārupes iela 8 - 1":{"address":"Pārupes iela 8 - 1","city":"Tilža","zip":"LV-4572"},"pārupes iela 8 - 2":{"address":"Pārupes iela 8 - 2","city":"Tilža","zip":"LV-4572"},"pārupes iela 8 - 3":{"address":"Pārupes iela 8 - 3","city":"Tilža","zip":"LV-4572"},"pārupes iela 8 - 4":{"address":"Pārupes iela 8 - 4","city":"Tilža","zip":"LV-4572"},"pārupes iela 8 - 5":{"address":"Pārupes iela 8 - 5","city":"Tilža","zip":"LV-4572"},"pārupes iela 8 - 6":{"address":"Pārupes iela 8 - 6","city":"Tilža","zip":"LV-4572"},"pārupes iela 8 - 7":{"address":"Pārupes iela 8 - 7","city":"Tilža","zip":"LV-4572"},"pārupes iela 8 - 8":{"address":"Pārupes iela 8 - 8","city":"Tilža","zip":"LV-4572"},"pārupes iela 10 - 1":{"address":"Pārupes iela 10 - 1","city":"Tilža","zip":"LV-4572"},"pārupes iela 10 - 2":{"address":"Pārupes iela 10 - 2","city":"Tilža","zip":"LV-4572"},"pārupes iela 10 - 3":{"address":"Pārupes iela 10 - 3","city":"Tilža","zip":"LV-4572"},"pārupes iela 10 - 4":{"address":"Pārupes iela 10 - 4","city":"Tilža","zip":"LV-4572"},"pārupes iela 10 - 5":{"address":"Pārupes iela 10 - 5","city":"Tilža","zip":"LV-4572"},"pārupes iela 10 - 6":{"address":"Pārupes iela 10 - 6","city":"Tilža","zip":"LV-4572"},"pārupes iela 10 - 7":{"address":"Pārupes iela 10 - 7","city":"Tilža","zip":"LV-4572"},"pārupes iela 10 - 8":{"address":"Pārupes iela 10 - 8","city":"Tilža","zip":"LV-4572"},"pārupes iela 10 - 9":{"address":"Pārupes iela 10 - 9","city":"Tilža","zip":"LV-4572"},"pārupes iela 10 - 10":{"address":"Pārupes iela 10 - 10","city":"Tilža","zip":"LV-4572"},"pārupes iela 10 - 11":{"address":"Pārupes iela 10 - 11","city":"Tilža","zip":"LV-4572"},"pārupes iela 10 - 12":{"address":"Pārupes iela 10 - 12","city":"Tilža","zip":"LV-4572"},"pārupes iela 10 - 13":{"address":"Pārupes iela 10 - 13","city":"Tilža","zip":"LV-4572"},"pārupes iela 10 - 14":{"address":"Pārupes iela 10 - 14","city":"Tilža","zip":"LV-4572"},"pārupes iela 10 - 15":{"address":"Pārupes iela 10 - 15","city":"Tilža","zip":"LV-4572"},"pārupes iela 10 - 16":{"address":"Pārupes iela 10 - 16","city":"Tilža","zip":"LV-4572"},"pārupes iela 10 - 17":{"address":"Pārupes iela 10 - 17","city":"Tilža","zip":"LV-4572"},"pārupes iela 10 - 18":{"address":"Pārupes iela 10 - 18","city":"Tilža","zip":"LV-4572"},"pārupes iela 10 - 19":{"address":"Pārupes iela 10 - 19","city":"Tilža","zip":"LV-4572"},"pārupes iela 10 - 20":{"address":"Pārupes iela 10 - 20","city":"Tilža","zip":"LV-4572"},"pārupes iela 10 - 21":{"address":"Pārupes iela 10 - 21","city":"Tilža","zip":"LV-4572"},"pārupes iela 10 - 22":{"address":"Pārupes iela 10 - 22","city":"Tilža","zip":"LV-4572"},"pārupes iela 10 - 23":{"address":"Pārupes iela 10 - 23","city":"Tilža","zip":"LV-4572"},"pārupes iela 10 - 24":{"address":"Pārupes iela 10 - 24","city":"Tilža","zip":"LV-4572"},"pārupes iela 10 - 25":{"address":"Pārupes iela 10 - 25","city":"Tilža","zip":"LV-4572"},"pārupes iela 10 - 26":{"address":"Pārupes iela 10 - 26","city":"Tilža","zip":"LV-4572"},"pārupes iela 10 - 27":{"address":"Pārupes iela 10 - 27","city":"Tilža","zip":"LV-4572"},"pārupes iela 10 - 28":{"address":"Pārupes iela 10 - 28","city":"Tilža","zip":"LV-4572"},"pārupes iela 10 - 29":{"address":"Pārupes iela 10 - 29","city":"Tilža","zip":"LV-4572"},"pārupes iela 10 - 30":{"address":"Pārupes iela 10 - 30","city":"Tilža","zip":"LV-4572"},"pārupes iela 13 - 1":{"address":"Pārupes iela 13 - 1","city":"Liepupe","zip":"LV-4023"},"pārupes iela 13 - 2":{"address":"Pārupes iela 13 - 2","city":"Liepupe","zip":"LV-4023"},"pārupes iela 13 - 3":{"address":"Pārupes iela 13 - 3","city":"Tilža","zip":"LV-4572"},"pārupes iela 3 - 1":{"address":"Pārupes iela 3 - 1","city":"Liepupe","zip":"LV-4023"},"pārupes iela 3 - 2":{"address":"Pārupes iela 3 - 2","city":"Liepupe","zip":"LV-4023"},"pārupes iela 3 - 3":{"address":"Pārupes iela 3 - 3","city":"Liepupe","zip":"LV-4023"},"pārupes iela 4 - 1":{"address":"Pārupes iela 4 - 1","city":"Liepupe","zip":"LV-4023"},"pārupes iela 4 - 2":{"address":"Pārupes iela 4 - 2","city":"Liepupe","zip":"LV-4023"},"pārupes iela 5 - 1":{"address":"Pārupes iela 5 - 1","city":"Liepupe","zip":"LV-4023"},"pārupes iela 5 - 2":{"address":"Pārupes iela 5 - 2","city":"Liepupe","zip":"LV-4023"},"pārupes iela 5 - 3":{"address":"Pārupes iela 5 - 3","city":"Liepupe","zip":"LV-4023"},"pārupes iela 11 - 1":{"address":"Pārupes iela 11 - 1","city":"Liepupe","zip":"LV-4023"},"pārupes iela 11 - 2":{"address":"Pārupes iela 11 - 2","city":"Liepupe","zip":"LV-4023"},"pārupes iela 2 - 1":{"address":"Pārupes iela 2 - 1","city":"Liepupe","zip":"LV-4023"},"pārupes iela 2 - 2":{"address":"Pārupes iela 2 - 2","city":"Liepupe","zip":"LV-4023"},"pārupes iela 1 - 1":{"address":"Pārupes iela 1 - 1","city":"Liepupe","zip":"LV-4023"},"pārupes iela 1 - 2":{"address":"Pārupes iela 1 - 2","city":"Liepupe","zip":"LV-4023"}}