{"pārslas - 1":{"address":"Pārslas - 1","city":"Vārpas","zip":"LV-2125"},"pārslas - 2":{"address":"Pārslas - 2","city":"Vārpas","zip":"LV-2125"},"pārslas - 3":{"address":"Pārslas - 3","city":"Vārpas","zip":"LV-2125"},"pārslas - 4":{"address":"Pārslas - 4","city":"Vārpas","zip":"LV-2125"},"pārslas - 19":{"address":"Pārslas - 19","city":"Pelči","zip":"LV-3322"},"pārslas - 20":{"address":"Pārslas - 20","city":"Pelči","zip":"LV-3322"},"pārslas - 21":{"address":"Pārslas - 21","city":"Pelči","zip":"LV-3322"},"pārslas - 22":{"address":"Pārslas - 22","city":"Pelči","zip":"LV-3322"},"pārslas - 23":{"address":"Pārslas - 23","city":"Pelči","zip":"LV-3322"},"pārslas - 24":{"address":"Pārslas - 24","city":"Pelči","zip":"LV-3322"},"pārslas - 25":{"address":"Pārslas - 25","city":"Pelči","zip":"LV-3322"},"pārslas - 26":{"address":"Pārslas - 26","city":"Pelči","zip":"LV-3322"},"pārslas - 27":{"address":"Pārslas - 27","city":"Pelči","zip":"LV-3322"},"pārslas - 5":{"address":"Pārslas - 5","city":"Vārpas","zip":"LV-2125"},"pārslas - 6":{"address":"Pārslas - 6","city":"Vārpas","zip":"LV-2125"},"pārslas - 7":{"address":"Pārslas - 7","city":"Vārpas","zip":"LV-2125"},"pārslas - 8":{"address":"Pārslas - 8","city":"Vārpas","zip":"LV-2125"},"pārslas - 9":{"address":"Pārslas - 9","city":"Vārpas","zip":"LV-2125"},"pārslas - 10":{"address":"Pārslas - 10","city":"Vārpas","zip":"LV-2125"},"pārslas - 12":{"address":"Pārslas - 12","city":"Vārpas","zip":"LV-2125"},"pārslas - 11":{"address":"Pārslas - 11","city":"Vārpas","zip":"LV-2125"}}