{"pīlādžu iela 7 - 1":{"address":"Pīlādžu iela 7 - 1","city":"Augšlīgatne","zip":"LV-4108"},"pīlādžu iela 7 - 2":{"address":"Pīlādžu iela 7 - 2","city":"Augšlīgatne","zip":"LV-4108"},"pīlādžu iela 7 - 3":{"address":"Pīlādžu iela 7 - 3","city":"Augšlīgatne","zip":"LV-4108"},"pīlādžu iela 7 - 4":{"address":"Pīlādžu iela 7 - 4","city":"Augšlīgatne","zip":"LV-4108"},"pīlādžu iela 7 - 5":{"address":"Pīlādžu iela 7 - 5","city":"Augšlīgatne","zip":"LV-4108"},"pīlādžu iela 7 - 6":{"address":"Pīlādžu iela 7 - 6","city":"Augšlīgatne","zip":"LV-4108"},"pīlādžu iela 7 - 7":{"address":"Pīlādžu iela 7 - 7","city":"Augšlīgatne","zip":"LV-4108"},"pīlādžu iela 7 - 8":{"address":"Pīlādžu iela 7 - 8","city":"Augšlīgatne","zip":"LV-4108"},"pīlādžu iela 7 - 9":{"address":"Pīlādžu iela 7 - 9","city":"Augšlīgatne","zip":"LV-4108"},"pīlādžu iela 7 - 10":{"address":"Pīlādžu iela 7 - 10","city":"Augšlīgatne","zip":"LV-4108"},"pīlādžu iela 7 - 11":{"address":"Pīlādžu iela 7 - 11","city":"Augšlīgatne","zip":"LV-4108"},"pīlādžu iela 7 - 12":{"address":"Pīlādžu iela 7 - 12","city":"Augšlīgatne","zip":"LV-4108"},"pīlādžu iela 7 - 13":{"address":"Pīlādžu iela 7 - 13","city":"Augšlīgatne","zip":"LV-4108"},"pīlādžu iela 7 - 14":{"address":"Pīlādžu iela 7 - 14","city":"Augšlīgatne","zip":"LV-4108"},"pīlādžu iela 7 - 15":{"address":"Pīlādžu iela 7 - 15","city":"Augšlīgatne","zip":"LV-4108"},"pīlādžu iela 7 - 16":{"address":"Pīlādžu iela 7 - 16","city":"Augšlīgatne","zip":"LV-4108"},"pīlādžu iela 7 - 17":{"address":"Pīlādžu iela 7 - 17","city":"Augšlīgatne","zip":"LV-4108"},"pīlādžu iela 7 - 18":{"address":"Pīlādžu iela 7 - 18","city":"Augšlīgatne","zip":"LV-4108"},"pīlādžu iela 7 - 19":{"address":"Pīlādžu iela 7 - 19","city":"Augšlīgatne","zip":"LV-4108"},"pīlādžu iela 7 - 20":{"address":"Pīlādžu iela 7 - 20","city":"Augšlīgatne","zip":"LV-4108"},"pīlādžu iela 7 - 21":{"address":"Pīlādžu iela 7 - 21","city":"Augšlīgatne","zip":"LV-4108"},"pīlādžu iela 7 - 22":{"address":"Pīlādžu iela 7 - 22","city":"Augšlīgatne","zip":"LV-4108"},"pīlādžu iela 7 - 23":{"address":"Pīlādžu iela 7 - 23","city":"Augšlīgatne","zip":"LV-4108"},"pīlādžu iela 7 - 24":{"address":"Pīlādžu iela 7 - 24","city":"Augšlīgatne","zip":"LV-4108"},"pīlādžu iela 5 - 1":{"address":"Pīlādžu iela 5 - 1","city":"Augšlīgatne","zip":"LV-4108"},"pīlādžu iela 5 - 2":{"address":"Pīlādžu iela 5 - 2","city":"Augšlīgatne","zip":"LV-4108"},"pīlādžu iela 5 - 3":{"address":"Pīlādžu iela 5 - 3","city":"Augšlīgatne","zip":"LV-4108"},"pīlādžu iela 5 - 4":{"address":"Pīlādžu iela 5 - 4","city":"Augšlīgatne","zip":"LV-4108"},"pīlādžu iela 5 - 5":{"address":"Pīlādžu iela 5 - 5","city":"Augšlīgatne","zip":"LV-4108"},"pīlādžu iela 5 - 6":{"address":"Pīlādžu iela 5 - 6","city":"Augšlīgatne","zip":"LV-4108"},"pīlādžu iela 5 - 7":{"address":"Pīlādžu iela 5 - 7","city":"Augšlīgatne","zip":"LV-4108"},"pīlādžu iela 5 - 8":{"address":"Pīlādžu iela 5 - 8","city":"Augšlīgatne","zip":"LV-4108"},"pīlādžu iela 5 - 9":{"address":"Pīlādžu iela 5 - 9","city":"Augšlīgatne","zip":"LV-4108"},"pīlādžu iela 5 - 10":{"address":"Pīlādžu iela 5 - 10","city":"Augšlīgatne","zip":"LV-4108"},"pīlādžu iela 5 - 11":{"address":"Pīlādžu iela 5 - 11","city":"Augšlīgatne","zip":"LV-4108"},"pīlādžu iela 5 - 12":{"address":"Pīlādžu iela 5 - 12","city":"Augšlīgatne","zip":"LV-4108"}}