{"pļaviņas - 1":{"address":"Pļaviņas - 1","city":"Klapkalnciems","zip":"LV-3113"},"pļaviņas - 2":{"address":"Pļaviņas - 2","city":"Klapkalnciems","zip":"LV-3113"},"pļaviņas - 3":{"address":"Pļaviņas - 3","city":"Rude","zip":"LV-3475"},"pļaviņas - 4":{"address":"Pļaviņas - 4","city":"Rude","zip":"LV-3475"},"pļaviņas - 5":{"address":"Pļaviņas - 5","city":"Rude","zip":"LV-3475"},"pļaviņas - 6":{"address":"Pļaviņas - 6","city":"Rude","zip":"LV-3475"},"pļaviņas - 7":{"address":"Pļaviņas - 7","city":"Rude","zip":"LV-3475"},"pļaviņas - 8":{"address":"Pļaviņas - 8","city":"Rude","zip":"LV-3475"},"pļaviņas - 9":{"address":"Pļaviņas - 9","city":"Rude","zip":"LV-3475"},"pļaviņas - 10":{"address":"Pļaviņas - 10","city":"Rude","zip":"LV-3475"},"pļaviņas - 11":{"address":"Pļaviņas - 11","city":"Rude","zip":"LV-3475"},"pļaviņas - 12":{"address":"Pļaviņas - 12","city":"Rude","zip":"LV-3475"},"pļaviņas - 13":{"address":"Pļaviņas - 13","city":"Rude","zip":"LV-3475"},"pļaviņas - 14":{"address":"Pļaviņas - 14","city":"Rude","zip":"LV-3475"},"pļaviņas - 15":{"address":"Pļaviņas - 15","city":"Rude","zip":"LV-3475"},"pļaviņas - 16":{"address":"Pļaviņas - 16","city":"Rude","zip":"LV-3475"},"pļaviņas - 17":{"address":"Pļaviņas - 17","city":"Rude","zip":"LV-3475"},"pļaviņas - 18":{"address":"Pļaviņas - 18","city":"Rude","zip":"LV-3475"},"pļaviņas - 19":{"address":"Pļaviņas - 19","city":"Rude","zip":"LV-3475"},"pļaviņas - 20":{"address":"Pļaviņas - 20","city":"Rude","zip":"LV-3475"},"pļaviņas - 21":{"address":"Pļaviņas - 21","city":"Rude","zip":"LV-3475"},"pļaviņas 1 - 1":{"address":"Pļaviņas 1 - 1","city":"Ķirupe","zip":"LV-5456"},"pļaviņas 1 - 2":{"address":"Pļaviņas 1 - 2","city":"Ķirupe","zip":"LV-5456"}}