{"pūpoli - 1":{"address":"Pūpoli - 1","city":"Vāne","zip":"LV-3131"},"pūpoli - 2":{"address":"Pūpoli - 2","city":"Vāne","zip":"LV-3131"},"pūpoli - 3":{"address":"Pūpoli - 3","city":"Vāne","zip":"LV-3131"},"pūpoli - 4":{"address":"Pūpoli - 4","city":"Vāne","zip":"LV-3131"},"pūpoli - 5":{"address":"Pūpoli - 5","city":"Vāne","zip":"LV-3131"},"pūpoli - 6":{"address":"Pūpoli - 6","city":"Vāne","zip":"LV-3131"},"pūpoli - 7":{"address":"Pūpoli - 7","city":"Vārme","zip":"LV-3333"},"pūpoli - 8":{"address":"Pūpoli - 8","city":"Vārme","zip":"LV-3333"},"pūpoli - 9":{"address":"Pūpoli - 9","city":"Vārme","zip":"LV-3333"},"pūpoli - 10":{"address":"Pūpoli - 10","city":"Vārme","zip":"LV-3333"},"pūpoli - 11":{"address":"Pūpoli - 11","city":"Vārme","zip":"LV-3333"},"pūpoli - 12":{"address":"Pūpoli - 12","city":"Vārme","zip":"LV-3333"},"pūpoli - 13":{"address":"Pūpoli - 13","city":"Vārme","zip":"LV-3333"},"pūpoli - 14":{"address":"Pūpoli - 14","city":"Vārme","zip":"LV-3333"},"pūpoli - 15":{"address":"Pūpoli - 15","city":"Vārme","zip":"LV-3333"},"pūpoli - 16":{"address":"Pūpoli - 16","city":"Vārme","zip":"LV-3333"},"pūpoli - 17":{"address":"Pūpoli - 17","city":"Vārme","zip":"LV-3333"},"pūpoli - 18":{"address":"Pūpoli - 18","city":"Vārme","zip":"LV-3333"},"pūpoli - 19":{"address":"Pūpoli - 19","city":"Vārme","zip":"LV-3333"},"pūpoli - 20":{"address":"Pūpoli - 20","city":"Vārme","zip":"LV-3333"},"pūpoli - 21":{"address":"Pūpoli - 21","city":"Vārme","zip":"LV-3333"},"pūpoli - 22":{"address":"Pūpoli - 22","city":"Vārme","zip":"LV-3333"},"pūpoli - 23":{"address":"Pūpoli - 23","city":"Vārme","zip":"LV-3333"},"pūpoli - 24":{"address":"Pūpoli - 24","city":"Vārme","zip":"LV-3333"},"pūpoli - 25":{"address":"Pūpoli - 25","city":"Vārme","zip":"LV-3333"},"pūpoli - 26":{"address":"Pūpoli - 26","city":"Vārme","zip":"LV-3333"},"pūpoli - 27":{"address":"Pūpoli - 27","city":"Vārme","zip":"LV-3333"}}