{"pūņu pils - 1":{"address":"Pūņu Pils - 1","city":"Vecpūņas","zip":"LV-3253"},"pūņu pils - 2":{"address":"Pūņu Pils - 2","city":"Vecpūņas","zip":"LV-3253"},"pūņu pils - 3":{"address":"Pūņu Pils - 3","city":"Vecpūņas","zip":"LV-3253"},"pūņu pils - 4":{"address":"Pūņu Pils - 4","city":"Vecpūņas","zip":"LV-3253"},"pūņu pils - 5":{"address":"Pūņu Pils - 5","city":"Vecpūņas","zip":"LV-3253"},"pūņu pils - 6":{"address":"Pūņu Pils - 6","city":"Vecpūņas","zip":"LV-3253"},"pūņu pils - 7":{"address":"Pūņu Pils - 7","city":"Vecpūņas","zip":"LV-3253"},"pūņu pils - 8":{"address":"Pūņu Pils - 8","city":"Vecpūņas","zip":"LV-3253"},"pūņu pils - 9":{"address":"Pūņu Pils - 9","city":"Vecpūņas","zip":"LV-3253"},"pūņu pils - 10":{"address":"Pūņu Pils - 10","city":"Vecpūņas","zip":"LV-3253"},"pūņu pils - 11":{"address":"Pūņu Pils - 11","city":"Vecpūņas","zip":"LV-3253"},"pūņu krejotava - 1":{"address":"Pūņu krejotava - 1","city":"Vecpūņas","zip":"LV-3253"},"pūņu krejotava - 2":{"address":"Pūņu krejotava - 2","city":"Vecpūņas","zip":"LV-3253"},"pūņu krejotava - 3":{"address":"Pūņu krejotava - 3","city":"Vecpūņas","zip":"LV-3253"},"pūņu dzirnavas - 1":{"address":"Pūņu Dzirnavas - 1","city":"Pūņas","zip":"LV-3253"},"pūņu dzirnavas - 2":{"address":"Pūņu Dzirnavas - 2","city":"Pūņas","zip":"LV-3253"},"pūņu krejotava":{"address":"Pūņu krejotava","city":"Vecpūņas","zip":"LV-3253"},"pūņu pils":{"address":"Pūņu Pils","city":"Vecpūņas","zip":"LV-3253"},"pūņu dzirnavas":{"address":"Pūņu Dzirnavas","city":"Pūņas","zip":"LV-3253"},"pūņu krogs":{"address":"Pūņu Krogs","city":"Pūņas","zip":"LV-3253"},"pūņu pamatskola":{"address":"Pūņu pamatskola","city":"Pūņas","zip":"LV-3253"}}