{"arāji - 1":{"address":"Arāji - 1","city":"Vērsis","zip":"LV-4242"},"arāji - 2":{"address":"Arāji - 2","city":"Vērsis","zip":"LV-4242"},"arāji - 3":{"address":"Arāji - 3","city":"Vērsis","zip":"LV-4242"},"arāji - 4":{"address":"Arāji - 4","city":"Vērsis","zip":"LV-4242"},"arāji - 5":{"address":"Arāji - 5","city":"Vērsis","zip":"LV-4242"},"arāji - 6":{"address":"Arāji - 6","city":"Vērsis","zip":"LV-4242"},"arāji - 7":{"address":"Arāji - 7","city":"Vērsis","zip":"LV-4242"},"arāji - 8":{"address":"Arāji - 8","city":"Vērsis","zip":"LV-4242"},"vītoli - 1":{"address":"Vītoli - 1","city":"Ramata","zip":"LV-4216"},"vītoli - 2":{"address":"Vītoli - 2","city":"Ramata","zip":"LV-4216"},"vītoli - 3":{"address":"Vītoli - 3","city":"Ramata","zip":"LV-4216"},"vītoli - 4":{"address":"Vītoli - 4","city":"Ramata","zip":"LV-4216"},"ķīši - 1":{"address":"Ķīši - 1","city":"Ramata","zip":"LV-4216"},"ķīši - 2":{"address":"Ķīši - 2","city":"Ramata","zip":"LV-4216"},"ceriņi - 1":{"address":"Ceriņi - 1","city":"Ramata","zip":"LV-4216"},"ceriņi - 2":{"address":"Ceriņi - 2","city":"Ramata","zip":"LV-4216"},"ceriņi - 3":{"address":"Ceriņi - 3","city":"Ramata","zip":"LV-4216"},"ceriņi - 4":{"address":"Ceriņi - 4","city":"Ramata","zip":"LV-4216"},"ceriņi - 5":{"address":"Ceriņi - 5","city":"Ramata","zip":"LV-4216"},"ceriņi - 6":{"address":"Ceriņi - 6","city":"Ramata","zip":"LV-4216"},"ceriņi - 7":{"address":"Ceriņi - 7","city":"Ramata","zip":"LV-4216"},"ceriņi - 8":{"address":"Ceriņi - 8","city":"Ramata","zip":"LV-4216"},"ceriņi - 9":{"address":"Ceriņi - 9","city":"Ramata","zip":"LV-4216"},"ceriņi - 10":{"address":"Ceriņi - 10","city":"Ramata","zip":"LV-4216"},"ceriņi - 11":{"address":"Ceriņi - 11","city":"Ramata","zip":"LV-4216"},"ceriņi - 12":{"address":"Ceriņi - 12","city":"Ramata","zip":"LV-4216"},"ceriņi - 13":{"address":"Ceriņi - 13","city":"Ramata","zip":"LV-4216"},"ceriņi - 14":{"address":"Ceriņi - 14","city":"Ramata","zip":"LV-4216"},"ceriņi - 15":{"address":"Ceriņi - 15","city":"Ramata","zip":"LV-4216"},"ceriņi - 16":{"address":"Ceriņi - 16","city":"Ramata","zip":"LV-4216"},"ceriņi - 17":{"address":"Ceriņi - 17","city":"Ramata","zip":"LV-4216"},"ceriņi - 18":{"address":"Ceriņi - 18","city":"Ramata","zip":"LV-4216"},"ceriņi - 19":{"address":"Ceriņi - 19","city":"Ramata","zip":"LV-4216"},"ceriņi - 20":{"address":"Ceriņi - 20","city":"Ramata","zip":"LV-4216"},"ceriņi - 21":{"address":"Ceriņi - 21","city":"Ramata","zip":"LV-4216"},"ceriņi - 22":{"address":"Ceriņi - 22","city":"Ramata","zip":"LV-4216"},"ceriņi - 23":{"address":"Ceriņi - 23","city":"Ramata","zip":"LV-4216"},"ceriņi - 24":{"address":"Ceriņi - 24","city":"Ramata","zip":"LV-4216"},"ceriņi - 25":{"address":"Ceriņi - 25","city":"Ramata","zip":"LV-4216"},"ceriņi - 26":{"address":"Ceriņi - 26","city":"Ramata","zip":"LV-4216"},"ceriņi - 27":{"address":"Ceriņi - 27","city":"Ramata","zip":"LV-4216"},"ceriņi - 28":{"address":"Ceriņi - 28","city":"Ramata","zip":"LV-4216"},"ceriņi - 29":{"address":"Ceriņi - 29","city":"Ramata","zip":"LV-4216"},"ceriņi - 30":{"address":"Ceriņi - 30","city":"Ramata","zip":"LV-4216"},"ceriņi - 31":{"address":"Ceriņi - 31","city":"Ramata","zip":"LV-4216"},"ceriņi - 32":{"address":"Ceriņi - 32","city":"Ramata","zip":"LV-4216"},"ceriņi - 33":{"address":"Ceriņi - 33","city":"Ramata","zip":"LV-4216"},"ceriņi - 34":{"address":"Ceriņi - 34","city":"Ramata","zip":"LV-4216"},"ceriņi - 35":{"address":"Ceriņi - 35","city":"Ramata","zip":"LV-4216"},"ceriņi - 36":{"address":"Ceriņi - 36","city":"Ramata","zip":"LV-4216"},"ievāji - 1":{"address":"Ievāji - 1","city":"Ramata","zip":"LV-4216"},"ievāji - 2":{"address":"Ievāji - 2","city":"Ramata","zip":"LV-4216"},"ievāji - 3":{"address":"Ievāji - 3","city":"Ramata","zip":"LV-4216"},"ievāji - 4":{"address":"Ievāji - 4","city":"Ramata","zip":"LV-4216"},"ievāji - 5":{"address":"Ievāji - 5","city":"Ramata","zip":"LV-4216"},"ievāji - 6":{"address":"Ievāji - 6","city":"Ramata","zip":"LV-4216"},"ievāji - 7":{"address":"Ievāji - 7","city":"Ramata","zip":"LV-4216"},"ievāji - 8":{"address":"Ievāji - 8","city":"Ramata","zip":"LV-4216"},"kļavas - 1":{"address":"Kļavas - 1","city":"Ramata","zip":"LV-4216"},"kļavas - 2":{"address":"Kļavas - 2","city":"Ramata","zip":"LV-4216"},"kļavas - 3":{"address":"Kļavas - 3","city":"Ramata","zip":"LV-4216"},"kļavas - 4":{"address":"Kļavas - 4","city":"Ramata","zip":"LV-4216"},"kļavas - 5":{"address":"Kļavas - 5","city":"Ramata","zip":"LV-4216"},"kļavas - 6":{"address":"Kļavas - 6","city":"Ramata","zip":"LV-4216"},"kļavas - 7":{"address":"Kļavas - 7","city":"Ramata","zip":"LV-4216"},"kļavas - 8":{"address":"Kļavas - 8","city":"Ramata","zip":"LV-4216"},"kļavas - 9":{"address":"Kļavas - 9","city":"Ramata","zip":"LV-4216"},"kļavas - 10":{"address":"Kļavas - 10","city":"Ramata","zip":"LV-4216"},"kļavas - 11":{"address":"Kļavas - 11","city":"Ramata","zip":"LV-4216"},"kļavas - 12":{"address":"Kļavas - 12","city":"Ramata","zip":"LV-4216"}}