{"sitnikmājas":{"address":"Sitnikmājas","city":"Rimšāni","zip":"LV-5601"},"georgi":{"address":"Georgi","city":"Rimšāni","zip":"LV-5601"},"paegles":{"address":"Paegles","city":"Rimšāni","zip":"LV-5687"},"vāveres":{"address":"Vāveres","city":"Rimšāni","zip":"LV-5601"},"graudiņi":{"address":"Graudiņi","city":"Rimšāni","zip":"LV-5601"},"ludvigi":{"address":"Ludvigi","city":"Rimšāni","zip":"LV-5601"},"misjuni":{"address":"Misjuni","city":"Rimšāni","zip":"LV-5601"},"asteres":{"address":"Asteres","city":"Rimšāni","zip":"LV-5687"},"dārzi":{"address":"Dārzi","city":"Rimšāni","zip":"LV-5687"},"meldri":{"address":"Meldri","city":"Rimšāni","zip":"LV-5687"},"silrači":{"address":"Silrači","city":"Rimšāni","zip":"LV-5687"},"viktorijas":{"address":"Viktorijas","city":"Rimšāni","zip":"LV-5687"},"viļumi":{"address":"Viļumi","city":"Rimšāni","zip":"LV-5687"},"rimšāni":{"address":"Rimšāni","city":"Sērene","zip":"LV-5123"},"dunduri":{"address":"Dunduri","city":"Rimšāni","zip":"LV-5652"},"laukgaļi":{"address":"Laukgaļi","city":"Rimšāni","zip":"LV-5652"},"līgatņu mājas":{"address":"Līgatņu mājas","city":"Rimšāni","zip":"LV-5652"},"mālnieki":{"address":"Mālnieki","city":"Rimšāni","zip":"LV-5652"},"nogāzes":{"address":"Nogāzes","city":"Rimšāni","zip":"LV-5652"},"rožlejas":{"address":"Rožlejas","city":"Rimšāni","zip":"LV-5652"},"avoti":{"address":"Avoti","city":"Rimšāni","zip":"LV-5601"},"bērzkalni":{"address":"Bērzkalni","city":"Rimšāni","zip":"LV-5601"},"bērzvidi":{"address":"Bērzvidi","city":"Rimšāni","zip":"LV-5601"},"bronas":{"address":"Bronas","city":"Rimšāni","zip":"LV-5601"},"miķeļi":{"address":"Miķeļi","city":"Rimšāni","zip":"LV-5601"}}