{"rozalinas māja - 1":{"address":"Rozalinas māja - 1","city":"Rozalina","zip":"LV-5330"},"rozalinas māja - 2":{"address":"Rozalinas māja - 2","city":"Rozalina","zip":"LV-5330"},"rozalinas māja - 3":{"address":"Rozalinas māja - 3","city":"Rozalina","zip":"LV-5330"},"rozalinas māja - 4":{"address":"Rozalinas māja - 4","city":"Rozalina","zip":"LV-5330"},"rozalinas māja - 5":{"address":"Rozalinas māja - 5","city":"Rozalina","zip":"LV-5330"},"rozalinas māja - 6":{"address":"Rozalinas māja - 6","city":"Rozalina","zip":"LV-5330"},"rozalinas māja - 7":{"address":"Rozalinas māja - 7","city":"Rozalina","zip":"LV-5330"},"rozalinas māja - 8":{"address":"Rozalinas māja - 8","city":"Rozalina","zip":"LV-5330"},"veikals rozalina":{"address":"Veikals Rozalina","city":"Rozalina","zip":"LV-5330"},"māllēpes":{"address":"Māllēpes","city":"Rozalina","zip":"LV-5330"},"suvorova":{"address":"Suvorova","city":"Rozalina","zip":"LV-5330"},"rozītes":{"address":"Rozītes","city":"Rozalina","zip":"LV-5330"},"kotļarovas bibliotēka":{"address":"Kotļarovas bibliotēka","city":"Rozalina","zip":"LV-5330"},"gorina ēku īpašums":{"address":"Gorina ēku īpašums","city":"Rozalina","zip":"LV-5330"},"mišasmāja":{"address":"Mišasmāja","city":"Rozalina","zip":"LV-5330"},"borisovka":{"address":"Borisovka","city":"Rozalina","zip":"LV-5330"},"rozalinas māja":{"address":"Rozalinas māja","city":"Rozalina","zip":"LV-5330"},"apses":{"address":"Apses","city":"Rozalina","zip":"LV-5330"},"fazenda":{"address":"Fazenda","city":"Rozalina","zip":"LV-5330"},"ferma":{"address":"Ferma","city":"Rozalina","zip":"LV-5330"},"malas":{"address":"Malas","city":"Rozalina","zip":"LV-5330"},"kristīnas":{"address":"Kristīnas","city":"Rozalina","zip":"LV-5330"},"rozalina":{"address":"Rozalina","city":"Rozalina","zip":"LV-4622"},"rozalina 1":{"address":"Rozalina 1","city":"Rozalina","zip":"LV-5330"},"zalta kolns":{"address":"Zalta Kolns","city":"Rozalina","zip":"LV-5330"},"rozalīna":{"address":"Rozalīna","city":"Kaučera Gailīši","zip":"LV-5329"},"bērzu sala":{"address":"Bērzu sala","city":"Rozalina","zip":"LV-4622"},"bļodnieki":{"address":"Bļodnieki","city":"Rozalina","zip":"LV-4622"}}