{"līcīši - 1":{"address":"Līcīši - 1","city":"Rozes","zip":"LV-4131"},"līcīši - 2":{"address":"Līcīši - 2","city":"Rozes","zip":"LV-4131"},"līcīši - 3":{"address":"Līcīši - 3","city":"Rozes","zip":"LV-4131"},"līcīši - 4":{"address":"Līcīši - 4","city":"Rozes","zip":"LV-4131"},"līcīši - 5":{"address":"Līcīši - 5","city":"Rozes","zip":"LV-4131"},"līcīši - 6":{"address":"Līcīši - 6","city":"Rozes","zip":"LV-4131"},"līcīši - 7":{"address":"Līcīši - 7","city":"Rozes","zip":"LV-4131"},"līcīši - 8":{"address":"Līcīši - 8","city":"Rozes","zip":"LV-4131"},"saules iela 10 - 1":{"address":"Saules iela 10 - 1","city":"Rozes","zip":"LV-4131"},"saules iela 10 - 2":{"address":"Saules iela 10 - 2","city":"Rozes","zip":"LV-4131"},"saules iela 10 - 3":{"address":"Saules iela 10 - 3","city":"Rozes","zip":"LV-4131"},"saules iela 10 - 4":{"address":"Saules iela 10 - 4","city":"Rozes","zip":"LV-4131"},"saules iela 10 - 5":{"address":"Saules iela 10 - 5","city":"Rozes","zip":"LV-4131"},"saules iela 10 - 6":{"address":"Saules iela 10 - 6","city":"Rozes","zip":"LV-4131"},"saules iela 10 - 7":{"address":"Saules iela 10 - 7","city":"Rozes","zip":"LV-4131"},"saules iela 10 - 8":{"address":"Saules iela 10 - 8","city":"Rozes","zip":"LV-4131"},"saules iela 10 - 9":{"address":"Saules iela 10 - 9","city":"Rozes","zip":"LV-4131"},"saules iela 10 - 10":{"address":"Saules iela 10 - 10","city":"Rozes","zip":"LV-4131"},"saules iela 10 - 11":{"address":"Saules iela 10 - 11","city":"Rozes","zip":"LV-4131"},"saules iela 10 - 12":{"address":"Saules iela 10 - 12","city":"Rozes","zip":"LV-4131"},"saules iela 10 - 13":{"address":"Saules iela 10 - 13","city":"Rozes","zip":"LV-4131"},"saules iela 10 - 14":{"address":"Saules iela 10 - 14","city":"Rozes","zip":"LV-4131"},"saules iela 10 - 15":{"address":"Saules iela 10 - 15","city":"Rozes","zip":"LV-4131"},"saules iela 10 - 16":{"address":"Saules iela 10 - 16","city":"Rozes","zip":"LV-4131"},"saules iela 10 - 17":{"address":"Saules iela 10 - 17","city":"Rozes","zip":"LV-4131"},"saules iela 10 - 18":{"address":"Saules iela 10 - 18","city":"Rozes","zip":"LV-4131"},"saules iela 8 - 1":{"address":"Saules iela 8 - 1","city":"Rozes","zip":"LV-4131"},"saules iela 8 - 2":{"address":"Saules iela 8 - 2","city":"Rozes","zip":"LV-4131"},"saules iela 8 - 3":{"address":"Saules iela 8 - 3","city":"Rozes","zip":"LV-4131"},"saules iela 8 - 4":{"address":"Saules iela 8 - 4","city":"Rozes","zip":"LV-4131"},"saules iela 8 - 5":{"address":"Saules iela 8 - 5","city":"Rozes","zip":"LV-4131"},"saules iela 8 - 6":{"address":"Saules iela 8 - 6","city":"Rozes","zip":"LV-4131"},"saules iela 8 - 7":{"address":"Saules iela 8 - 7","city":"Rozes","zip":"LV-4131"},"saules iela 8 - 8":{"address":"Saules iela 8 - 8","city":"Rozes","zip":"LV-4131"},"saules iela 8 - 9":{"address":"Saules iela 8 - 9","city":"Rozes","zip":"LV-4131"},"saules iela 8 - 10":{"address":"Saules iela 8 - 10","city":"Rozes","zip":"LV-4131"},"saules iela 8 - 11":{"address":"Saules iela 8 - 11","city":"Rozes","zip":"LV-4131"},"saules iela 8 - 12":{"address":"Saules iela 8 - 12","city":"Rozes","zip":"LV-4131"},"saules iela 8 - 13":{"address":"Saules iela 8 - 13","city":"Rozes","zip":"LV-4131"},"saules iela 8 - 14":{"address":"Saules iela 8 - 14","city":"Rozes","zip":"LV-4131"},"saules iela 8 - 15":{"address":"Saules iela 8 - 15","city":"Rozes","zip":"LV-4131"},"saules iela 8 - 16":{"address":"Saules iela 8 - 16","city":"Rozes","zip":"LV-4131"},"saules iela 8 - 17":{"address":"Saules iela 8 - 17","city":"Rozes","zip":"LV-4131"},"saules iela 8 - 18":{"address":"Saules iela 8 - 18","city":"Rozes","zip":"LV-4131"},"rozes - 1":{"address":"Rozes - 1","city":"Vandzene","zip":"LV-3281"},"rozes - 2":{"address":"Rozes - 2","city":"Vandzene","zip":"LV-3281"},"rozes - 3":{"address":"Rozes - 3","city":"Vandzene","zip":"LV-3281"},"rozes - 4":{"address":"Rozes - 4","city":"Vandzene","zip":"LV-3281"},"rozes - 5":{"address":"Rozes - 5","city":"Vandzene","zip":"LV-3281"},"rozes - 6":{"address":"Rozes - 6","city":"Vandzene","zip":"LV-3281"},"rozes - 7":{"address":"Rozes - 7","city":"Stikli","zip":"LV-3613"},"rozes - 8":{"address":"Rozes - 8","city":"Stikli","zip":"LV-3613"},"rozes - 9":{"address":"Rozes - 9","city":"Šķēde","zip":"LV-3875"},"rozes - 10":{"address":"Rozes - 10","city":"Šķēde","zip":"LV-3875"},"rozes - 11":{"address":"Rozes - 11","city":"Šķēde","zip":"LV-3875"},"rozes - 12":{"address":"Rozes - 12","city":"Šķēde","zip":"LV-3875"},"rozes - 13":{"address":"Rozes - 13","city":"Šķēde","zip":"LV-3875"},"rozes - 14":{"address":"Rozes - 14","city":"Šķēde","zip":"LV-3875"},"rozes - 15":{"address":"Rozes - 15","city":"Šķēde","zip":"LV-3875"},"rozes - 16":{"address":"Rozes - 16","city":"Šķēde","zip":"LV-3875"},"rozes - 17":{"address":"Rozes - 17","city":"Šķēde","zip":"LV-3875"},"rozes - 18":{"address":"Rozes - 18","city":"Šķēde","zip":"LV-3875"}}