{"j. rozentāla iela 4 - 1":{"address":"J. Rozentāla iela 4 - 1","city":"Druva","zip":"LV-3862"},"j. rozentāla iela 4 - 2":{"address":"J. Rozentāla iela 4 - 2","city":"Druva","zip":"LV-3862"},"j. rozentāla iela 4 - 3":{"address":"J. Rozentāla iela 4 - 3","city":"Druva","zip":"LV-3862"},"j. rozentāla iela 4 - 4":{"address":"J. Rozentāla iela 4 - 4","city":"Druva","zip":"LV-3862"},"j. rozentāla iela 3 - 1":{"address":"J. Rozentāla iela 3 - 1","city":"Druva","zip":"LV-3862"},"j. rozentāla iela 3 - 3":{"address":"J. Rozentāla iela 3 - 3","city":"Druva","zip":"LV-3862"},"j. rozentāla iela 3 - 15":{"address":"J. Rozentāla iela 3 - 15","city":"Druva","zip":"LV-3862"},"j. rozentāla iela 3 - 21":{"address":"J. Rozentāla iela 3 - 21","city":"Druva","zip":"LV-3862"},"j. rozentāla iela 3 - 23":{"address":"J. Rozentāla iela 3 - 23","city":"Druva","zip":"LV-3862"},"j. rozentāla iela 3 - 25":{"address":"J. Rozentāla iela 3 - 25","city":"Druva","zip":"LV-3862"},"j. rozentāla iela 3 - 26":{"address":"J. Rozentāla iela 3 - 26","city":"Druva","zip":"LV-3862"},"j. rozentāla iela 3 - 27":{"address":"J. Rozentāla iela 3 - 27","city":"Druva","zip":"LV-3862"},"j. rozentāla iela 3 - 28":{"address":"J. Rozentāla iela 3 - 28","city":"Druva","zip":"LV-3862"},"j. rozentāla iela 3 - 29":{"address":"J. Rozentāla iela 3 - 29","city":"Druva","zip":"LV-3862"},"j. rozentāla iela 3 - 30":{"address":"J. Rozentāla iela 3 - 30","city":"Druva","zip":"LV-3862"},"j. rozentāla iela 3 - 31":{"address":"J. Rozentāla iela 3 - 31","city":"Druva","zip":"LV-3862"},"j. rozentāla iela 3 - 32":{"address":"J. Rozentāla iela 3 - 32","city":"Druva","zip":"LV-3862"},"j. rozentāla iela 3 - 34":{"address":"J. Rozentāla iela 3 - 34","city":"Druva","zip":"LV-3862"},"j. rozentāla iela 3 - 35":{"address":"J. Rozentāla iela 3 - 35","city":"Druva","zip":"LV-3862"},"j. rozentāla iela 3 - 38":{"address":"J. Rozentāla iela 3 - 38","city":"Druva","zip":"LV-3862"},"j. rozentāla iela 6 - 1":{"address":"J. Rozentāla iela 6 - 1","city":"Druva","zip":"LV-3862"},"j. rozentāla iela 6 - 2":{"address":"J. Rozentāla iela 6 - 2","city":"Druva","zip":"LV-3862"},"j. rozentāla iela 6 - 3":{"address":"J. Rozentāla iela 6 - 3","city":"Druva","zip":"LV-3862"},"j. rozentāla iela 6 - 4":{"address":"J. Rozentāla iela 6 - 4","city":"Druva","zip":"LV-3862"},"j. rozentāla iela 2 - 1":{"address":"J. Rozentāla iela 2 - 1","city":"Druva","zip":"LV-3862"},"j. rozentāla iela 2 - 2":{"address":"J. Rozentāla iela 2 - 2","city":"Druva","zip":"LV-3862"},"j. rozentāla iela 2 - 3":{"address":"J. Rozentāla iela 2 - 3","city":"Druva","zip":"LV-3862"},"j. rozentāla iela 2 - 4":{"address":"J. Rozentāla iela 2 - 4","city":"Druva","zip":"LV-3862"},"j. rozentāla iela 1 - 1":{"address":"J. Rozentāla iela 1 - 1","city":"Druva","zip":"LV-3862"},"j. rozentāla iela 1 - 2":{"address":"J. Rozentāla iela 1 - 2","city":"Druva","zip":"LV-3862"},"j. rozentāla iela 1 - 3":{"address":"J. Rozentāla iela 1 - 3","city":"Druva","zip":"LV-3862"},"j. rozentāla iela 1 - 4":{"address":"J. Rozentāla iela 1 - 4","city":"Druva","zip":"LV-3862"},"j. rozentāla iela 1 - 5":{"address":"J. Rozentāla iela 1 - 5","city":"Druva","zip":"LV-3862"},"j. rozentāla iela 1 - 6":{"address":"J. Rozentāla iela 1 - 6","city":"Druva","zip":"LV-3862"},"j. rozentāla iela 1 - 7":{"address":"J. Rozentāla iela 1 - 7","city":"Druva","zip":"LV-3862"},"j. rozentāla iela 1 - 8":{"address":"J. Rozentāla iela 1 - 8","city":"Druva","zip":"LV-3862"},"j. rozentāla iela 1 - 9":{"address":"J. Rozentāla iela 1 - 9","city":"Druva","zip":"LV-3862"},"j. rozentāla iela 1 - 10":{"address":"J. Rozentāla iela 1 - 10","city":"Druva","zip":"LV-3862"},"j. rozentāla iela 1 - 11":{"address":"J. Rozentāla iela 1 - 11","city":"Druva","zip":"LV-3862"},"j. rozentāla iela 1 - 12":{"address":"J. Rozentāla iela 1 - 12","city":"Druva","zip":"LV-3862"},"j. rozentāla iela 1 - 13":{"address":"J. Rozentāla iela 1 - 13","city":"Druva","zip":"LV-3862"},"j. rozentāla iela 1 - 14":{"address":"J. Rozentāla iela 1 - 14","city":"Druva","zip":"LV-3862"},"j. rozentāla iela 1 - 15":{"address":"J. Rozentāla iela 1 - 15","city":"Druva","zip":"LV-3862"},"j. rozentāla iela 1 - 16":{"address":"J. Rozentāla iela 1 - 16","city":"Druva","zip":"LV-3862"},"j. rozentāla iela 1 - 17":{"address":"J. Rozentāla iela 1 - 17","city":"Druva","zip":"LV-3862"},"j. rozentāla iela 1 - 18":{"address":"J. Rozentāla iela 1 - 18","city":"Druva","zip":"LV-3862"},"j. rozentāla iela 1 - 19":{"address":"J. Rozentāla iela 1 - 19","city":"Druva","zip":"LV-3862"},"j. rozentāla iela 1 - 20":{"address":"J. Rozentāla iela 1 - 20","city":"Druva","zip":"LV-3862"},"j. rozentāla iela 1 - 21":{"address":"J. Rozentāla iela 1 - 21","city":"Druva","zip":"LV-3862"},"j. rozentāla iela 1 - 22":{"address":"J. Rozentāla iela 1 - 22","city":"Druva","zip":"LV-3862"},"j. rozentāla iela 1 - 23":{"address":"J. Rozentāla iela 1 - 23","city":"Druva","zip":"LV-3862"},"j. rozentāla iela 1 - 24":{"address":"J. Rozentāla iela 1 - 24","city":"Druva","zip":"LV-3862"},"j. rozentāla iela 1 - 25":{"address":"J. Rozentāla iela 1 - 25","city":"Druva","zip":"LV-3862"},"j. rozentāla iela 1 - 26":{"address":"J. Rozentāla iela 1 - 26","city":"Druva","zip":"LV-3862"},"j. rozentāla iela 1 - 27":{"address":"J. Rozentāla iela 1 - 27","city":"Druva","zip":"LV-3862"},"j. rozentāla iela 1 - 28":{"address":"J. Rozentāla iela 1 - 28","city":"Druva","zip":"LV-3862"},"j. rozentāla iela 1 - 29":{"address":"J. Rozentāla iela 1 - 29","city":"Druva","zip":"LV-3862"},"j. rozentāla iela 1 - 30":{"address":"J. Rozentāla iela 1 - 30","city":"Druva","zip":"LV-3862"},"j. rozentāla iela 1 - 31":{"address":"J. Rozentāla iela 1 - 31","city":"Druva","zip":"LV-3862"},"j. rozentāla iela 1 - 32":{"address":"J. Rozentāla iela 1 - 32","city":"Druva","zip":"LV-3862"},"j. rozentāla iela 1 - 33":{"address":"J. Rozentāla iela 1 - 33","city":"Druva","zip":"LV-3862"},"j. rozentāla iela 1 - 34":{"address":"J. Rozentāla iela 1 - 34","city":"Druva","zip":"LV-3862"},"j. rozentāla iela 1 - 35":{"address":"J. Rozentāla iela 1 - 35","city":"Druva","zip":"LV-3862"},"j. rozentāla iela 1 - 36":{"address":"J. Rozentāla iela 1 - 36","city":"Druva","zip":"LV-3862"},"j. rozentāla iela 1 - 37":{"address":"J. Rozentāla iela 1 - 37","city":"Druva","zip":"LV-3862"},"j. rozentāla iela 1 - 38":{"address":"J. Rozentāla iela 1 - 38","city":"Druva","zip":"LV-3862"},"j. rozentāla iela 1 - 39":{"address":"J. Rozentāla iela 1 - 39","city":"Druva","zip":"LV-3862"},"j. rozentāla iela 1 - 40":{"address":"J. Rozentāla iela 1 - 40","city":"Druva","zip":"LV-3862"},"j. rozentāla iela 1 - 41":{"address":"J. Rozentāla iela 1 - 41","city":"Druva","zip":"LV-3862"},"j. rozentāla iela 1 - 42":{"address":"J. Rozentāla iela 1 - 42","city":"Druva","zip":"LV-3862"},"j. rozentāla iela 1 - 43":{"address":"J. Rozentāla iela 1 - 43","city":"Druva","zip":"LV-3862"},"j. rozentāla iela 1 - 44":{"address":"J. Rozentāla iela 1 - 44","city":"Druva","zip":"LV-3862"},"j. rozentāla iela 1 - 45":{"address":"J. Rozentāla iela 1 - 45","city":"Druva","zip":"LV-3862"},"j. rozentāla iela 1 - 46":{"address":"J. Rozentāla iela 1 - 46","city":"Druva","zip":"LV-3862"},"j. rozentāla iela 1 - 47":{"address":"J. Rozentāla iela 1 - 47","city":"Druva","zip":"LV-3862"},"j. rozentāla iela 1 - 48":{"address":"J. Rozentāla iela 1 - 48","city":"Druva","zip":"LV-3862"},"j. rozentāla iela 1 - 49":{"address":"J. Rozentāla iela 1 - 49","city":"Druva","zip":"LV-3862"},"j. rozentāla iela 1 - 50":{"address":"J. Rozentāla iela 1 - 50","city":"Druva","zip":"LV-3862"},"j. rozentāla iela 1 - 51":{"address":"J. Rozentāla iela 1 - 51","city":"Druva","zip":"LV-3862"},"j. rozentāla iela 1 - 52":{"address":"J. Rozentāla iela 1 - 52","city":"Druva","zip":"LV-3862"},"j. rozentāla iela 1 - 53":{"address":"J. Rozentāla iela 1 - 53","city":"Druva","zip":"LV-3862"},"j. rozentāla iela 1 - 54":{"address":"J. Rozentāla iela 1 - 54","city":"Druva","zip":"LV-3862"},"j. rozentāla iela 1 - 55":{"address":"J. Rozentāla iela 1 - 55","city":"Druva","zip":"LV-3862"},"j. rozentāla iela 1 - 56":{"address":"J. Rozentāla iela 1 - 56","city":"Druva","zip":"LV-3862"},"j. rozentāla iela 1 - 57":{"address":"J. Rozentāla iela 1 - 57","city":"Druva","zip":"LV-3862"},"j. rozentāla iela 1 - 58":{"address":"J. Rozentāla iela 1 - 58","city":"Druva","zip":"LV-3862"},"j. rozentāla iela 1 - 59":{"address":"J. Rozentāla iela 1 - 59","city":"Druva","zip":"LV-3862"},"j. rozentāla iela 1 - 60":{"address":"J. Rozentāla iela 1 - 60","city":"Druva","zip":"LV-3862"},"j. rozentāla iela 1 - 61":{"address":"J. Rozentāla iela 1 - 61","city":"Druva","zip":"LV-3862"},"j. rozentāla iela 1 - 62":{"address":"J. Rozentāla iela 1 - 62","city":"Druva","zip":"LV-3862"},"j. rozentāla iela 1 - 63":{"address":"J. Rozentāla iela 1 - 63","city":"Druva","zip":"LV-3862"},"j. rozentāla iela 1 - 64":{"address":"J. Rozentāla iela 1 - 64","city":"Druva","zip":"LV-3862"},"j. rozentāla iela 1 - 65":{"address":"J. Rozentāla iela 1 - 65","city":"Druva","zip":"LV-3862"},"j. rozentāla iela 1 - 66":{"address":"J. Rozentāla iela 1 - 66","city":"Druva","zip":"LV-3862"},"j. rozentāla iela 1 - 67":{"address":"J. Rozentāla iela 1 - 67","city":"Druva","zip":"LV-3862"},"j. rozentāla iela 1 - 68":{"address":"J. Rozentāla iela 1 - 68","city":"Druva","zip":"LV-3862"},"j. rozentāla iela 1 - 69":{"address":"J. Rozentāla iela 1 - 69","city":"Druva","zip":"LV-3862"}}