{"rožlejas - 1":{"address":"Rožlejas - 1","city":"Ziras","zip":"LV-3624"},"rožlejas - 2":{"address":"Rožlejas - 2","city":"Ziras","zip":"LV-3624"},"rožlejas kalniņi - 1":{"address":"Rožlejas Kalniņi - 1","city":"Virga","zip":"LV-3433"},"rožlejas kalniņi - 2":{"address":"Rožlejas Kalniņi - 2","city":"Virga","zip":"LV-3433"},"rožlejas kalniņi - 3":{"address":"Rožlejas Kalniņi - 3","city":"Virga","zip":"LV-3433"},"rožlejas kalniņi - 4":{"address":"Rožlejas Kalniņi - 4","city":"Virga","zip":"LV-3433"},"rožlejas kalniņi - 5":{"address":"Rožlejas Kalniņi - 5","city":"Virga","zip":"LV-3433"},"rožlejas kalniņi - 6":{"address":"Rožlejas Kalniņi - 6","city":"Virga","zip":"LV-3433"},"rožlejas":{"address":"Rožlejas","city":"Zeinišķi","zip":"LV-5329"},"rožlejas kalniņi":{"address":"Rožlejas Kalniņi","city":"Virga","zip":"LV-3433"},"kaltenes rožlejas":{"address":"Kaltenes Rožlejas","city":"Kaltene","zip":"LV-3264"},"rožlejas 74":{"address":"Rožlejas 74","city":"Pleikšņi","zip":"LV-4601"},"rožlejas 2":{"address":"Rožlejas 2","city":"Lancenieki","zip":"LV-3147"}}