{"smilgas - 1":{"address":"Smilgas - 1","city":"Rubeņi","zip":"LV-4591"},"smilgas - 2":{"address":"Smilgas - 2","city":"Rubeņi","zip":"LV-4591"},"smilgas - 3":{"address":"Smilgas - 3","city":"Rubeņi","zip":"LV-4591"},"smilgas - 4":{"address":"Smilgas - 4","city":"Rubeņi","zip":"LV-4591"},"smilgas - 5":{"address":"Smilgas - 5","city":"Rubeņi","zip":"LV-4591"},"smilgas - 6":{"address":"Smilgas - 6","city":"Rubeņi","zip":"LV-4591"},"smilgas - 7":{"address":"Smilgas - 7","city":"Rubeņi","zip":"LV-4591"},"smilgas - 8":{"address":"Smilgas - 8","city":"Rubeņi","zip":"LV-4591"},"smilgas - 9":{"address":"Smilgas - 9","city":"Rubeņi","zip":"LV-4591"},"smilgas - 10":{"address":"Smilgas - 10","city":"Rubeņi","zip":"LV-4591"},"smilgas - 11":{"address":"Smilgas - 11","city":"Rubeņi","zip":"LV-4591"},"smilgas - 12":{"address":"Smilgas - 12","city":"Rubeņi","zip":"LV-4591"},"rubeņi - 1":{"address":"Rubeņi - 1","city":"Tilti","zip":"LV-5456"},"rubeņi - 2":{"address":"Rubeņi - 2","city":"Jūdaži","zip":"LV-2151"},"rubeņi - 3":{"address":"Rubeņi - 3","city":"Jūdaži","zip":"LV-2151"},"rubeņi - 4":{"address":"Rubeņi - 4","city":"Vienība","zip":"LV-3140"},"rubeņi - 5":{"address":"Rubeņi - 5","city":"Vienība","zip":"LV-3140"},"rubeņi - 6":{"address":"Rubeņi - 6","city":"Vienība","zip":"LV-3140"},"rubeņi - 7":{"address":"Rubeņi - 7","city":"Vienība","zip":"LV-3140"},"rubeņi - 8":{"address":"Rubeņi - 8","city":"Vienība","zip":"LV-3140"},"rubeņi - 9":{"address":"Rubeņi - 9","city":"Vienība","zip":"LV-3140"},"rubeņi - 10":{"address":"Rubeņi - 10","city":"Vienība","zip":"LV-3140"},"rubeņi - 11":{"address":"Rubeņi - 11","city":"Vienība","zip":"LV-3140"},"rubeņi - 12":{"address":"Rubeņi - 12","city":"Vienība","zip":"LV-3140"},"rubeņi - 13":{"address":"Rubeņi - 13","city":"Vienība","zip":"LV-3140"},"rubeņi - 14":{"address":"Rubeņi - 14","city":"Vienība","zip":"LV-3140"},"rubeņi - 15":{"address":"Rubeņi - 15","city":"Vienība","zip":"LV-3140"},"rubeņi - 16":{"address":"Rubeņi - 16","city":"Vienība","zip":"LV-3140"},"rubeņi - 17":{"address":"Rubeņi - 17","city":"Vienība","zip":"LV-3140"},"rubeņi - 18":{"address":"Rubeņi - 18","city":"Vienība","zip":"LV-3140"},"rubeņi - 19":{"address":"Rubeņi - 19","city":"Vienība","zip":"LV-3140"},"rubeņi - 20":{"address":"Rubeņi - 20","city":"Vienība","zip":"LV-3140"},"rubeņi - 21":{"address":"Rubeņi - 21","city":"Vienība","zip":"LV-3140"},"rubeņi - 22":{"address":"Rubeņi - 22","city":"Vienība","zip":"LV-3140"},"rubeņi - 23":{"address":"Rubeņi - 23","city":"Vienība","zip":"LV-3140"},"rubeņi - 24":{"address":"Rubeņi - 24","city":"Vienība","zip":"LV-3140"},"rubeņi - 25":{"address":"Rubeņi - 25","city":"Vienība","zip":"LV-3140"},"rubeņi - 26":{"address":"Rubeņi - 26","city":"Vienība","zip":"LV-3140"},"rubeņi - 27":{"address":"Rubeņi - 27","city":"Vienība","zip":"LV-3140"},"rubeņi - 28":{"address":"Rubeņi - 28","city":"Vienība","zip":"LV-3140"},"rubeņi - 29":{"address":"Rubeņi - 29","city":"Vienība","zip":"LV-3140"},"rubeņi - 30":{"address":"Rubeņi - 30","city":"Vienība","zip":"LV-3140"},"rubeņi - 31":{"address":"Rubeņi - 31","city":"Vienība","zip":"LV-3140"},"rubeņi - 32":{"address":"Rubeņi - 32","city":"Vienība","zip":"LV-3140"},"rubeņi - 33":{"address":"Rubeņi - 33","city":"Vienība","zip":"LV-3140"}}