{"ruskuļi - 1":{"address":"Ruskuļi - 1","city":"Pipari","zip":"LV-5443"},"ruskuļi - 2":{"address":"Ruskuļi - 2","city":"Pipari","zip":"LV-5443"},"ūzuleņi":{"address":"Ūzuleņi","city":"Ruskuļi","zip":"LV-5304"},"mūriņgriķi":{"address":"Mūriņgriķi","city":"Ruskulišķi","zip":"LV-5304"},"rena":{"address":"Rena","city":"Ruskuļi","zip":"LV-5304"},"vilcāni":{"address":"Vilcāni","city":"Ruskuļi","zip":"LV-5304"},"kalni":{"address":"Kalni","city":"Ruskuļi","zip":"LV-5304"},"tomiņi":{"address":"Tomiņi","city":"Ruskuļi","zip":"LV-5304"},"valodiņas":{"address":"Valodiņas","city":"Ruskulišķi","zip":"LV-5304"},"vizbules":{"address":"Vizbules","city":"Kapiņu Ruskuļi","zip":"LV-5304"},"gravas":{"address":"Gravas","city":"Kapiņu Ruskuļi","zip":"LV-5304"},"lielais akmens":{"address":"Lielais Akmens","city":"Ruskuļi","zip":"LV-5304"},"genartas":{"address":"Genartas","city":"Ruskuļi","zip":"LV-5304"},"mednieki":{"address":"Mednieki","city":"Ruskuļi","zip":"LV-5304"},"kundziņkļavas":{"address":"Kundziņkļavas","city":"Ruskulišķi","zip":"LV-5304"},"jūrnieki":{"address":"Jūrnieki","city":"Ruskuļi","zip":"LV-5304"},"ruskuļi":{"address":"Ruskuļi","city":"Pipari","zip":"LV-5443"},"tomi":{"address":"Tomi","city":"Ruskuļi","zip":"LV-5304"},"vijas":{"address":"Vijas","city":"Ruskuļi","zip":"LV-5304"},"aukstaru mājas":{"address":"Aukstaru mājas","city":"Ruskuļi","zip":"LV-4649"},"meldri":{"address":"Meldri","city":"Ruskuļi","zip":"LV-4649"},"miķeļi":{"address":"Miķeļi","city":"Ruskuļi","zip":"LV-4649"}}