{"vanagi - 1":{"address":"Vanagi - 1","city":"Rutki","zip":"LV-5698"},"vanagi - 2":{"address":"Vanagi - 2","city":"Rutki","zip":"LV-5698"},"žukas - 1":{"address":"Žukas - 1","city":"Rutki","zip":"LV-5020"},"žukas - 2":{"address":"Žukas - 2","city":"Rutki","zip":"LV-5020"},"žukas - 3":{"address":"Žukas - 3","city":"Rutki","zip":"LV-5020"},"uzvaras - 1":{"address":"Uzvaras - 1","city":"Rutki","zip":"LV-5020"},"uzvaras - 2":{"address":"Uzvaras - 2","city":"Rutki","zip":"LV-5020"},"uzvaras - 3":{"address":"Uzvaras - 3","city":"Rutki","zip":"LV-5020"},"auziņas - 1":{"address":"Auziņas - 1","city":"Rutki","zip":"LV-5020"},"auziņas - 2":{"address":"Auziņas - 2","city":"Rutki","zip":"LV-5020"},"auziņas - 3":{"address":"Auziņas - 3","city":"Rutki","zip":"LV-5020"},"birztalas - 1":{"address":"Birztalas - 1","city":"Rutki","zip":"LV-5020"},"birztalas - 2":{"address":"Birztalas - 2","city":"Rutki","zip":"LV-5020"},"aizupes 1 - 1":{"address":"Aizupes 1 - 1","city":"Rutki","zip":"LV-5020"},"aizupes 1 - 2":{"address":"Aizupes 1 - 2","city":"Rutki","zip":"LV-5020"},"rutki":{"address":"Rutki","city":"Rutki","zip":"LV-5020"},"malahīti":{"address":"Malahīti","city":"Rutki","zip":"LV-5707"},"rutki 1":{"address":"Rutki 1","city":"Markova","zip":"LV-5330"},"ābeles":{"address":"Ābeles","city":"Rutki","zip":"LV-5020"},"jaunirbītes":{"address":"Jaunirbītes","city":"Rutki","zip":"LV-5020"},"melnā jāņa māja":{"address":"Melnā Jāņa māja","city":"Rutki","zip":"LV-4627"},"krodznieki":{"address":"Krodznieki","city":"Rutki","zip":"LV-5020"},"kļavlapas":{"address":"Kļavlapas","city":"Rutki","zip":"LV-5733"},"lejasstrauti":{"address":"Lejasstrauti","city":"Rutki","zip":"LV-5733"},"mereščenkova":{"address":"Mereščenkova","city":"Rutki","zip":"LV-5733"},"nikolaji":{"address":"Nikolaji","city":"Rutki","zip":"LV-5733"},"ņinas":{"address":"Ņinas","city":"Rutki","zip":"LV-5733"},"vasaras":{"address":"Vasaras","city":"Rutki","zip":"LV-5733"},"vasiļki":{"address":"Vasiļki","city":"Rutki","zip":"LV-5733"},"viduslauki":{"address":"Viduslauki","city":"Rutki","zip":"LV-5733"},"skujnieki":{"address":"Skujnieki","city":"Rutki","zip":"LV-5698"},"vanagi":{"address":"Vanagi","city":"Rutki","zip":"LV-5698"},"žukas":{"address":"Žukas","city":"Rutki","zip":"LV-5020"},"zaķīši":{"address":"Zaķīši","city":"Rutki","zip":"LV-5020"},"zemītes":{"address":"Zemītes","city":"Rutki","zip":"LV-5020"},"vītoliņi":{"address":"Vītoliņi","city":"Rutki","zip":"LV-5020"},"skurbas":{"address":"Skurbas","city":"Rutki","zip":"LV-5020"},"uzvaras":{"address":"Uzvaras","city":"Rutki","zip":"LV-5020"},"uzvaras 1":{"address":"Uzvaras 1","city":"Rutki","zip":"LV-5020"},"sarmuļi":{"address":"Sarmuļi","city":"Rutki","zip":"LV-5020"},"kalnupes":{"address":"Kalnupes","city":"Rutki","zip":"LV-5020"},"irbītes":{"address":"Irbītes","city":"Rutki","zip":"LV-5020"},"jaunzemītes":{"address":"Jaunzemītes","city":"Rutki","zip":"LV-5020"},"lejasbiķi":{"address":"Lejasbiķi","city":"Rutki","zip":"LV-5020"},"oši":{"address":"Oši","city":"Rutki","zip":"LV-5020"},"mazozoliņi 2":{"address":"Mazozoliņi 2","city":"Rutki","zip":"LV-5020"},"dzeņi":{"address":"Dzeņi","city":"Rutki","zip":"LV-5020"},"dravas":{"address":"Dravas","city":"Rutki","zip":"LV-5020"},"dārziņi":{"address":"Dārziņi","city":"Rutki","zip":"LV-5020"},"auziņas":{"address":"Auziņas","city":"Rutki","zip":"LV-5020"},"birztalas":{"address":"Birztalas","city":"Rutki","zip":"LV-5020"},"birztalas 2":{"address":"Birztalas 2","city":"Rutki","zip":"LV-5020"},"aizupes 1":{"address":"Aizupes 1","city":"Rutki","zip":"LV-5020"},"aizupes 2":{"address":"Aizupes 2","city":"Rutki","zip":"LV-5020"}}