{"rutuļi - 1":{"address":"Rutuļi - 1","city":"Ciemupe","zip":"LV-5041"},"rutuļi - 2":{"address":"Rutuļi - 2","city":"Ciemupe","zip":"LV-5041"},"rutuļi - 3":{"address":"Rutuļi - 3","city":"Rutulišķi","zip":"LV-5304"},"rutuļi - 4":{"address":"Rutuļi - 4","city":"Rutulišķi","zip":"LV-5304"},"rutuļi":{"address":"Rutuļi","city":"Ciemupe","zip":"LV-5041"},"krustceļu mājas":{"address":"Krustceļu mājas","city":"Rutuļi","zip":"LV-5329"},"mežgaļi":{"address":"Mežgaļi","city":"Rutuļi","zip":"LV-5329"},"vagaļi":{"address":"Vagaļi","city":"Rutuļi","zip":"LV-5329"},"ajuts":{"address":"Ajuts","city":"Rutulišķi","zip":"LV-5304"},"laukmala":{"address":"Laukmala","city":"Rutuļi","zip":"LV-5329"},"zemītes":{"address":"Zemītes","city":"Rutuļi","zip":"LV-5304"},"kaķīši":{"address":"Kaķīši","city":"Rutuļi","zip":"LV-5329"},"laimas":{"address":"Laimas","city":"Rutuļi","zip":"LV-5329"},"lejiņas":{"address":"Lejiņas","city":"Rutuļi","zip":"LV-5329"},"mežgaiļi":{"address":"Mežgaiļi","city":"Rutuļi","zip":"LV-5329"},"paegles":{"address":"Paegles","city":"Rutuļi","zip":"LV-5329"},"soltupe":{"address":"Soltupe","city":"Rutuļi","zip":"LV-5329"}}