{"rīts nr. 195":{"address":"Rīts Nr. 195","city":"Medemciems","zip":"LV-2127"},"rīts nr. 177":{"address":"Rīts Nr. 177","city":"Medemciems","zip":"LV-2127"},"rīts nr. 196":{"address":"Rīts Nr. 196","city":"Medemciems","zip":"LV-2127"},"rīts 278":{"address":"Rīts 278","city":"Medemciems","zip":"LV-2127"},"rīts nr. 197":{"address":"Rīts Nr. 197","city":"Medemciems","zip":"LV-2127"},"rīts 362":{"address":"Rīts 362","city":"Medemciems","zip":"LV-2127"},"rīts 151":{"address":"Rīts 151","city":"Medemciems","zip":"LV-2127"},"rīts 407":{"address":"Rīts 407","city":"Medemciems","zip":"LV-2127"},"rīts 173":{"address":"Rīts 173","city":"Medemciems","zip":"LV-2127"},"rīts 170":{"address":"Rīts 170","city":"Medemciems","zip":"LV-2127"},"rīts 341":{"address":"Rīts 341","city":"Medemciems","zip":"LV-2127"},"rīts 153":{"address":"Rīts 153","city":"Medemciems","zip":"LV-2127"},"rīts nr. 134":{"address":"Rīts Nr. 134","city":"Medemciems","zip":"LV-2127"},"rīts 324":{"address":"Rīts 324","city":"Medemciems","zip":"LV-2127"},"rīts 174":{"address":"Rīts 174","city":"Medemciems","zip":"LV-2127"},"rīts 152":{"address":"Rīts 152","city":"Medemciems","zip":"LV-2127"},"rīts 154":{"address":"Rīts 154","city":"Medemciems","zip":"LV-2127"},"rīts 418/419":{"address":"Rīts 418/419","city":"Medemciems","zip":"LV-2127"},"rīts 333":{"address":"Rīts 333","city":"Medemciems","zip":"LV-2127"},"rīts 342":{"address":"Rīts 342","city":"Medemciems","zip":"LV-2127"},"rīts 166":{"address":"Rīts 166","city":"Medemciems","zip":"LV-2127"},"rīts 241":{"address":"Rīts 241","city":"Medemciems","zip":"LV-2127"},"rīts 247":{"address":"Rīts 247","city":"Medemciems","zip":"LV-2127"},"rīts 352":{"address":"Rīts 352","city":"Medemciems","zip":"LV-2127"},"rīts 266":{"address":"Rīts 266","city":"Medemciems","zip":"LV-2127"},"rīts 394/395":{"address":"Rīts 394/395","city":"Medemciems","zip":"LV-2127"},"rīts 90/91":{"address":"Rīts 90/91","city":"Medemciems","zip":"LV-2127"},"rīts 227":{"address":"Rīts 227","city":"Medemciems","zip":"LV-2127"},"rīts 263/264":{"address":"Rīts 263/264","city":"Medemciems","zip":"LV-2127"},"rīts 369":{"address":"Rīts 369","city":"Medemciems","zip":"LV-2127"},"rīts 355":{"address":"Rīts 355","city":"Medemciems","zip":"LV-2127"},"rīts 252/253":{"address":"Rīts 252/253","city":"Medemciems","zip":"LV-2127"},"rīts 391/392":{"address":"Rīts 391/392","city":"Medemciems","zip":"LV-2127"},"rīts 359/360":{"address":"Rīts 359/360","city":"Medemciems","zip":"LV-2127"},"rīts 387/388":{"address":"Rīts 387/388","city":"Medemciems","zip":"LV-2127"},"rīts 429/430":{"address":"Rīts 429/430","city":"Medemciems","zip":"LV-2127"},"rīts 187/188":{"address":"Rīts 187/188","city":"Medemciems","zip":"LV-2127"},"rīts 377/378":{"address":"Rīts 377/378","city":"Medemciems","zip":"LV-2127"},"rīts 363/364":{"address":"Rīts 363/364","city":"Medemciems","zip":"LV-2127"},"rīts 288":{"address":"Rīts 288","city":"Medemciems","zip":"LV-2127"},"rīts 399":{"address":"Rīts 399","city":"Medemciems","zip":"LV-2127"},"rīts 214":{"address":"Rīts 214","city":"Medemciems","zip":"LV-2127"},"rīts 393/376":{"address":"Rīts 393/376","city":"Medemciems","zip":"LV-2127"},"rīts 271":{"address":"Rīts 271","city":"Medemciems","zip":"LV-2127"},"rīts 206":{"address":"Rīts 206","city":"Medemciems","zip":"LV-2127"},"rīts 246":{"address":"Rīts 246","city":"Medemciems","zip":"LV-2127"},"rīts 248/249":{"address":"Rīts 248/249","city":"Medemciems","zip":"LV-2127"},"rīts 375":{"address":"Rīts 375","city":"Medemciems","zip":"LV-2127"},"rīts 256":{"address":"Rīts 256","city":"Medemciems","zip":"LV-2127"},"rīts 415":{"address":"Rīts 415","city":"Medemciems","zip":"LV-2127"},"rīts 379":{"address":"Rīts 379","city":"Medemciems","zip":"LV-2127"},"rīts 321":{"address":"Rīts 321","city":"Medemciems","zip":"LV-2127"},"rīts 367":{"address":"Rīts 367","city":"Medemciems","zip":"LV-2127"},"rīts 293/295":{"address":"Rīts 293/295","city":"Medemciems","zip":"LV-2127"},"rīts 417":{"address":"Rīts 417","city":"Medemciems","zip":"LV-2127"},"rīts 423/424":{"address":"Rīts 423/424","city":"Medemciems","zip":"LV-2127"},"rīts 225/226":{"address":"Rīts 225/226","city":"Medemciems","zip":"LV-2127"},"rīts 354":{"address":"Rīts 354","city":"Medemciems","zip":"LV-2127"},"rīts 330":{"address":"Rīts 330","city":"Medemciems","zip":"LV-2127"},"rīts 315/316":{"address":"Rīts 315/316","city":"Medemciems","zip":"LV-2127"},"rīts 172":{"address":"Rīts 172","city":"Medemciems","zip":"LV-2127"},"rīts 198":{"address":"Rīts 198","city":"Medemciems","zip":"LV-2127"},"rīts 217/218":{"address":"Rīts 217/218","city":"Medemciems","zip":"LV-2127"},"rīts 396":{"address":"Rīts 396","city":"Medemciems","zip":"LV-2127"},"rīts 340":{"address":"Rīts 340","city":"Medemciems","zip":"LV-2127"},"rīts 317/318":{"address":"Rīts 317/318","city":"Medemciems","zip":"LV-2127"},"rīts 280":{"address":"Rīts 280","city":"Medemciems","zip":"LV-2127"},"rīts 258/259":{"address":"Rīts 258/259","city":"Medemciems","zip":"LV-2127"},"rīts 250/251":{"address":"Rīts 250/251","city":"Medemciems","zip":"LV-2127"},"rīts 219/220":{"address":"Rīts 219/220","city":"Medemciems","zip":"LV-2127"},"rīts 203":{"address":"Rīts 203","city":"Medemciems","zip":"LV-2127"},"rīts 290/291":{"address":"Rīts 290/291","city":"Medemciems","zip":"LV-2127"},"rīts 343":{"address":"Rīts 343","city":"Medemciems","zip":"LV-2127"},"rīts 284":{"address":"Rīts 284","city":"Medemciems","zip":"LV-2127"},"rīts 267":{"address":"Rīts 267","city":"Medemciems","zip":"LV-2127"},"rīts 253":{"address":"Rīts 253","city":"Medemciems","zip":"LV-2127"},"rīts 408":{"address":"Rīts 408","city":"Medemciems","zip":"LV-2127"},"rīts":{"address":"Rīts","city":"Baltinava","zip":"LV-4594"},"rīts 118/119":{"address":"Rīts 118/119","city":"Medemciems","zip":"LV-2127"},"rīts 12":{"address":"Rīts 12","city":"Medemciems","zip":"LV-2127"},"rīts 125":{"address":"Rīts 125","city":"Medemciems","zip":"LV-2127"},"rīts 129/130":{"address":"Rīts 129/130","city":"Medemciems","zip":"LV-2127"},"rīts 13":{"address":"Rīts 13","city":"Medemciems","zip":"LV-2127"},"rīts 131/132":{"address":"Rīts 131/132","city":"Medemciems","zip":"LV-2127"},"rīts 136":{"address":"Rīts 136","city":"Medemciems","zip":"LV-2127"},"rīts 137/138":{"address":"Rīts 137/138","city":"Medemciems","zip":"LV-2127"},"rīts 139/140":{"address":"Rīts 139/140","city":"Medemciems","zip":"LV-2127"},"rīts 14":{"address":"Rīts 14","city":"Medemciems","zip":"LV-2127"},"rīts 155/156/157":{"address":"Rīts 155/156/157","city":"Medemciems","zip":"LV-2127"},"rīts 158":{"address":"Rīts 158","city":"Medemciems","zip":"LV-2127"},"rīts 178/179":{"address":"Rīts 178/179","city":"Medemciems","zip":"LV-2127"},"rīts 204/205":{"address":"Rīts 204/205","city":"Medemciems","zip":"LV-2127"},"rīts 210/211/212/213":{"address":"Rīts 210/211/212/213","city":"Medemciems","zip":"LV-2127"},"rīts 274/275/276":{"address":"Rīts 274/275/276","city":"Medemciems","zip":"LV-2127"},"rīts 313":{"address":"Rīts 313","city":"Medemciems","zip":"LV-2127"},"rīts 314":{"address":"Rīts 314","city":"Medemciems","zip":"LV-2127"},"rīts 322":{"address":"Rīts 322","city":"Medemciems","zip":"LV-2127"},"rīts 323":{"address":"Rīts 323","city":"Medemciems","zip":"LV-2127"},"rīts 325":{"address":"Rīts 325","city":"Medemciems","zip":"LV-2127"}}