{"rūķīši - 1":{"address":"Rūķīši - 1","city":"Jaunie Čači","zip":"LV-4601"},"rūķīši - 2":{"address":"Rūķīši - 2","city":"Jaunie Čači","zip":"LV-4601"},"rūķīši - 3":{"address":"Rūķīši - 3","city":"Madliena","zip":"LV-5045"},"rūķīši - 4":{"address":"Rūķīši - 4","city":"Madliena","zip":"LV-5045"},"rūķīši - 5":{"address":"Rūķīši - 5","city":"Madliena","zip":"LV-5045"},"rūķīši - 6":{"address":"Rūķīši - 6","city":"Madliena","zip":"LV-5045"},"rūķīši - 7":{"address":"Rūķīši - 7","city":"Madliena","zip":"LV-5045"},"rūķīši - 8":{"address":"Rūķīši - 8","city":"Madliena","zip":"LV-5045"},"rūķīši - 9":{"address":"Rūķīši - 9","city":"Madliena","zip":"LV-5045"},"rūķīši - 10":{"address":"Rūķīši - 10","city":"Madliena","zip":"LV-5045"},"rūķīši - 11":{"address":"Rūķīši - 11","city":"Madliena","zip":"LV-5045"},"rūķīši - 12":{"address":"Rūķīši - 12","city":"Madliena","zip":"LV-5045"},"rūķīši - 13":{"address":"Rūķīši - 13","city":"Madliena","zip":"LV-5045"},"rūķīši - 14":{"address":"Rūķīši - 14","city":"Madliena","zip":"LV-5045"},"rūķīši - 15":{"address":"Rūķīši - 15","city":"Madliena","zip":"LV-5045"},"rūķīši - 16":{"address":"Rūķīši - 16","city":"Madliena","zip":"LV-5045"},"rūķīši - 17":{"address":"Rūķīši - 17","city":"Madliena","zip":"LV-5045"},"rūķīši - 18":{"address":"Rūķīši - 18","city":"Madliena","zip":"LV-5045"},"rūķīši":{"address":"Rūķīši","city":"Rītausmas","zip":"LV-3901"},"rūķīši 1":{"address":"Rūķīši 1","city":"Lizdēni","zip":"LV-4232"}}