{"saimniecība kraujienas":{"address":"Saimniecība Kraujienas","city":"Saka","zip":"LV-3466"},"dzērbenes pils saimniecības ēka":{"address":"Dzērbenes pils saimniecības ēka","city":"Dzērbene","zip":"LV-4118"},"saimniecības iela 8":{"address":"Saimniecības iela 8","city":"Brigi","zip":"LV-5707"},"saimniecības iela 4":{"address":"Saimniecības iela 4","city":"Riebiņi","zip":"LV-5326"},"saimniecības ēkas":{"address":"Saimniecības ēkas","city":"Slate","zip":"LV-5229"},"saimniecības iela 2b":{"address":"Saimniecības iela 2B","city":"Riebiņi","zip":"LV-5326"},"saimniecības iela 2a":{"address":"Saimniecības iela 2A","city":"Riebiņi","zip":"LV-5326"},"saimniecības iela 6":{"address":"Saimniecības iela 6","city":"Brigi","zip":"LV-5707"},"jāzepa saimniecība":{"address":"Jāzepa saimniecība","city":"Jurīši","zip":"LV-5462"},"saimniecības iela 2":{"address":"Saimniecības iela 2","city":"Riebiņi","zip":"LV-5326"},"saimniecības ēka":{"address":"Saimniecības ēka","city":"Staburags","zip":"LV-5128"},"konona saimniecība":{"address":"Konona Saimniecība","city":"Turčāni","zip":"LV-4627"}}