{"māja nr. 10 - 1":{"address":"Māja Nr. 10 - 1","city":"Korģene","zip":"LV-4054"},"māja nr. 10 - 2":{"address":"Māja Nr. 10 - 2","city":"Korģene","zip":"LV-4054"},"māja nr. 10 - 3":{"address":"Māja Nr. 10 - 3","city":"Korģene","zip":"LV-4054"},"māja nr. 10 - 4":{"address":"Māja Nr. 10 - 4","city":"Korģene","zip":"LV-4054"},"māja nr. 10 - 5":{"address":"Māja Nr. 10 - 5","city":"Korģene","zip":"LV-4054"},"māja nr. 10 - 6":{"address":"Māja Nr. 10 - 6","city":"Korģene","zip":"LV-4054"},"māja nr. 10 - 7":{"address":"Māja Nr. 10 - 7","city":"Korģene","zip":"LV-4054"},"māja nr. 10 - 8":{"address":"Māja Nr. 10 - 8","city":"Korģene","zip":"LV-4054"},"māja nr. 11 - 1":{"address":"Māja Nr. 11 - 1","city":"Korģene","zip":"LV-4054"},"māja nr. 11 - 2":{"address":"Māja Nr. 11 - 2","city":"Korģene","zip":"LV-4054"},"māja nr. 11 - 3":{"address":"Māja Nr. 11 - 3","city":"Korģene","zip":"LV-4054"},"māja nr. 11 - 4":{"address":"Māja Nr. 11 - 4","city":"Korģene","zip":"LV-4054"},"māja nr. 11 - 5":{"address":"Māja Nr. 11 - 5","city":"Korģene","zip":"LV-4054"},"māja nr. 11 - 6":{"address":"Māja Nr. 11 - 6","city":"Korģene","zip":"LV-4054"},"māja nr. 11 - 7":{"address":"Māja Nr. 11 - 7","city":"Korģene","zip":"LV-4054"},"māja nr. 11 - 8":{"address":"Māja Nr. 11 - 8","city":"Korģene","zip":"LV-4054"},"māja nr. 11 - 9":{"address":"Māja Nr. 11 - 9","city":"Korģene","zip":"LV-4054"},"māja nr. 11 - 10":{"address":"Māja Nr. 11 - 10","city":"Korģene","zip":"LV-4054"},"māja nr. 11 - 11":{"address":"Māja Nr. 11 - 11","city":"Korģene","zip":"LV-4054"},"māja nr. 11 - 12":{"address":"Māja Nr. 11 - 12","city":"Korģene","zip":"LV-4054"},"māja nr. 11 - 13":{"address":"Māja Nr. 11 - 13","city":"Korģene","zip":"LV-4054"},"māja nr. 11 - 14":{"address":"Māja Nr. 11 - 14","city":"Korģene","zip":"LV-4054"},"māja nr. 11 - 15":{"address":"Māja Nr. 11 - 15","city":"Korģene","zip":"LV-4054"},"māja nr. 11 - 16":{"address":"Māja Nr. 11 - 16","city":"Korģene","zip":"LV-4054"},"māja nr. 11 - 17":{"address":"Māja Nr. 11 - 17","city":"Korģene","zip":"LV-4054"},"māja nr. 11 - 18":{"address":"Māja Nr. 11 - 18","city":"Korģene","zip":"LV-4054"},"māja nr. 5 - 1":{"address":"Māja Nr. 5 - 1","city":"Korģene","zip":"LV-4054"},"māja nr. 5 - 2":{"address":"Māja Nr. 5 - 2","city":"Korģene","zip":"LV-4054"},"māja nr. 5 - 3":{"address":"Māja Nr. 5 - 3","city":"Korģene","zip":"LV-4054"},"māja nr. 5 - 4":{"address":"Māja Nr. 5 - 4","city":"Korģene","zip":"LV-4054"},"māja nr. 5 - 5":{"address":"Māja Nr. 5 - 5","city":"Korģene","zip":"LV-4054"},"māja nr. 5 - 6":{"address":"Māja Nr. 5 - 6","city":"Korģene","zip":"LV-4054"},"māja nr. 5 - 7":{"address":"Māja Nr. 5 - 7","city":"Korģene","zip":"LV-4054"},"māja nr. 5 - 8":{"address":"Māja Nr. 5 - 8","city":"Korģene","zip":"LV-4054"},"māja nr. 7 - 1":{"address":"Māja Nr. 7 - 1","city":"Korģene","zip":"LV-4054"},"māja nr. 7 - 2":{"address":"Māja Nr. 7 - 2","city":"Korģene","zip":"LV-4054"},"māja nr. 7 - 3":{"address":"Māja Nr. 7 - 3","city":"Korģene","zip":"LV-4054"},"māja nr. 7 - 4":{"address":"Māja Nr. 7 - 4","city":"Korģene","zip":"LV-4054"},"māja nr. 7 - 5":{"address":"Māja Nr. 7 - 5","city":"Korģene","zip":"LV-4054"},"māja nr. 7 - 6":{"address":"Māja Nr. 7 - 6","city":"Korģene","zip":"LV-4054"},"māja nr. 7 - 7":{"address":"Māja Nr. 7 - 7","city":"Korģene","zip":"LV-4054"},"māja nr. 7 - 8":{"address":"Māja Nr. 7 - 8","city":"Korģene","zip":"LV-4054"},"māja nr. 7 - 9":{"address":"Māja Nr. 7 - 9","city":"Korģene","zip":"LV-4054"},"māja nr. 7 - 10":{"address":"Māja Nr. 7 - 10","city":"Korģene","zip":"LV-4054"},"māja nr. 7 - 11":{"address":"Māja Nr. 7 - 11","city":"Korģene","zip":"LV-4054"},"māja nr. 7 - 12":{"address":"Māja Nr. 7 - 12","city":"Korģene","zip":"LV-4054"},"māja nr. 9 - 1":{"address":"Māja Nr. 9 - 1","city":"Korģene","zip":"LV-4054"},"māja nr. 9 - 2":{"address":"Māja Nr. 9 - 2","city":"Korģene","zip":"LV-4054"},"māja nr. 9 - 3":{"address":"Māja Nr. 9 - 3","city":"Korģene","zip":"LV-4054"},"māja nr. 9 - 4":{"address":"Māja Nr. 9 - 4","city":"Korģene","zip":"LV-4054"},"māja nr. 9 - 5":{"address":"Māja Nr. 9 - 5","city":"Korģene","zip":"LV-4054"},"māja nr. 9 - 6":{"address":"Māja Nr. 9 - 6","city":"Korģene","zip":"LV-4054"},"māja nr. 9 - 7":{"address":"Māja Nr. 9 - 7","city":"Korģene","zip":"LV-4054"},"māja nr. 9 - 8":{"address":"Māja Nr. 9 - 8","city":"Korģene","zip":"LV-4054"},"māja nr. 9 - 9":{"address":"Māja Nr. 9 - 9","city":"Korģene","zip":"LV-4054"},"māja nr. 9 - 10":{"address":"Māja Nr. 9 - 10","city":"Korģene","zip":"LV-4054"},"māja nr. 9 - 11":{"address":"Māja Nr. 9 - 11","city":"Korģene","zip":"LV-4054"},"māja nr. 9 - 12":{"address":"Māja Nr. 9 - 12","city":"Korģene","zip":"LV-4054"},"viskalni - 1":{"address":"Viskalni - 1","city":"Korģene","zip":"LV-4054"},"viskalni - 2":{"address":"Viskalni - 2","city":"Korģene","zip":"LV-4054"},"viskalni - 3":{"address":"Viskalni - 3","city":"Korģene","zip":"LV-4054"},"viskalni - 4":{"address":"Viskalni - 4","city":"Korģene","zip":"LV-4054"},"viskalni - 5":{"address":"Viskalni - 5","city":"Korģene","zip":"LV-4054"},"viskalni 1 - 3":{"address":"Viskalni 1 - 3","city":"Korģene","zip":"LV-4054"},"viskalni 1 - 2":{"address":"Viskalni 1 - 2","city":"Korģene","zip":"LV-4054"},"viskalni 1 - 1":{"address":"Viskalni 1 - 1","city":"Korģene","zip":"LV-4054"}}