{"lejupes - 1":{"address":"Lejupes - 1","city":"Salmaņi","zip":"LV-4501"},"lejupes - 2":{"address":"Lejupes - 2","city":"Salmaņi","zip":"LV-4501"},"rotas māja - 1":{"address":"Rotas māja - 1","city":"Salmaņi","zip":"LV-4501"},"rotas māja - 2":{"address":"Rotas māja - 2","city":"Salmaņi","zip":"LV-4501"},"rotas māja - 3":{"address":"Rotas māja - 3","city":"Salmaņi","zip":"LV-4501"},"rotas māja - 4":{"address":"Rotas māja - 4","city":"Salmaņi","zip":"LV-4501"},"rotas māja - 5":{"address":"Rotas māja - 5","city":"Salmaņi","zip":"LV-4501"},"rotas māja - 6":{"address":"Rotas māja - 6","city":"Salmaņi","zip":"LV-4501"},"rotas māja - 7":{"address":"Rotas māja - 7","city":"Salmaņi","zip":"LV-4501"},"rotas māja - 8":{"address":"Rotas māja - 8","city":"Salmaņi","zip":"LV-4501"},"salmaņi":{"address":"Salmaņi","city":"Dagumnīki","zip":"LV-4634"},"lejupes":{"address":"Lejupes","city":"Salmaņi","zip":"LV-4501"},"pļavkalns":{"address":"Pļavkalns","city":"Salmaņi","zip":"LV-4501"},"frolovi":{"address":"Frolovi","city":"Salmaņi","zip":"LV-4501"},"apsītes":{"address":"Apsītes","city":"Salmaņi","zip":"LV-4501"},"baloži":{"address":"Baloži","city":"Salmaņi","zip":"LV-4501"},"birztalas":{"address":"Birztalas","city":"Salmaņi","zip":"LV-4501"},"rotas māja":{"address":"Rotas māja","city":"Salmaņi","zip":"LV-4501"},"vārpas":{"address":"Vārpas","city":"Salmaņi","zip":"LV-4501"},"vicīši":{"address":"Vicīši","city":"Salmaņi","zip":"LV-4501"},"kliņģerītes":{"address":"Kliņģerītes","city":"Salmaņi","zip":"LV-4501"}}