{"salnas - 1":{"address":"Salnas - 1","city":"Daugmale","zip":"LV-2124"},"salnas - 2":{"address":"Salnas - 2","city":"Daugmale","zip":"LV-2124"},"salnas - 3":{"address":"Salnas - 3","city":"Daugmale","zip":"LV-2124"},"salnas - 4":{"address":"Salnas - 4","city":"Daugmale","zip":"LV-2124"},"salnas - 5":{"address":"Salnas - 5","city":"Daugmale","zip":"LV-2124"},"salnas - 6":{"address":"Salnas - 6","city":"Daugmale","zip":"LV-2124"},"salnas - 7":{"address":"Salnas - 7","city":"Daugmale","zip":"LV-2124"},"salnas - 8":{"address":"Salnas - 8","city":"Daugmale","zip":"LV-2124"},"salnas - 9":{"address":"Salnas - 9","city":"Daugmale","zip":"LV-2124"},"salnas - 10":{"address":"Salnas - 10","city":"Daugmale","zip":"LV-2124"},"salnas - 11":{"address":"Salnas - 11","city":"Daugmale","zip":"LV-2124"},"salnas - 12":{"address":"Salnas - 12","city":"Daugmale","zip":"LV-2124"},"salnas - 13":{"address":"Salnas - 13","city":"Daugmale","zip":"LV-2124"},"salnas - 14":{"address":"Salnas - 14","city":"Daugmale","zip":"LV-2124"},"salnas - 15":{"address":"Salnas - 15","city":"Daugmale","zip":"LV-2124"},"salnas - 16":{"address":"Salnas - 16","city":"Vecsaule","zip":"LV-3932"},"salnas - 17":{"address":"Salnas - 17","city":"Vecsaule","zip":"LV-3932"},"salnas - 18":{"address":"Salnas - 18","city":"Vecsaule","zip":"LV-3932"},"centra iela salnas - 1":{"address":"Centra iela Salnas - 1","city":"Svitene","zip":"LV-3917"},"centra iela salnas - 2":{"address":"Centra iela Salnas - 2","city":"Svitene","zip":"LV-3917"},"centra iela salnas - 3":{"address":"Centra iela Salnas - 3","city":"Svitene","zip":"LV-3917"},"centra iela salnas - 4":{"address":"Centra iela Salnas - 4","city":"Svitene","zip":"LV-3917"},"centra iela salnas - 5":{"address":"Centra iela Salnas - 5","city":"Svitene","zip":"LV-3917"},"centra iela salnas - 6":{"address":"Centra iela Salnas - 6","city":"Svitene","zip":"LV-3917"},"centra iela salnas - 7":{"address":"Centra iela Salnas - 7","city":"Svitene","zip":"LV-3917"},"centra iela salnas - 8":{"address":"Centra iela Salnas - 8","city":"Svitene","zip":"LV-3917"},"centra iela salnas - 9":{"address":"Centra iela Salnas - 9","city":"Svitene","zip":"LV-3917"},"centra iela salnas - 10":{"address":"Centra iela Salnas - 10","city":"Svitene","zip":"LV-3917"},"centra iela salnas - 11":{"address":"Centra iela Salnas - 11","city":"Svitene","zip":"LV-3917"},"centra iela salnas - 12":{"address":"Centra iela Salnas - 12","city":"Svitene","zip":"LV-3917"},"centra iela salnas - 13":{"address":"Centra iela Salnas - 13","city":"Svitene","zip":"LV-3917"},"centra iela salnas - 14":{"address":"Centra iela Salnas - 14","city":"Svitene","zip":"LV-3917"},"centra iela salnas - 15":{"address":"Centra iela Salnas - 15","city":"Svitene","zip":"LV-3917"},"centra iela salnas - 16":{"address":"Centra iela Salnas - 16","city":"Svitene","zip":"LV-3917"},"centra iela salnas - 17":{"address":"Centra iela Salnas - 17","city":"Svitene","zip":"LV-3917"},"centra iela salnas - 18":{"address":"Centra iela Salnas - 18","city":"Svitene","zip":"LV-3917"},"centra iela salnas - 19":{"address":"Centra iela Salnas - 19","city":"Svitene","zip":"LV-3917"},"centra iela salnas - 20":{"address":"Centra iela Salnas - 20","city":"Svitene","zip":"LV-3917"},"centra iela salnas - 21":{"address":"Centra iela Salnas - 21","city":"Svitene","zip":"LV-3917"},"centra iela salnas - 22":{"address":"Centra iela Salnas - 22","city":"Svitene","zip":"LV-3917"},"centra iela salnas - 23":{"address":"Centra iela Salnas - 23","city":"Svitene","zip":"LV-3917"},"centra iela salnas - 24":{"address":"Centra iela Salnas - 24","city":"Svitene","zip":"LV-3917"},"centra iela salnas - 25":{"address":"Centra iela Salnas - 25","city":"Svitene","zip":"LV-3917"},"centra iela salnas - 26":{"address":"Centra iela Salnas - 26","city":"Svitene","zip":"LV-3917"},"centra iela salnas - 27":{"address":"Centra iela Salnas - 27","city":"Svitene","zip":"LV-3917"},"centra iela salnas - 28":{"address":"Centra iela Salnas - 28","city":"Svitene","zip":"LV-3917"},"centra iela salnas - 29":{"address":"Centra iela Salnas - 29","city":"Svitene","zip":"LV-3917"},"centra iela salnas - 30":{"address":"Centra iela Salnas - 30","city":"Svitene","zip":"LV-3917"},"centra iela salnas - 31":{"address":"Centra iela Salnas - 31","city":"Svitene","zip":"LV-3917"},"centra iela salnas - 32":{"address":"Centra iela Salnas - 32","city":"Svitene","zip":"LV-3917"},"centra iela salnas - 33":{"address":"Centra iela Salnas - 33","city":"Svitene","zip":"LV-3917"},"centra iela salnas - 34":{"address":"Centra iela Salnas - 34","city":"Svitene","zip":"LV-3917"},"centra iela salnas - 35":{"address":"Centra iela Salnas - 35","city":"Svitene","zip":"LV-3917"},"centra iela salnas - 36":{"address":"Centra iela Salnas - 36","city":"Svitene","zip":"LV-3917"}}