{"sapņu iela 24 - 1":{"address":"Sapņu iela 24 - 1","city":"Katlakalns","zip":"LV-2111"},"sapņu iela 24 - 2":{"address":"Sapņu iela 24 - 2","city":"Katlakalns","zip":"LV-2111"},"sapņu iela 7 - 1":{"address":"Sapņu iela 7 - 1","city":"Mežāres","zip":"LV-2101"},"sapņu iela 7 - 2":{"address":"Sapņu iela 7 - 2","city":"Mežāres","zip":"LV-2101"},"sapņukalni":{"address":"Sapņukalni","city":"Pitrags","zip":"LV-3275"},"sapņu iela 1":{"address":"Sapņu iela 1","city":"Dzidriņas","zip":"LV-2130"},"sapņu iela 2a":{"address":"Sapņu iela 2A","city":"Carnikava","zip":"LV-2163"},"sapņu iela 3":{"address":"Sapņu iela 3","city":"Dzidriņas","zip":"LV-2130"},"sapņu iela 4":{"address":"Sapņu iela 4","city":"Dzidriņas","zip":"LV-2130"},"sapņu iela 4a":{"address":"Sapņu iela 4A","city":"Carnikava","zip":"LV-2163"},"sapņu iela 5":{"address":"Sapņu iela 5","city":"Dzidriņas","zip":"LV-2130"},"sapņu iela 6":{"address":"Sapņu iela 6","city":"Dzidriņas","zip":"LV-2130"},"sapņu iela 7":{"address":"Sapņu iela 7","city":"Carnikava","zip":"LV-2163"},"sapņu iela 8":{"address":"Sapņu iela 8","city":"Carnikava","zip":"LV-2163"},"sapņu iela 9":{"address":"Sapņu iela 9","city":"Carnikava","zip":"LV-2163"},"sapņu iela 10":{"address":"Sapņu iela 10","city":"Katlakalns","zip":"LV-2111"},"sapņu iela 11":{"address":"Sapņu iela 11","city":"Carnikava","zip":"LV-2163"},"sapņu iela 12":{"address":"Sapņu iela 12","city":"Carnikava","zip":"LV-2163"},"sapņu iela 13":{"address":"Sapņu iela 13","city":"Carnikava","zip":"LV-2163"},"sapņu iela 14":{"address":"Sapņu iela 14","city":"Carnikava","zip":"LV-2163"},"sapņu iela 15":{"address":"Sapņu iela 15","city":"Carnikava","zip":"LV-2163"},"sapņu iela 16":{"address":"Sapņu iela 16","city":"Carnikava","zip":"LV-2163"},"sapņu iela 18":{"address":"Sapņu iela 18","city":"Carnikava","zip":"LV-2163"},"sapņu iela 2":{"address":"Sapņu iela 2","city":"Dzidriņas","zip":"LV-2130"}}