{"sarmas - 1":{"address":"Sarmas - 1","city":"Bukaiši","zip":"LV-3714"},"sarmas - 2":{"address":"Sarmas - 2","city":"Bukaiši","zip":"LV-3714"},"sarmas - 3":{"address":"Sarmas - 3","city":"Bukaiši","zip":"LV-3714"},"sarmas - 4":{"address":"Sarmas - 4","city":"Bukaiši","zip":"LV-3714"},"sarmas - 5":{"address":"Sarmas - 5","city":"Bukaiši","zip":"LV-3714"},"sarmas - 6":{"address":"Sarmas - 6","city":"Bukaiši","zip":"LV-3714"},"sarmas - 7":{"address":"Sarmas - 7","city":"Bukaiši","zip":"LV-3714"},"sarmas - 8":{"address":"Sarmas - 8","city":"Bukaiši","zip":"LV-3714"},"sarmas - 9":{"address":"Sarmas - 9","city":"Bukaiši","zip":"LV-3714"},"sarmas - 10":{"address":"Sarmas - 10","city":"Bukaiši","zip":"LV-3714"},"sarmas - 11":{"address":"Sarmas - 11","city":"Bukaiši","zip":"LV-3714"},"sarmas - 12":{"address":"Sarmas - 12","city":"Zelmeņi","zip":"LV-3730"},"sarmas - 13":{"address":"Sarmas - 13","city":"Zelmeņi","zip":"LV-3730"},"sarmas - 14":{"address":"Sarmas - 14","city":"Zelmeņi","zip":"LV-3730"},"sarmas - 15":{"address":"Sarmas - 15","city":"Zelmeņi","zip":"LV-3730"},"sarmas - 16":{"address":"Sarmas - 16","city":"Zelmeņi","zip":"LV-3730"},"sarmas - 17":{"address":"Sarmas - 17","city":"Zelmeņi","zip":"LV-3730"},"sarmas - 18":{"address":"Sarmas - 18","city":"Zelmeņi","zip":"LV-3730"},"sarmas - 19":{"address":"Sarmas - 19","city":"Zelmeņi","zip":"LV-3730"},"sarmas - 20":{"address":"Sarmas - 20","city":"Zelmeņi","zip":"LV-3730"},"sarmas - 21":{"address":"Sarmas - 21","city":"Zelmeņi","zip":"LV-3730"},"sarmas - 22":{"address":"Sarmas - 22","city":"Zelmeņi","zip":"LV-3730"},"sarmas - 23":{"address":"Sarmas - 23","city":"Zelmeņi","zip":"LV-3730"},"sarmas - 24":{"address":"Sarmas - 24","city":"Zelmeņi","zip":"LV-3730"},"sarmas - 25":{"address":"Sarmas - 25","city":"Zelmeņi","zip":"LV-3730"},"sarmas - 26":{"address":"Sarmas - 26","city":"Zelmeņi","zip":"LV-3730"},"sarmas - 27":{"address":"Sarmas - 27","city":"Zelmeņi","zip":"LV-3730"}}