{"saules iela 11 - 1":{"address":"Saules iela 11 - 1","city":"Gornica","zip":"LV-4630"},"saules iela 11 - 2":{"address":"Saules iela 11 - 2","city":"Gornica","zip":"LV-4630"},"saules iela 11 - 3":{"address":"Saules iela 11 - 3","city":"Gornica","zip":"LV-4630"},"saules iela 11 - 4":{"address":"Saules iela 11 - 4","city":"Gornica","zip":"LV-4630"},"saules iela 11 - 5":{"address":"Saules iela 11 - 5","city":"Gornica","zip":"LV-4630"},"saules iela 11 - 6":{"address":"Saules iela 11 - 6","city":"Gornica","zip":"LV-4630"},"saules iela 11 - 7":{"address":"Saules iela 11 - 7","city":"Gornica","zip":"LV-4630"},"saules iela 11 - 8":{"address":"Saules iela 11 - 8","city":"Gornica","zip":"LV-4630"},"saules iela 11 - 9":{"address":"Saules iela 11 - 9","city":"Gornica","zip":"LV-4630"},"saules iela 11 - 10":{"address":"Saules iela 11 - 10","city":"Gornica","zip":"LV-4630"},"saules iela 11 - 11":{"address":"Saules iela 11 - 11","city":"Gornica","zip":"LV-4630"},"saules iela 11 - 12":{"address":"Saules iela 11 - 12","city":"Gornica","zip":"LV-4630"},"saules iela 11 - 13":{"address":"Saules iela 11 - 13","city":"Gornica","zip":"LV-4630"},"saules iela 11 - 14":{"address":"Saules iela 11 - 14","city":"Gornica","zip":"LV-4630"},"saules iela 11 - 15":{"address":"Saules iela 11 - 15","city":"Gornica","zip":"LV-4630"},"saules iela 11 - 16":{"address":"Saules iela 11 - 16","city":"Gornica","zip":"LV-4630"},"saules iela 11 - 17":{"address":"Saules iela 11 - 17","city":"Gornica","zip":"LV-4630"},"saules iela 11 - 18":{"address":"Saules iela 11 - 18","city":"Gornica","zip":"LV-4630"},"saules iela 11 - 19":{"address":"Saules iela 11 - 19","city":"Gornica","zip":"LV-4630"},"saules iela 11 - 20":{"address":"Saules iela 11 - 20","city":"Gornica","zip":"LV-4630"},"saules iela 11 - 21":{"address":"Saules iela 11 - 21","city":"Gornica","zip":"LV-4630"},"saules iela 11 - 22":{"address":"Saules iela 11 - 22","city":"Gornica","zip":"LV-4630"},"saules iela 11 - 23":{"address":"Saules iela 11 - 23","city":"Gornica","zip":"LV-4630"},"saules iela 11 - 24":{"address":"Saules iela 11 - 24","city":"Gornica","zip":"LV-4630"},"saules iela 11 - 25":{"address":"Saules iela 11 - 25","city":"Gornica","zip":"LV-4630"},"saules iela 11 - 26":{"address":"Saules iela 11 - 26","city":"Gornica","zip":"LV-4630"},"saules iela 11 - 27":{"address":"Saules iela 11 - 27","city":"Gornica","zip":"LV-4630"},"saules iela 11 - 28":{"address":"Saules iela 11 - 28","city":"Gornica","zip":"LV-4630"},"saules iela 11 - 29":{"address":"Saules iela 11 - 29","city":"Gornica","zip":"LV-4630"},"saules iela 11 - 30":{"address":"Saules iela 11 - 30","city":"Gornica","zip":"LV-4630"},"saules iela 13 - 12":{"address":"Saules iela 13 - 12","city":"Gornica","zip":"LV-4630"},"saules iela 13 - 1":{"address":"Saules iela 13 - 1","city":"Gornica","zip":"LV-4630"},"saules iela 13 - 2":{"address":"Saules iela 13 - 2","city":"Gornica","zip":"LV-4630"},"saules iela 13 - 3":{"address":"Saules iela 13 - 3","city":"Gornica","zip":"LV-4630"},"saules iela 13 - 4":{"address":"Saules iela 13 - 4","city":"Gornica","zip":"LV-4630"},"saules iela 13 - 5":{"address":"Saules iela 13 - 5","city":"Gornica","zip":"LV-4630"},"saules iela 13 - 6":{"address":"Saules iela 13 - 6","city":"Gornica","zip":"LV-4630"},"saules iela 13 - 7":{"address":"Saules iela 13 - 7","city":"Gornica","zip":"LV-4630"},"saules iela 13 - 8":{"address":"Saules iela 13 - 8","city":"Gornica","zip":"LV-4630"},"saules iela 13 - 9":{"address":"Saules iela 13 - 9","city":"Gornica","zip":"LV-4630"},"saules iela 13 - 10":{"address":"Saules iela 13 - 10","city":"Gornica","zip":"LV-4630"},"saules iela 13 - 11":{"address":"Saules iela 13 - 11","city":"Gornica","zip":"LV-4630"},"saules iela 13 - 13":{"address":"Saules iela 13 - 13","city":"Gornica","zip":"LV-4630"},"saules iela 13 - 14":{"address":"Saules iela 13 - 14","city":"Gornica","zip":"LV-4630"},"saules iela 13 - 15":{"address":"Saules iela 13 - 15","city":"Gornica","zip":"LV-4630"},"saules iela 13 - 16":{"address":"Saules iela 13 - 16","city":"Gornica","zip":"LV-4630"},"saules iela 13 - 17":{"address":"Saules iela 13 - 17","city":"Gornica","zip":"LV-4630"},"saules iela 13 - 18":{"address":"Saules iela 13 - 18","city":"Gornica","zip":"LV-4630"},"saules iela 15 - 1":{"address":"Saules iela 15 - 1","city":"Gornica","zip":"LV-4630"},"saules iela 15 - 2":{"address":"Saules iela 15 - 2","city":"Gornica","zip":"LV-4630"},"saules iela 15 - 3":{"address":"Saules iela 15 - 3","city":"Gornica","zip":"LV-4630"},"saules iela 15 - 4":{"address":"Saules iela 15 - 4","city":"Gornica","zip":"LV-4630"},"saules iela 15 - 5":{"address":"Saules iela 15 - 5","city":"Gornica","zip":"LV-4630"},"saules iela 15 - 6":{"address":"Saules iela 15 - 6","city":"Gornica","zip":"LV-4630"},"saules iela 15 - 12":{"address":"Saules iela 15 - 12","city":"Gornica","zip":"LV-4630"},"saules iela 15 - 7":{"address":"Saules iela 15 - 7","city":"Gornica","zip":"LV-4630"},"saules iela 15 - 8":{"address":"Saules iela 15 - 8","city":"Gornica","zip":"LV-4630"},"saules iela 15 - 9":{"address":"Saules iela 15 - 9","city":"Gornica","zip":"LV-4630"},"saules iela 15 - 10":{"address":"Saules iela 15 - 10","city":"Gornica","zip":"LV-4630"},"saules iela 15 - 11":{"address":"Saules iela 15 - 11","city":"Gornica","zip":"LV-4630"},"saules iela 17 - 1":{"address":"Saules iela 17 - 1","city":"Gornica","zip":"LV-4630"},"saules iela 17 - 2":{"address":"Saules iela 17 - 2","city":"Gornica","zip":"LV-4630"},"saules iela 17 - 3":{"address":"Saules iela 17 - 3","city":"Gornica","zip":"LV-4630"},"saules iela 17 - 4":{"address":"Saules iela 17 - 4","city":"Gornica","zip":"LV-4630"},"saules iela 17 - 5":{"address":"Saules iela 17 - 5","city":"Gornica","zip":"LV-4630"},"saules iela 17 - 6":{"address":"Saules iela 17 - 6","city":"Gornica","zip":"LV-4630"},"saules iela 17 - 7":{"address":"Saules iela 17 - 7","city":"Gornica","zip":"LV-4630"},"saules iela 17 - 8":{"address":"Saules iela 17 - 8","city":"Gornica","zip":"LV-4630"},"saules iela 17 - 9":{"address":"Saules iela 17 - 9","city":"Gornica","zip":"LV-4630"},"saules iela 17 - 10":{"address":"Saules iela 17 - 10","city":"Gornica","zip":"LV-4630"},"saules iela 17 - 11":{"address":"Saules iela 17 - 11","city":"Gornica","zip":"LV-4630"},"saules iela 17 - 12":{"address":"Saules iela 17 - 12","city":"Gornica","zip":"LV-4630"},"saules iela 12 - 1":{"address":"Saules iela 12 - 1","city":"Malta","zip":"LV-4630"},"saules iela 12 - 2":{"address":"Saules iela 12 - 2","city":"Malta","zip":"LV-4630"},"saules iela 18 - 1":{"address":"Saules iela 18 - 1","city":"Malta","zip":"LV-4630"},"saules iela 18 - 2":{"address":"Saules iela 18 - 2","city":"Malta","zip":"LV-4630"},"saules iela 30a - 1":{"address":"Saules iela 30A - 1","city":"Pleikšņi","zip":"LV-4601"},"saules iela 30a - 2":{"address":"Saules iela 30A - 2","city":"Pleikšņi","zip":"LV-4601"},"saules iela 30a - 3":{"address":"Saules iela 30A - 3","city":"Pleikšņi","zip":"LV-4601"},"saules iela 30a - 4":{"address":"Saules iela 30A - 4","city":"Pleikšņi","zip":"LV-4601"},"saules iela 30a - 5":{"address":"Saules iela 30A - 5","city":"Pleikšņi","zip":"LV-4601"},"saules iela 30a - 6":{"address":"Saules iela 30A - 6","city":"Pleikšņi","zip":"LV-4601"}}