{"saulkrasti - 1":{"address":"Saulkrasti - 1","city":"Tiņģere","zip":"LV-3261"},"saulkrasti - 2":{"address":"Saulkrasti - 2","city":"Tiņģere","zip":"LV-3261"},"saulkrasti - 3":{"address":"Saulkrasti - 3","city":"Tiņģere","zip":"LV-3261"},"saulkrasti - 4":{"address":"Saulkrasti - 4","city":"Tiņģere","zip":"LV-3261"},"saulkrasti - 5":{"address":"Saulkrasti - 5","city":"Tiņģere","zip":"LV-3261"},"saulkrasti - 6":{"address":"Saulkrasti - 6","city":"Tiņģere","zip":"LV-3261"},"saulkrasti - 7":{"address":"Saulkrasti - 7","city":"Tiņģere","zip":"LV-3261"},"saulkrasti - 8":{"address":"Saulkrasti - 8","city":"Tiņģere","zip":"LV-3261"},"saulkrasti - 9":{"address":"Saulkrasti - 9","city":"Tiņģere","zip":"LV-3261"},"saulkrasti - 10":{"address":"Saulkrasti - 10","city":"Tiņģere","zip":"LV-3261"},"saulkrasti - 11":{"address":"Saulkrasti - 11","city":"Tiņģere","zip":"LV-3261"},"saulkrasti - 12":{"address":"Saulkrasti - 12","city":"Tiņģere","zip":"LV-3261"},"saulkrasti - 13":{"address":"Saulkrasti - 13","city":"Tiņģere","zip":"LV-3261"},"saulkrasti - 14":{"address":"Saulkrasti - 14","city":"Tiņģere","zip":"LV-3261"},"saulkrasti - 15":{"address":"Saulkrasti - 15","city":"Tiņģere","zip":"LV-3261"},"saulkrasti - 16":{"address":"Saulkrasti - 16","city":"Tiņģere","zip":"LV-3261"},"saulkrasti - 17":{"address":"Saulkrasti - 17","city":"Tiņģere","zip":"LV-3261"},"saulkrasti - 18":{"address":"Saulkrasti - 18","city":"Tiņģere","zip":"LV-3261"},"saulkrasti - 19":{"address":"Saulkrasti - 19","city":"Tiņģere","zip":"LV-3261"},"saulkrasti - 20":{"address":"Saulkrasti - 20","city":"Tiņģere","zip":"LV-3261"},"saulkrasti - 21":{"address":"Saulkrasti - 21","city":"Tiņģere","zip":"LV-3261"},"saulkrasti - 22":{"address":"Saulkrasti - 22","city":"Tiņģere","zip":"LV-3261"},"saulkrasti - 23":{"address":"Saulkrasti - 23","city":"Tiņģere","zip":"LV-3261"},"saulkrasti - 24":{"address":"Saulkrasti - 24","city":"Tiņģere","zip":"LV-3261"}}