{"saulītes - 1":{"address":"Saulītes - 1","city":"Gudenieki","zip":"LV-3312"},"saulītes - 2":{"address":"Saulītes - 2","city":"Gudenieki","zip":"LV-3312"},"saulītes - 3":{"address":"Saulītes - 3","city":"Gudenieki","zip":"LV-3312"},"saulītes - 4":{"address":"Saulītes - 4","city":"Gudenieki","zip":"LV-3312"},"saulītes - 5":{"address":"Saulītes - 5","city":"Gudenieki","zip":"LV-3312"},"saulītes - 6":{"address":"Saulītes - 6","city":"Gudenieki","zip":"LV-3312"},"saulītes - 7":{"address":"Saulītes - 7","city":"Gudenieki","zip":"LV-3312"},"saulītes - 8":{"address":"Saulītes - 8","city":"Gudenieki","zip":"LV-3312"},"saulītes - 9":{"address":"Saulītes - 9","city":"Ineši","zip":"LV-4123"},"saulītes - 10":{"address":"Saulītes - 10","city":"Ineši","zip":"LV-4123"},"saulītes - 11":{"address":"Saulītes - 11","city":"Ineši","zip":"LV-4123"},"saulītes - 12":{"address":"Saulītes - 12","city":"Ineši","zip":"LV-4123"},"saulītes - 13":{"address":"Saulītes - 13","city":"Ineši","zip":"LV-4123"},"saulītes - 14":{"address":"Saulītes - 14","city":"Ineši","zip":"LV-4123"},"saulītes - 15":{"address":"Saulītes - 15","city":"Ineši","zip":"LV-4123"},"saulītes - 16":{"address":"Saulītes - 16","city":"Ineši","zip":"LV-4123"},"saulītes - 17":{"address":"Saulītes - 17","city":"Ineši","zip":"LV-4123"},"saulītes - 18":{"address":"Saulītes - 18","city":"Ineši","zip":"LV-4123"},"nīzeres iela saulītes-zeltiņi - 1":{"address":"Nīzeres iela Saulītes-Zeltiņi - 1","city":"Nīzere","zip":"LV-3925"},"nīzeres iela saulītes-zeltiņi - 2":{"address":"Nīzeres iela Saulītes-Zeltiņi - 2","city":"Nīzere","zip":"LV-3925"},"nīzeres iela saulītes-zeltiņi - 3":{"address":"Nīzeres iela Saulītes-Zeltiņi - 3","city":"Nīzere","zip":"LV-3925"},"nīzeres iela saulītes-zeltiņi - 4":{"address":"Nīzeres iela Saulītes-Zeltiņi - 4","city":"Nīzere","zip":"LV-3925"},"nīzeres iela saulītes-zeltiņi - 5":{"address":"Nīzeres iela Saulītes-Zeltiņi - 5","city":"Nīzere","zip":"LV-3925"},"nīzeres iela saulītes-zeltiņi - 6":{"address":"Nīzeres iela Saulītes-Zeltiņi - 6","city":"Nīzere","zip":"LV-3925"},"nīzeres iela saulītes-zeltiņi - 7":{"address":"Nīzeres iela Saulītes-Zeltiņi - 7","city":"Nīzere","zip":"LV-3925"},"nīzeres iela saulītes-zeltiņi - 8":{"address":"Nīzeres iela Saulītes-Zeltiņi - 8","city":"Nīzere","zip":"LV-3925"},"nīzeres iela saulītes-zeltiņi - 9":{"address":"Nīzeres iela Saulītes-Zeltiņi - 9","city":"Nīzere","zip":"LV-3925"},"nīzeres iela saulītes-zeltiņi - 10":{"address":"Nīzeres iela Saulītes-Zeltiņi - 10","city":"Nīzere","zip":"LV-3925"},"nīzeres iela saulītes-zeltiņi - 11":{"address":"Nīzeres iela Saulītes-Zeltiņi - 11","city":"Nīzere","zip":"LV-3925"},"nīzeres iela saulītes-zeltiņi - 12":{"address":"Nīzeres iela Saulītes-Zeltiņi - 12","city":"Nīzere","zip":"LV-3925"},"nīzeres iela saulītes-zeltiņi - 13":{"address":"Nīzeres iela Saulītes-Zeltiņi - 13","city":"Nīzere","zip":"LV-3925"},"nīzeres iela saulītes-zeltiņi - 14":{"address":"Nīzeres iela Saulītes-Zeltiņi - 14","city":"Nīzere","zip":"LV-3925"},"nīzeres iela saulītes-zeltiņi - 15":{"address":"Nīzeres iela Saulītes-Zeltiņi - 15","city":"Nīzere","zip":"LV-3925"},"nīzeres iela saulītes-zeltiņi - 16":{"address":"Nīzeres iela Saulītes-Zeltiņi - 16","city":"Nīzere","zip":"LV-3925"},"nīzeres iela saulītes-zeltiņi - 17":{"address":"Nīzeres iela Saulītes-Zeltiņi - 17","city":"Nīzere","zip":"LV-3925"},"nīzeres iela saulītes-zeltiņi - 18":{"address":"Nīzeres iela Saulītes-Zeltiņi - 18","city":"Nīzere","zip":"LV-3925"},"nīzeres iela saulītes-zeltiņi - 19":{"address":"Nīzeres iela Saulītes-Zeltiņi - 19","city":"Nīzere","zip":"LV-3925"},"nīzeres iela saulītes-zeltiņi - 20":{"address":"Nīzeres iela Saulītes-Zeltiņi - 20","city":"Nīzere","zip":"LV-3925"},"nīzeres iela saulītes-zeltiņi - 21":{"address":"Nīzeres iela Saulītes-Zeltiņi - 21","city":"Nīzere","zip":"LV-3925"},"nīzeres iela saulītes-zeltiņi - 22":{"address":"Nīzeres iela Saulītes-Zeltiņi - 22","city":"Nīzere","zip":"LV-3925"},"nīzeres iela saulītes-zeltiņi - 23":{"address":"Nīzeres iela Saulītes-Zeltiņi - 23","city":"Nīzere","zip":"LV-3925"},"nīzeres iela saulītes-zeltiņi - 24":{"address":"Nīzeres iela Saulītes-Zeltiņi - 24","city":"Nīzere","zip":"LV-3925"},"nīzeres iela saulītes-zeltiņi - 25":{"address":"Nīzeres iela Saulītes-Zeltiņi - 25","city":"Nīzere","zip":"LV-3925"},"nīzeres iela saulītes-zeltiņi - 26":{"address":"Nīzeres iela Saulītes-Zeltiņi - 26","city":"Nīzere","zip":"LV-3925"},"nīzeres iela saulītes-zeltiņi - 27":{"address":"Nīzeres iela Saulītes-Zeltiņi - 27","city":"Nīzere","zip":"LV-3925"},"nīzeres iela saulītes-zeltiņi - 28":{"address":"Nīzeres iela Saulītes-Zeltiņi - 28","city":"Nīzere","zip":"LV-3925"},"nīzeres iela saulītes-zeltiņi - 29":{"address":"Nīzeres iela Saulītes-Zeltiņi - 29","city":"Nīzere","zip":"LV-3925"},"nīzeres iela saulītes-zeltiņi - 30":{"address":"Nīzeres iela Saulītes-Zeltiņi - 30","city":"Nīzere","zip":"LV-3925"}}