{"seiļi - 1":{"address":"Seiļi - 1","city":"Lielie Pupāji","zip":"LV-5301"},"seiļi - 2":{"address":"Seiļi - 2","city":"Lielie Pupāji","zip":"LV-5301"},"seiļi":{"address":"Seiļi","city":"Dērvaniene","zip":"LV-4618"},"vilciņi":{"address":"Vilciņi","city":"Seiļi","zip":"LV-4643"},"sīlīši":{"address":"Sīlīši","city":"Seiļi","zip":"LV-5301"},"liepkalni":{"address":"Liepkalni","city":"Seiļi","zip":"LV-4611"},"jāņi":{"address":"Jāņi","city":"Seiļi","zip":"LV-5331"},"laurāni":{"address":"Laurāni","city":"Seiļi","zip":"LV-5331"},"vērdiņi":{"address":"Vērdiņi","city":"Seiļi","zip":"LV-5331"},"kalnasēta":{"address":"Kalnasēta","city":"Seiļi","zip":"LV-5331"},"pakaviņi":{"address":"Pakaviņi","city":"Seiļi","zip":"LV-5331"},"seiļu kalns":{"address":"Seiļu kalns","city":"Seiļi","zip":"LV-5477"},"jaunā zeme":{"address":"Jaunā Zeme","city":"Seiļi","zip":"LV-5301"},"upeskrasti":{"address":"Upeskrasti","city":"Seiļi","zip":"LV-5301"},"sniedzītes":{"address":"Sniedzītes","city":"Seiļi","zip":"LV-5725"},"sīļi":{"address":"Sīļi","city":"Seiļi","zip":"LV-5301"},"ezerkalni":{"address":"Ezerkalni","city":"Seiļi","zip":"LV-5477"},"pētermājas":{"address":"Pētermājas","city":"Seiļi","zip":"LV-4643"},"gailīši":{"address":"Gailīši","city":"Seiļi","zip":"LV-5736"},"lielceļi":{"address":"Lielceļi","city":"Seiļi","zip":"LV-5736"},"skujas":{"address":"Skujas","city":"Seiļi","zip":"LV-5736"},"audenes":{"address":"Audenes","city":"Seiļi","zip":"LV-5725"},"mārcienas":{"address":"Mārcienas","city":"Seiļi","zip":"LV-5725"},"strazdiņu mājas":{"address":"Strazdiņu mājas","city":"Seiļi","zip":"LV-5725"},"dadži":{"address":"Dadži","city":"Seiļi","zip":"LV-5477"},"kalna māja":{"address":"Kalna māja","city":"Seiļi","zip":"LV-5477"},"lakstīgalas":{"address":"Lakstīgalas","city":"Seiļi","zip":"LV-5477"},"līdags":{"address":"Līdags","city":"Seiļi","zip":"LV-5477"},"rosība":{"address":"Rosība","city":"Seiļi","zip":"LV-5477"},"vingri":{"address":"Vingri","city":"Seiļi","zip":"LV-5331"},"ābelītes":{"address":"Ābelītes","city":"Seiļi","zip":"LV-5331"},"bitītes":{"address":"Bitītes","city":"Seiļi","zip":"LV-5331"},"slūkas":{"address":"Slūkas","city":"Seiļi","zip":"LV-5331"},"upmalnieki":{"address":"Upmalnieki","city":"Seiļi","zip":"LV-5301"},"apsītes":{"address":"Apsītes","city":"Seiļi","zip":"LV-4643"},"avoti":{"address":"Avoti","city":"Seiļi","zip":"LV-4643"},"ceriņmojis":{"address":"Ceriņmojis","city":"Seiļi","zip":"LV-4643"},"elkšņi":{"address":"Elkšņi","city":"Seiļi","zip":"LV-4643"},"jasmīnmojis":{"address":"Jasmīnmojis","city":"Seiļi","zip":"LV-4643"},"krūmāji":{"address":"Krūmāji","city":"Seiļi","zip":"LV-4643"},"līpumojis":{"address":"Līpumojis","city":"Seiļi","zip":"LV-4643"},"ozoli":{"address":"Ozoli","city":"Seiļi","zip":"LV-4643"},"pumpurmājas":{"address":"Pumpurmājas","city":"Seiļi","zip":"LV-4643"},"strautumojis":{"address":"Strautumojis","city":"Seiļi","zip":"LV-4643"},"upmala":{"address":"Upmala","city":"Seiļi","zip":"LV-4643"},"vanagmājas":{"address":"Vanagmājas","city":"Seiļi","zip":"LV-4643"},"vindedži":{"address":"Vindedži","city":"Seiļi","zip":"LV-4643"},"vītoli":{"address":"Vītoli","city":"Seiļi","zip":"LV-4643"},"zariņi":{"address":"Zariņi","city":"Seiļi","zip":"LV-4643"},"bebri":{"address":"Bebri","city":"Seiļi","zip":"LV-4611"},"kovalenko":{"address":"Kovalenko","city":"Seiļi","zip":"LV-4611"},"ozolmāja":{"address":"Ozolmāja","city":"Seiļi","zip":"LV-4611"}}