{"selekcijas iela 14 - 25a":{"address":"Selekcijas iela 14 - 25A","city":"Priekuļi","zip":"LV-4126"},"selekcijas iela 12 - 1":{"address":"Selekcijas iela 12 - 1","city":"Priekuļi","zip":"LV-4126"},"selekcijas iela 12 - 2":{"address":"Selekcijas iela 12 - 2","city":"Priekuļi","zip":"LV-4126"},"selekcijas iela 12 - 3":{"address":"Selekcijas iela 12 - 3","city":"Priekuļi","zip":"LV-4126"},"selekcijas iela 12 - 4":{"address":"Selekcijas iela 12 - 4","city":"Priekuļi","zip":"LV-4126"},"selekcijas iela 12 - 5":{"address":"Selekcijas iela 12 - 5","city":"Priekuļi","zip":"LV-4126"},"selekcijas iela 12 - 6":{"address":"Selekcijas iela 12 - 6","city":"Priekuļi","zip":"LV-4126"},"selekcijas iela 12 - 7":{"address":"Selekcijas iela 12 - 7","city":"Priekuļi","zip":"LV-4126"},"selekcijas iela 12 - 8":{"address":"Selekcijas iela 12 - 8","city":"Priekuļi","zip":"LV-4126"},"selekcijas iela 12 - 9":{"address":"Selekcijas iela 12 - 9","city":"Priekuļi","zip":"LV-4126"},"selekcijas iela 12 - 10":{"address":"Selekcijas iela 12 - 10","city":"Priekuļi","zip":"LV-4126"},"selekcijas iela 12 - 11":{"address":"Selekcijas iela 12 - 11","city":"Priekuļi","zip":"LV-4126"},"selekcijas iela 12 - 12":{"address":"Selekcijas iela 12 - 12","city":"Priekuļi","zip":"LV-4126"},"selekcijas iela 12 - 13":{"address":"Selekcijas iela 12 - 13","city":"Priekuļi","zip":"LV-4126"},"selekcijas iela 12 - 14":{"address":"Selekcijas iela 12 - 14","city":"Priekuļi","zip":"LV-4126"},"selekcijas iela 12 - 15":{"address":"Selekcijas iela 12 - 15","city":"Priekuļi","zip":"LV-4126"},"selekcijas iela 12 - 16":{"address":"Selekcijas iela 12 - 16","city":"Priekuļi","zip":"LV-4126"},"selekcijas iela 14 - 1":{"address":"Selekcijas iela 14 - 1","city":"Priekuļi","zip":"LV-4126"},"selekcijas iela 14 - 2":{"address":"Selekcijas iela 14 - 2","city":"Priekuļi","zip":"LV-4126"},"selekcijas iela 14 - 3":{"address":"Selekcijas iela 14 - 3","city":"Priekuļi","zip":"LV-4126"},"selekcijas iela 14 - 4":{"address":"Selekcijas iela 14 - 4","city":"Priekuļi","zip":"LV-4126"},"selekcijas iela 14 - 5":{"address":"Selekcijas iela 14 - 5","city":"Priekuļi","zip":"LV-4126"},"selekcijas iela 14 - 6":{"address":"Selekcijas iela 14 - 6","city":"Priekuļi","zip":"LV-4126"},"selekcijas iela 14 - 7":{"address":"Selekcijas iela 14 - 7","city":"Priekuļi","zip":"LV-4126"},"selekcijas iela 14 - 8":{"address":"Selekcijas iela 14 - 8","city":"Priekuļi","zip":"LV-4126"},"selekcijas iela 14 - 9":{"address":"Selekcijas iela 14 - 9","city":"Priekuļi","zip":"LV-4126"},"selekcijas iela 14 - 10":{"address":"Selekcijas iela 14 - 10","city":"Priekuļi","zip":"LV-4126"},"selekcijas iela 14 - 11":{"address":"Selekcijas iela 14 - 11","city":"Priekuļi","zip":"LV-4126"},"selekcijas iela 14 - 12":{"address":"Selekcijas iela 14 - 12","city":"Priekuļi","zip":"LV-4126"},"selekcijas iela 14 - 13":{"address":"Selekcijas iela 14 - 13","city":"Priekuļi","zip":"LV-4126"},"selekcijas iela 14 - 14":{"address":"Selekcijas iela 14 - 14","city":"Priekuļi","zip":"LV-4126"},"selekcijas iela 14 - 15":{"address":"Selekcijas iela 14 - 15","city":"Priekuļi","zip":"LV-4126"},"selekcijas iela 14 - 16":{"address":"Selekcijas iela 14 - 16","city":"Priekuļi","zip":"LV-4126"},"selekcijas iela 14 - 17":{"address":"Selekcijas iela 14 - 17","city":"Priekuļi","zip":"LV-4126"},"selekcijas iela 14 - 18":{"address":"Selekcijas iela 14 - 18","city":"Priekuļi","zip":"LV-4126"},"selekcijas iela 14 - 19":{"address":"Selekcijas iela 14 - 19","city":"Priekuļi","zip":"LV-4126"},"selekcijas iela 14 - 20":{"address":"Selekcijas iela 14 - 20","city":"Priekuļi","zip":"LV-4126"},"selekcijas iela 14 - 21":{"address":"Selekcijas iela 14 - 21","city":"Priekuļi","zip":"LV-4126"},"selekcijas iela 14 - 22":{"address":"Selekcijas iela 14 - 22","city":"Priekuļi","zip":"LV-4126"},"selekcijas iela 14 - 23":{"address":"Selekcijas iela 14 - 23","city":"Priekuļi","zip":"LV-4126"},"selekcijas iela 14 - 24":{"address":"Selekcijas iela 14 - 24","city":"Priekuļi","zip":"LV-4126"},"selekcijas iela 14 - 25":{"address":"Selekcijas iela 14 - 25","city":"Priekuļi","zip":"LV-4126"},"selekcijas iela 14 - 26":{"address":"Selekcijas iela 14 - 26","city":"Priekuļi","zip":"LV-4126"},"selekcijas iela 16 - 1":{"address":"Selekcijas iela 16 - 1","city":"Priekuļi","zip":"LV-4126"},"selekcijas iela 16 - 2":{"address":"Selekcijas iela 16 - 2","city":"Priekuļi","zip":"LV-4126"},"selekcijas iela 16 - 3":{"address":"Selekcijas iela 16 - 3","city":"Priekuļi","zip":"LV-4126"},"selekcijas iela 16 - 4":{"address":"Selekcijas iela 16 - 4","city":"Priekuļi","zip":"LV-4126"},"selekcijas iela 16 - 5":{"address":"Selekcijas iela 16 - 5","city":"Priekuļi","zip":"LV-4126"},"selekcijas iela 16 - 6":{"address":"Selekcijas iela 16 - 6","city":"Priekuļi","zip":"LV-4126"},"selekcijas iela 16 - 7":{"address":"Selekcijas iela 16 - 7","city":"Priekuļi","zip":"LV-4126"},"selekcijas iela 16 - 8":{"address":"Selekcijas iela 16 - 8","city":"Priekuļi","zip":"LV-4126"},"selekcijas iela 16 - 9":{"address":"Selekcijas iela 16 - 9","city":"Priekuļi","zip":"LV-4126"},"selekcijas iela 16 - 10":{"address":"Selekcijas iela 16 - 10","city":"Priekuļi","zip":"LV-4126"},"selekcijas iela 16 - 11":{"address":"Selekcijas iela 16 - 11","city":"Priekuļi","zip":"LV-4126"},"selekcijas iela 16 - 12":{"address":"Selekcijas iela 16 - 12","city":"Priekuļi","zip":"LV-4126"},"selekcijas iela 16 - 13":{"address":"Selekcijas iela 16 - 13","city":"Priekuļi","zip":"LV-4126"},"selekcijas iela 16 - 14":{"address":"Selekcijas iela 16 - 14","city":"Priekuļi","zip":"LV-4126"},"selekcijas iela 16 - 15":{"address":"Selekcijas iela 16 - 15","city":"Priekuļi","zip":"LV-4126"},"selekcijas iela 16 - 16":{"address":"Selekcijas iela 16 - 16","city":"Priekuļi","zip":"LV-4126"},"selekcijas iela 16 - 17":{"address":"Selekcijas iela 16 - 17","city":"Priekuļi","zip":"LV-4126"},"selekcijas iela 16 - 18":{"address":"Selekcijas iela 16 - 18","city":"Priekuļi","zip":"LV-4126"},"selekcijas iela 16 - 19":{"address":"Selekcijas iela 16 - 19","city":"Priekuļi","zip":"LV-4126"},"selekcijas iela 16 - 20":{"address":"Selekcijas iela 16 - 20","city":"Priekuļi","zip":"LV-4126"},"selekcijas iela 16 - 21":{"address":"Selekcijas iela 16 - 21","city":"Priekuļi","zip":"LV-4126"},"selekcijas iela 16 - 22":{"address":"Selekcijas iela 16 - 22","city":"Priekuļi","zip":"LV-4126"},"selekcijas iela 16 - 23":{"address":"Selekcijas iela 16 - 23","city":"Priekuļi","zip":"LV-4126"},"selekcijas iela 16 - 24":{"address":"Selekcijas iela 16 - 24","city":"Priekuļi","zip":"LV-4126"},"selekcijas iela 16 - 25":{"address":"Selekcijas iela 16 - 25","city":"Priekuļi","zip":"LV-4126"},"selekcijas iela 16 - 26":{"address":"Selekcijas iela 16 - 26","city":"Priekuļi","zip":"LV-4126"},"selekcijas iela 16 - 27":{"address":"Selekcijas iela 16 - 27","city":"Priekuļi","zip":"LV-4126"},"selekcijas iela 16a - 1":{"address":"Selekcijas iela 16A - 1","city":"Priekuļi","zip":"LV-4126"},"selekcijas iela 16a - 2":{"address":"Selekcijas iela 16A - 2","city":"Priekuļi","zip":"LV-4126"},"selekcijas iela 16a - 3":{"address":"Selekcijas iela 16A - 3","city":"Priekuļi","zip":"LV-4126"},"selekcijas iela 16a - 4":{"address":"Selekcijas iela 16A - 4","city":"Priekuļi","zip":"LV-4126"},"selekcijas iela 16a - 5":{"address":"Selekcijas iela 16A - 5","city":"Priekuļi","zip":"LV-4126"},"selekcijas iela 16a - 6":{"address":"Selekcijas iela 16A - 6","city":"Priekuļi","zip":"LV-4126"},"selekcijas iela 16a - 7":{"address":"Selekcijas iela 16A - 7","city":"Priekuļi","zip":"LV-4126"},"selekcijas iela 16a - 8":{"address":"Selekcijas iela 16A - 8","city":"Priekuļi","zip":"LV-4126"},"selekcijas iela 16a - 9":{"address":"Selekcijas iela 16A - 9","city":"Priekuļi","zip":"LV-4126"},"selekcijas iela 16a - 10":{"address":"Selekcijas iela 16A - 10","city":"Priekuļi","zip":"LV-4126"},"selekcijas iela 16a - 11":{"address":"Selekcijas iela 16A - 11","city":"Priekuļi","zip":"LV-4126"},"selekcijas iela 16a - 12":{"address":"Selekcijas iela 16A - 12","city":"Priekuļi","zip":"LV-4126"},"selekcijas iela 16a - 13":{"address":"Selekcijas iela 16A - 13","city":"Priekuļi","zip":"LV-4126"},"selekcijas iela 16a - 14":{"address":"Selekcijas iela 16A - 14","city":"Priekuļi","zip":"LV-4126"},"selekcijas iela 16a - 15":{"address":"Selekcijas iela 16A - 15","city":"Priekuļi","zip":"LV-4126"},"selekcijas iela 16a - 16":{"address":"Selekcijas iela 16A - 16","city":"Priekuļi","zip":"LV-4126"},"selekcijas iela 16a - 17":{"address":"Selekcijas iela 16A - 17","city":"Priekuļi","zip":"LV-4126"},"selekcijas iela 16a - 18":{"address":"Selekcijas iela 16A - 18","city":"Priekuļi","zip":"LV-4126"},"selekcijas iela 18 - 1":{"address":"Selekcijas iela 18 - 1","city":"Priekuļi","zip":"LV-4126"},"selekcijas iela 18 - 2":{"address":"Selekcijas iela 18 - 2","city":"Priekuļi","zip":"LV-4126"},"selekcijas iela 18 - 3":{"address":"Selekcijas iela 18 - 3","city":"Priekuļi","zip":"LV-4126"},"selekcijas iela 18 - 4":{"address":"Selekcijas iela 18 - 4","city":"Priekuļi","zip":"LV-4126"},"selekcijas iela 18 - 5":{"address":"Selekcijas iela 18 - 5","city":"Priekuļi","zip":"LV-4126"},"selekcijas iela 18 - 6":{"address":"Selekcijas iela 18 - 6","city":"Priekuļi","zip":"LV-4126"},"selekcijas iela 18 - 7":{"address":"Selekcijas iela 18 - 7","city":"Priekuļi","zip":"LV-4126"},"selekcijas iela 18 - 8":{"address":"Selekcijas iela 18 - 8","city":"Priekuļi","zip":"LV-4126"},"selekcijas iela 18 - 9":{"address":"Selekcijas iela 18 - 9","city":"Priekuļi","zip":"LV-4126"},"selekcijas iela 18 - 10":{"address":"Selekcijas iela 18 - 10","city":"Priekuļi","zip":"LV-4126"},"selekcijas iela 18 - 11":{"address":"Selekcijas iela 18 - 11","city":"Priekuļi","zip":"LV-4126"},"selekcijas iela 18 - 12":{"address":"Selekcijas iela 18 - 12","city":"Priekuļi","zip":"LV-4126"}}