{"selgas - 3":{"address":"Selgas - 3","city":"Ziemupe","zip":"LV-3463"},"selgas - 2":{"address":"Selgas - 2","city":"Ziemupe","zip":"LV-3463"},"selgas - 1":{"address":"Selgas - 1","city":"Ziemupe","zip":"LV-3463"},"selgas - 4":{"address":"Selgas - 4","city":"Užava","zip":"LV-3627"},"selgas - 5":{"address":"Selgas - 5","city":"Užava","zip":"LV-3627"},"selgas - 6":{"address":"Selgas - 6","city":"Užava","zip":"LV-3627"},"selgas - 7":{"address":"Selgas - 7","city":"Užava","zip":"LV-3627"},"selgas - 8":{"address":"Selgas - 8","city":"Užava","zip":"LV-3627"},"selgas - 9":{"address":"Selgas - 9","city":"Užava","zip":"LV-3627"},"selgas - 10":{"address":"Selgas - 10","city":"Užava","zip":"LV-3627"},"selgas - 11":{"address":"Selgas - 11","city":"Užava","zip":"LV-3627"},"selgas - 12":{"address":"Selgas - 12","city":"Užava","zip":"LV-3627"},"selgas - 13":{"address":"Selgas - 13","city":"Vidriži","zip":"LV-4013"},"selgas - 14":{"address":"Selgas - 14","city":"Vidriži","zip":"LV-4013"},"selgas - 15":{"address":"Selgas - 15","city":"Vidriži","zip":"LV-4013"},"selgas - 16":{"address":"Selgas - 16","city":"Vidriži","zip":"LV-4013"},"selgas - 17":{"address":"Selgas - 17","city":"Vidriži","zip":"LV-4013"},"selgas - 18":{"address":"Selgas - 18","city":"Vidriži","zip":"LV-4013"},"selgas - 19":{"address":"Selgas - 19","city":"Vidriži","zip":"LV-4013"},"selgas - 20":{"address":"Selgas - 20","city":"Vidriži","zip":"LV-4013"},"selgas - 21":{"address":"Selgas - 21","city":"Vidriži","zip":"LV-4013"},"selgas - 22":{"address":"Selgas - 22","city":"Vidriži","zip":"LV-4013"},"selgas - 23":{"address":"Selgas - 23","city":"Vidriži","zip":"LV-4013"},"selgas - 24":{"address":"Selgas - 24","city":"Vidriži","zip":"LV-4013"},"selgas - 25":{"address":"Selgas - 25","city":"Vidriži","zip":"LV-4013"},"selgas - 26":{"address":"Selgas - 26","city":"Vidriži","zip":"LV-4013"},"selgas - 27":{"address":"Selgas - 27","city":"Vidriži","zip":"LV-4013"},"selgas - 28":{"address":"Selgas - 28","city":"Vidriži","zip":"LV-4013"},"selgas - 29":{"address":"Selgas - 29","city":"Vidriži","zip":"LV-4013"},"selgas - 30":{"address":"Selgas - 30","city":"Vidriži","zip":"LV-4013"}}