{"senlejas - 1":{"address":"Senlejas - 1","city":"Renda","zip":"LV-3319"},"senlejas - 2":{"address":"Senlejas - 2","city":"Renda","zip":"LV-3319"},"senlejas - 7":{"address":"Senlejas - 7","city":"Renda","zip":"LV-3319"},"senlejas - 3":{"address":"Senlejas - 3","city":"Renda","zip":"LV-3319"},"senlejas - 4":{"address":"Senlejas - 4","city":"Renda","zip":"LV-3319"},"senlejas - 5":{"address":"Senlejas - 5","city":"Renda","zip":"LV-3319"},"senlejas - 6":{"address":"Senlejas - 6","city":"Renda","zip":"LV-3319"},"senlejas - 8":{"address":"Senlejas - 8","city":"Renda","zip":"LV-3319"},"senlejas iela 6 - 1":{"address":"Senlejas iela 6 - 1","city":"Pilskalne","zip":"LV-5447"},"senlejas iela 6 - 2":{"address":"Senlejas iela 6 - 2","city":"Pilskalne","zip":"LV-5447"},"senlejas iela 6 - 3":{"address":"Senlejas iela 6 - 3","city":"Pilskalne","zip":"LV-5447"},"senlejas iela 6 - 4":{"address":"Senlejas iela 6 - 4","city":"Pilskalne","zip":"LV-5447"},"senlejas iela 6 - 5":{"address":"Senlejas iela 6 - 5","city":"Pilskalne","zip":"LV-5447"},"senlejas iela 6 - 6":{"address":"Senlejas iela 6 - 6","city":"Pilskalne","zip":"LV-5447"},"senlejas iela 6 - 7":{"address":"Senlejas iela 6 - 7","city":"Pilskalne","zip":"LV-5447"},"senlejas iela 6 - 8":{"address":"Senlejas iela 6 - 8","city":"Pilskalne","zip":"LV-5447"},"senlejas iela 6 - 9":{"address":"Senlejas iela 6 - 9","city":"Pilskalne","zip":"LV-5447"},"senlejas iela 6 - 10":{"address":"Senlejas iela 6 - 10","city":"Pilskalne","zip":"LV-5447"},"senlejas iela 6 - 11":{"address":"Senlejas iela 6 - 11","city":"Pilskalne","zip":"LV-5447"},"senlejas iela 6 - 12":{"address":"Senlejas iela 6 - 12","city":"Pilskalne","zip":"LV-5447"},"senlejas iela 6 - 13":{"address":"Senlejas iela 6 - 13","city":"Pilskalne","zip":"LV-5447"},"senlejas iela 6 - 14":{"address":"Senlejas iela 6 - 14","city":"Pilskalne","zip":"LV-5447"},"senlejas iela 6 - 15":{"address":"Senlejas iela 6 - 15","city":"Pilskalne","zip":"LV-5447"},"senlejas iela 6 - 16":{"address":"Senlejas iela 6 - 16","city":"Pilskalne","zip":"LV-5447"},"senlejas iela 6 - 17":{"address":"Senlejas iela 6 - 17","city":"Pilskalne","zip":"LV-5447"},"senlejas iela 6 - 18":{"address":"Senlejas iela 6 - 18","city":"Pilskalne","zip":"LV-5447"},"senlejas iela 6 - 19":{"address":"Senlejas iela 6 - 19","city":"Pilskalne","zip":"LV-5447"},"senlejas iela 6 - 20":{"address":"Senlejas iela 6 - 20","city":"Pilskalne","zip":"LV-5447"},"senlejas iela 6 - 21":{"address":"Senlejas iela 6 - 21","city":"Pilskalne","zip":"LV-5447"},"senlejas iela 6 - 22":{"address":"Senlejas iela 6 - 22","city":"Pilskalne","zip":"LV-5447"},"senlejas iela 6 - 23":{"address":"Senlejas iela 6 - 23","city":"Pilskalne","zip":"LV-5447"},"senlejas iela 6 - 24":{"address":"Senlejas iela 6 - 24","city":"Pilskalne","zip":"LV-5447"},"senlejas iela 6 - 25":{"address":"Senlejas iela 6 - 25","city":"Pilskalne","zip":"LV-5447"},"senlejas iela 6 - 26":{"address":"Senlejas iela 6 - 26","city":"Pilskalne","zip":"LV-5447"},"senlejas iela 6 - 27":{"address":"Senlejas iela 6 - 27","city":"Pilskalne","zip":"LV-5447"},"senlejas iela 4 - 1":{"address":"Senlejas iela 4 - 1","city":"Pilskalne","zip":"LV-5447"},"senlejas iela 4 - 2":{"address":"Senlejas iela 4 - 2","city":"Pilskalne","zip":"LV-5447"},"senlejas iela 4 - 3":{"address":"Senlejas iela 4 - 3","city":"Pilskalne","zip":"LV-5447"},"senlejas iela 4 - 4":{"address":"Senlejas iela 4 - 4","city":"Pilskalne","zip":"LV-5447"},"senlejas iela 4 - 5":{"address":"Senlejas iela 4 - 5","city":"Pilskalne","zip":"LV-5447"},"senlejas iela 4 - 6":{"address":"Senlejas iela 4 - 6","city":"Pilskalne","zip":"LV-5447"},"senlejas iela 4 - 7":{"address":"Senlejas iela 4 - 7","city":"Pilskalne","zip":"LV-5447"},"senlejas iela 4 - 8":{"address":"Senlejas iela 4 - 8","city":"Pilskalne","zip":"LV-5447"},"senlejas iela 4 - 9":{"address":"Senlejas iela 4 - 9","city":"Pilskalne","zip":"LV-5447"},"senlejas iela 4 - 10":{"address":"Senlejas iela 4 - 10","city":"Pilskalne","zip":"LV-5447"},"senlejas iela 4 - 11":{"address":"Senlejas iela 4 - 11","city":"Pilskalne","zip":"LV-5447"},"senlejas iela 4 - 12":{"address":"Senlejas iela 4 - 12","city":"Pilskalne","zip":"LV-5447"},"senlejas iela 4 - 13":{"address":"Senlejas iela 4 - 13","city":"Pilskalne","zip":"LV-5447"},"senlejas iela 4 - 14":{"address":"Senlejas iela 4 - 14","city":"Pilskalne","zip":"LV-5447"},"senlejas iela 4 - 15":{"address":"Senlejas iela 4 - 15","city":"Pilskalne","zip":"LV-5447"},"senlejas iela 4 - 16":{"address":"Senlejas iela 4 - 16","city":"Pilskalne","zip":"LV-5447"},"senlejas iela 4 - 17":{"address":"Senlejas iela 4 - 17","city":"Pilskalne","zip":"LV-5447"},"senlejas iela 4 - 18":{"address":"Senlejas iela 4 - 18","city":"Pilskalne","zip":"LV-5447"},"senlejas":{"address":"Senlejas","city":"Renda","zip":"LV-3319"}}