{"seski - 1":{"address":"Seski - 1","city":"Oškalni","zip":"LV-3851"},"seski - 2":{"address":"Seski - 2","city":"Oškalni","zip":"LV-3851"},"seski - 3":{"address":"Seski - 3","city":"Oškalni","zip":"LV-3851"},"seski - 4":{"address":"Seski - 4","city":"Oškalni","zip":"LV-3851"},"seski - 5":{"address":"Seski - 5","city":"Oškalni","zip":"LV-3851"},"seski - 6":{"address":"Seski - 6","city":"Oškalni","zip":"LV-3851"},"seski - 7":{"address":"Seski - 7","city":"Oškalni","zip":"LV-3851"},"seski - 8":{"address":"Seski - 8","city":"Oškalni","zip":"LV-3851"},"seski - 9":{"address":"Seski - 9","city":"Oškalni","zip":"LV-3851"},"seski - 10":{"address":"Seski - 10","city":"Oškalni","zip":"LV-3851"},"seski - 11":{"address":"Seski - 11","city":"Oškalni","zip":"LV-3851"},"seski":{"address":"Seski","city":"Marientāle","zip":"LV-4612"},"ezerīši":{"address":"Ezerīši","city":"Šeški","zip":"LV-5711"},"borisi":{"address":"Borisi","city":"Šeški","zip":"LV-5711"},"sešķi":{"address":"Sešķi","city":"Špaki","zip":"LV-5330"},"bezdelīgas":{"address":"Bezdelīgas","city":"Šeški","zip":"LV-5711"},"daumanti":{"address":"Daumanti","city":"Šeški","zip":"LV-5711"},"irbenāji":{"address":"Irbenāji","city":"Šeški","zip":"LV-5711"},"jēkabi":{"address":"Jēkabi","city":"Šeški","zip":"LV-5711"},"klagiši":{"address":"Klagiši","city":"Šeški","zip":"LV-5711"},"mitčenkovi":{"address":"Mitčenkovi","city":"Šeški","zip":"LV-5711"},"volatovka":{"address":"Volatovka","city":"Šeški","zip":"LV-5711"}}