{"bērzupīte - 1":{"address":"Bērzupīte - 1","city":"Silamuiža","zip":"LV-4576"},"bērzupīte - 2":{"address":"Bērzupīte - 2","city":"Silamuiža","zip":"LV-4576"},"silaciema māja - 1":{"address":"Silaciema māja - 1","city":"Silaciems","zip":"LV-4566"},"silaciema māja - 2":{"address":"Silaciema māja - 2","city":"Silaciems","zip":"LV-4566"},"silaciema māja - 3":{"address":"Silaciema māja - 3","city":"Silaciems","zip":"LV-4566"},"silaciema māja - 4":{"address":"Silaciema māja - 4","city":"Silaciems","zip":"LV-4566"},"silaciema māja - 5":{"address":"Silaciema māja - 5","city":"Silaciems","zip":"LV-4566"},"silaciema māja - 6":{"address":"Silaciema māja - 6","city":"Silaciems","zip":"LV-4566"},"silaciema māja - 7":{"address":"Silaciema māja - 7","city":"Silaciems","zip":"LV-4566"},"silaciema māja - 8":{"address":"Silaciema māja - 8","city":"Silaciems","zip":"LV-4566"},"sila iela 4 - 1":{"address":"Sila iela 4 - 1","city":"Stāmeriena","zip":"LV-4406"},"sila iela 4 - 2":{"address":"Sila iela 4 - 2","city":"Stāmeriena","zip":"LV-4406"},"silava - 1":{"address":"Silava - 1","city":"Litene","zip":"LV-4405"},"silava - 2":{"address":"Silava - 2","city":"Litene","zip":"LV-4405"},"silaine - 1":{"address":"Silaine - 1","city":"Jaunanna","zip":"LV-4340"},"silaine - 2":{"address":"Silaine - 2","city":"Jaunanna","zip":"LV-4340"},"silaine - 3":{"address":"Silaine - 3","city":"Jaunanna","zip":"LV-4340"},"silaine - 4":{"address":"Silaine - 4","city":"Jaunanna","zip":"LV-4340"},"silaine - 5":{"address":"Silaine - 5","city":"Jaunanna","zip":"LV-4340"},"silaine - 6":{"address":"Silaine - 6","city":"Jaunanna","zip":"LV-4340"},"silaine - 7":{"address":"Silaine - 7","city":"Jaunanna","zip":"LV-4340"},"silaine - 8":{"address":"Silaine - 8","city":"Jaunanna","zip":"LV-4340"},"silaine - 9":{"address":"Silaine - 9","city":"Jaunanna","zip":"LV-4340"},"silaine - 10":{"address":"Silaine - 10","city":"Jaunanna","zip":"LV-4340"},"silaine - 11":{"address":"Silaine - 11","city":"Jaunanna","zip":"LV-4340"},"silaine - 12":{"address":"Silaine - 12","city":"Jaunanna","zip":"LV-4340"},"silavas - 1":{"address":"Silavas - 1","city":"Lode","zip":"LV-4012"},"silavas - 2":{"address":"Silavas - 2","city":"Lode","zip":"LV-4012"},"silavas - 3":{"address":"Silavas - 3","city":"Lode","zip":"LV-4012"}}