{"silavas - 1":{"address":"Silavas - 1","city":"Slampe","zip":"LV-3119"},"silavas - 2":{"address":"Silavas - 2","city":"Slampe","zip":"LV-3119"},"silavas - 3":{"address":"Silavas - 3","city":"Slampe","zip":"LV-3119"},"silavas - 4":{"address":"Silavas - 4","city":"Slampe","zip":"LV-3119"},"silavas - 5":{"address":"Silavas - 5","city":"Slampe","zip":"LV-3119"},"silavas - 6":{"address":"Silavas - 6","city":"Slampe","zip":"LV-3119"},"silavas - 7":{"address":"Silavas - 7","city":"Slampe","zip":"LV-3119"},"silavas - 8":{"address":"Silavas - 8","city":"Slampe","zip":"LV-3119"},"silavas - 9":{"address":"Silavas - 9","city":"Slampe","zip":"LV-3119"},"silavas - 10":{"address":"Silavas - 10","city":"Slampe","zip":"LV-3119"},"silavas - 11":{"address":"Silavas - 11","city":"Slampe","zip":"LV-3119"},"silavas - 12":{"address":"Silavas - 12","city":"Slampe","zip":"LV-3119"},"silavas - 13":{"address":"Silavas - 13","city":"Slampe","zip":"LV-3119"},"silavas - 14":{"address":"Silavas - 14","city":"Slampe","zip":"LV-3119"},"silavas - 15":{"address":"Silavas - 15","city":"Slampe","zip":"LV-3119"},"silavas - 16":{"address":"Silavas - 16","city":"Slampe","zip":"LV-3119"},"silavas - 17":{"address":"Silavas - 17","city":"Slampe","zip":"LV-3119"},"silavas - 18":{"address":"Silavas - 18","city":"Pūņas","zip":"LV-3253"},"silavas - 19":{"address":"Silavas - 19","city":"Pūņas","zip":"LV-3253"},"silavas - 20":{"address":"Silavas - 20","city":"Pūņas","zip":"LV-3253"},"silavas - 21":{"address":"Silavas - 21","city":"Pūņas","zip":"LV-3253"},"silavas - 22":{"address":"Silavas - 22","city":"Pūņas","zip":"LV-3253"},"silavas - 23":{"address":"Silavas - 23","city":"Pūņas","zip":"LV-3253"},"silavas - 24":{"address":"Silavas - 24","city":"Pūņas","zip":"LV-3253"},"silavas - 25":{"address":"Silavas - 25","city":"Pūņas","zip":"LV-3253"},"silavas - 26":{"address":"Silavas - 26","city":"Pūņas","zip":"LV-3253"},"silavas - 27":{"address":"Silavas - 27","city":"Pūņas","zip":"LV-3253"}}