{"andrejevu mājas - 1":{"address":"Andrejevu mājas - 1","city":"Silinīki","zip":"LV-4611"},"andrejevu mājas - 2":{"address":"Andrejevu mājas - 2","city":"Silinīki","zip":"LV-4611"},"pakalnieši 1 - 1":{"address":"Pakalnieši 1 - 1","city":"Siliņi","zip":"LV-4572"},"pakalnieši 1 - 2":{"address":"Pakalnieši 1 - 2","city":"Siliņi","zip":"LV-4572"},"pakalnieši 1 - 3":{"address":"Pakalnieši 1 - 3","city":"Siliņi","zip":"LV-4572"},"pakalnieši 1 - 4":{"address":"Pakalnieši 1 - 4","city":"Siliņi","zip":"LV-4572"},"pakalnieši 1 - 5":{"address":"Pakalnieši 1 - 5","city":"Siliņi","zip":"LV-4572"},"pakalnieši 1 - 6":{"address":"Pakalnieši 1 - 6","city":"Siliņi","zip":"LV-4572"},"pakalnieši 1 - 7":{"address":"Pakalnieši 1 - 7","city":"Siliņi","zip":"LV-4572"},"pakalnieši 1 - 8":{"address":"Pakalnieši 1 - 8","city":"Siliņi","zip":"LV-4572"},"silinieki - 1":{"address":"Silinieki - 1","city":"Noviki","zip":"LV-5707"},"silinieki - 2":{"address":"Silinieki - 2","city":"Noviki","zip":"LV-5707"},"silinieki - 3":{"address":"Silinieki - 3","city":"Noviki","zip":"LV-5707"},"siliņi - 1":{"address":"Siliņi - 1","city":"Siliņi","zip":"LV-5473"},"siliņi - 2":{"address":"Siliņi - 2","city":"Siliņi","zip":"LV-5473"},"siliņi - 3":{"address":"Siliņi - 3","city":"Siliņi","zip":"LV-5473"},"siliņi":{"address":"Siliņi","city":"Kalniena","zip":"LV-4406"},"pīlādžu mājas":{"address":"Pīlādžu mājas","city":"Silinieki","zip":"LV-4638"},"šmeļovi":{"address":"Šmeļovi","city":"Silinieki","zip":"LV-4638"},"unguri":{"address":"Unguri","city":"Silinieki","zip":"LV-4638"},"upmalas":{"address":"Upmalas","city":"Silinieki","zip":"LV-4638"},"viesturi":{"address":"Viesturi","city":"Silinieki","zip":"LV-4638"},"viesuļi":{"address":"Viesuļi","city":"Silinieki","zip":"LV-4638"},"vikingi":{"address":"Vikingi","city":"Silinieki","zip":"LV-4638"},"kazenes 1":{"address":"Kazenes 1","city":"Silinieki","zip":"LV-4638"},"ārkalni":{"address":"Ārkalni","city":"Silinieki","zip":"LV-4638"},"juri":{"address":"Juri","city":"Silinieki","zip":"LV-4638"},"kārkli":{"address":"Kārkli","city":"Silinieki","zip":"LV-4638"},"latgales bitīte":{"address":"Latgales bitīte","city":"Silinieki","zip":"LV-4638"},"kroņi":{"address":"Kroņi","city":"Silinīki","zip":"LV-4611"},"lapsu mājas":{"address":"Lapsu mājas","city":"Silinīki","zip":"LV-4611"},"līdumkalns":{"address":"Līdumkalns","city":"Silinīki","zip":"LV-4611"},"vijolītes":{"address":"Vijolītes","city":"Silinīki","zip":"LV-4611"},"andrejevu mājas":{"address":"Andrejevu mājas","city":"Silinīki","zip":"LV-4611"},"bogovi":{"address":"Bogovi","city":"Silinīki","zip":"LV-4611"},"jakupeņi":{"address":"Jakupeņi","city":"Silinīki","zip":"LV-4611"},"silakalns":{"address":"Silakalns","city":"Silinīki","zip":"LV-4611"},"skladnevi":{"address":"Skladnevi","city":"Silinīki","zip":"LV-4611"},"grantiņi":{"address":"Grantiņi","city":"Silinīki","zip":"LV-4611"},"grāpusalas":{"address":"Grāpusalas","city":"Siliņi","zip":"LV-4572"},"kaķalīči":{"address":"Kaķalīči","city":"Siliņi","zip":"LV-4572"},"kalnišķi":{"address":"Kalnišķi","city":"Siliņi","zip":"LV-4572"},"latvieši":{"address":"Latvieši","city":"Siliņi","zip":"LV-4572"},"pakalnieši 1":{"address":"Pakalnieši 1","city":"Siliņi","zip":"LV-4572"},"pakalniešos":{"address":"Pakalniešos","city":"Siliņi","zip":"LV-4572"}}