{"silinieki - 1":{"address":"Silinieki - 1","city":"Noviki","zip":"LV-5707"},"silinieki - 2":{"address":"Silinieki - 2","city":"Noviki","zip":"LV-5707"},"silinieki - 3":{"address":"Silinieki - 3","city":"Noviki","zip":"LV-5707"},"ālanti":{"address":"Ālanti","city":"Silinieki","zip":"LV-4638"},"silenieki":{"address":"Silenieki","city":"Silinieki","zip":"LV-5305"},"silinieki":{"address":"Silinieki","city":"Gabri","zip":"LV-4652"},"spāres":{"address":"Spāres","city":"Silinieki","zip":"LV-5305"},"ārkalni":{"address":"Ārkalni","city":"Silinieki","zip":"LV-4638"},"juri":{"address":"Juri","city":"Silinieki","zip":"LV-4638"},"kārkli":{"address":"Kārkli","city":"Silinieki","zip":"LV-4638"},"latgales bitīte":{"address":"Latgales bitīte","city":"Silinieki","zip":"LV-4638"},"pīlādžu mājas":{"address":"Pīlādžu mājas","city":"Silinieki","zip":"LV-4638"},"siliņi":{"address":"Siliņi","city":"Silinieki","zip":"LV-4638"},"šmeļovi":{"address":"Šmeļovi","city":"Silinieki","zip":"LV-4638"},"unguri":{"address":"Unguri","city":"Silinieki","zip":"LV-4638"},"upmalas":{"address":"Upmalas","city":"Silinieki","zip":"LV-4638"},"viesturi":{"address":"Viesturi","city":"Silinieki","zip":"LV-4638"},"viesuļi":{"address":"Viesuļi","city":"Silinieki","zip":"LV-4638"},"vikingi":{"address":"Vikingi","city":"Silinieki","zip":"LV-4638"},"kazenes 1":{"address":"Kazenes 1","city":"Silinieki","zip":"LV-4638"}}