{"1":{"address":"1","city":"Zaļais sils","zip":"LV-5465"},"2":{"address":"2","city":"Zaļais sils","zip":"LV-5465"},"3":{"address":"3","city":"Zaļais sils","zip":"LV-5465"},"4":{"address":"4","city":"Zaļais sils","zip":"LV-5465"},"5":{"address":"5","city":"Zaļais sils","zip":"LV-5465"},"6":{"address":"6","city":"Zaļais sils","zip":"LV-5465"},"7":{"address":"7","city":"Zaļais sils","zip":"LV-5465"},"8":{"address":"8","city":"Zaļais sils","zip":"LV-5465"},"9":{"address":"9","city":"Zaļais sils","zip":"LV-5465"},"10":{"address":"10","city":"Zaļais sils","zip":"LV-5465"},"11":{"address":"11","city":"Zaļais sils","zip":"LV-5465"},"12":{"address":"12","city":"Zaļais sils","zip":"LV-5465"},"13":{"address":"13","city":"Zaļais sils","zip":"LV-5465"},"14":{"address":"14","city":"Zaļais sils","zip":"LV-5465"},"15":{"address":"15","city":"Zaļais sils","zip":"LV-5465"},"16":{"address":"16","city":"Zaļais sils","zip":"LV-5465"},"17":{"address":"17","city":"Zaļais sils","zip":"LV-5465"},"18":{"address":"18","city":"Zaļais sils","zip":"LV-5465"},"19":{"address":"19","city":"Zaļais sils","zip":"LV-5465"},"20":{"address":"20","city":"Zaļais sils","zip":"LV-5465"},"21":{"address":"21","city":"Zaļais sils","zip":"LV-5465"},"22":{"address":"22","city":"Zaļais sils","zip":"LV-5465"},"23":{"address":"23","city":"Zaļais sils","zip":"LV-5465"},"24":{"address":"24","city":"Zaļais sils","zip":"LV-5465"},"25":{"address":"25","city":"Zaļais sils","zip":"LV-5465"},"26":{"address":"26","city":"Zaļais sils","zip":"LV-5465"},"27":{"address":"27","city":"Zaļais sils","zip":"LV-5465"},"28":{"address":"28","city":"Zaļais sils","zip":"LV-5465"},"29":{"address":"29","city":"Zaļais sils","zip":"LV-5465"},"30":{"address":"30","city":"Zaļais sils","zip":"LV-5465"},"31":{"address":"31","city":"Priežu sils","zip":"LV-5456"},"32":{"address":"32","city":"Priežu sils","zip":"LV-5456"},"33":{"address":"33","city":"Priežu sils","zip":"LV-5456"},"36":{"address":"36","city":"Priežu sils","zip":"LV-5456"},"38":{"address":"38","city":"Priežu sils","zip":"LV-5456"},"41":{"address":"41","city":"Priežu sils","zip":"LV-5456"},"42":{"address":"42","city":"Priežu sils","zip":"LV-5456"},"44":{"address":"44","city":"Priežu sils","zip":"LV-5456"},"45":{"address":"45","city":"Priežu sils","zip":"LV-5456"},"46":{"address":"46","city":"Zaļais sils","zip":"LV-5465"},"49":{"address":"49","city":"Priežu sils","zip":"LV-5456"},"50":{"address":"50","city":"Priežu sils","zip":"LV-5456"},"52":{"address":"52","city":"Priežu sils","zip":"LV-5456"},"54":{"address":"54","city":"Priežu sils","zip":"LV-5456"},"55":{"address":"55","city":"Priežu sils","zip":"LV-5456"},"56":{"address":"56","city":"Priežu sils","zip":"LV-5456"},"59":{"address":"59","city":"Priežu sils","zip":"LV-5456"},"61":{"address":"61","city":"Priežu sils","zip":"LV-5456"},"62":{"address":"62","city":"Priežu sils","zip":"LV-5456"},"63":{"address":"63","city":"Priežu sils","zip":"LV-5456"},"65":{"address":"65","city":"Priežu sils","zip":"LV-5456"},"66":{"address":"66","city":"Priežu sils","zip":"LV-5456"},"69":{"address":"69","city":"Zaļais sils","zip":"LV-5465"},"70":{"address":"70","city":"Priežu sils","zip":"LV-5456"},"72":{"address":"72","city":"Priežu sils","zip":"LV-5456"},"73":{"address":"73","city":"Priežu sils","zip":"LV-5456"},"74":{"address":"74","city":"Priežu sils","zip":"LV-5456"},"75":{"address":"75","city":"Priežu sils","zip":"LV-5456"},"priežu sils - 1":{"address":"Priežu sils - 1","city":"Nagļi","zip":"LV-4631"},"priežu sils - 2":{"address":"Priežu sils - 2","city":"Nagļi","zip":"LV-4631"},"silšalkas":{"address":"Silšalkas","city":"Klapkalnciems","zip":"LV-3113"},"silstrauti":{"address":"Silstrauti","city":"Sēme","zip":"LV-3110"},"senču sils":{"address":"Senču Sils","city":"Priedkalne","zip":"LV-1024"},"sils":{"address":"Sils","city":"Smani","zip":"LV-5304"},"lauri 3":{"address":"Lauri 3","city":"Zaļais sils","zip":"LV-5465"},"zirgu sils":{"address":"Zirgu sils","city":"Stūnīši","zip":"LV-2127"},"grantiņi":{"address":"Grantiņi","city":"Sils","zip":"LV-4584"},"pumpuri":{"address":"Pumpuri","city":"Sils","zip":"LV-4584"},"61a":{"address":"61A","city":"Priežu sils","zip":"LV-5456"},"sils 1":{"address":"Sils 1","city":"Sils","zip":"LV-4584"},"lāči":{"address":"Lāči","city":"Zaļais sils","zip":"LV-5465"}}