{"talcinieki 1 - 2":{"address":"Talcinieki 1 - 2","city":"Skaistkalne","zip":"LV-3924"},"talcinieki 1 - 3":{"address":"Talcinieki 1 - 3","city":"Skaistkalne","zip":"LV-3924"},"talcinieki 1 - 4":{"address":"Talcinieki 1 - 4","city":"Skaistkalne","zip":"LV-3924"},"talcinieki 1 - 5":{"address":"Talcinieki 1 - 5","city":"Skaistkalne","zip":"LV-3924"},"talcinieki 1 - 6":{"address":"Talcinieki 1 - 6","city":"Skaistkalne","zip":"LV-3924"},"talcinieki 1 - 7":{"address":"Talcinieki 1 - 7","city":"Skaistkalne","zip":"LV-3924"},"talcinieki 1 - 8":{"address":"Talcinieki 1 - 8","city":"Skaistkalne","zip":"LV-3924"},"talcinieki 1 - 9":{"address":"Talcinieki 1 - 9","city":"Skaistkalne","zip":"LV-3924"},"talcinieki 1 - 10":{"address":"Talcinieki 1 - 10","city":"Skaistkalne","zip":"LV-3924"},"talcinieki 1 - 12":{"address":"Talcinieki 1 - 12","city":"Skaistkalne","zip":"LV-3924"},"rīgas iela 25 - 1":{"address":"Rīgas iela 25 - 1","city":"Skaistkalne","zip":"LV-3924"},"rīgas iela 25 - 2":{"address":"Rīgas iela 25 - 2","city":"Skaistkalne","zip":"LV-3924"},"rīgas iela 25 - 3":{"address":"Rīgas iela 25 - 3","city":"Skaistkalne","zip":"LV-3924"},"senči - 1":{"address":"Senči - 1","city":"Skaistkalne","zip":"LV-3924"},"senči - 2":{"address":"Senči - 2","city":"Skaistkalne","zip":"LV-3924"},"senči - 3":{"address":"Senči - 3","city":"Skaistkalne","zip":"LV-3924"},"senči - 4":{"address":"Senči - 4","city":"Skaistkalne","zip":"LV-3924"},"senči - 5":{"address":"Senči - 5","city":"Skaistkalne","zip":"LV-3924"},"senči - 6":{"address":"Senči - 6","city":"Skaistkalne","zip":"LV-3924"},"sili - 1":{"address":"Sili - 1","city":"Skaistkalne","zip":"LV-3924"},"sili - 2":{"address":"Sili - 2","city":"Skaistkalne","zip":"LV-3924"},"sili - 3":{"address":"Sili - 3","city":"Skaistkalne","zip":"LV-3924"},"sili - 4":{"address":"Sili - 4","city":"Skaistkalne","zip":"LV-3924"},"sili - 5":{"address":"Sili - 5","city":"Skaistkalne","zip":"LV-3924"},"rīgas iela 28 - 1":{"address":"Rīgas iela 28 - 1","city":"Skaistkalne","zip":"LV-3924"},"rīgas iela 28 - 2":{"address":"Rīgas iela 28 - 2","city":"Skaistkalne","zip":"LV-3924"},"rīgas iela 20 - 1":{"address":"Rīgas iela 20 - 1","city":"Skaistkalne","zip":"LV-3924"},"rīgas iela 20 - 2":{"address":"Rīgas iela 20 - 2","city":"Skaistkalne","zip":"LV-3924"},"rīgas iela 7 - 1":{"address":"Rīgas iela 7 - 1","city":"Skaistkalne","zip":"LV-3924"},"rīgas iela 7 - 2":{"address":"Rīgas iela 7 - 2","city":"Skaistkalne","zip":"LV-3924"},"rīgas iela 7 - 3":{"address":"Rīgas iela 7 - 3","city":"Skaistkalne","zip":"LV-3924"},"rīgas iela 7 - 4":{"address":"Rīgas iela 7 - 4","city":"Skaistkalne","zip":"LV-3924"},"rīgas iela 7 - 5":{"address":"Rīgas iela 7 - 5","city":"Skaistkalne","zip":"LV-3924"},"rīgas iela 18 - 1":{"address":"Rīgas iela 18 - 1","city":"Skaistkalne","zip":"LV-3924"},"rīgas iela 18 - 2":{"address":"Rīgas iela 18 - 2","city":"Skaistkalne","zip":"LV-3924"},"rīgas iela 18 - 3":{"address":"Rīgas iela 18 - 3","city":"Skaistkalne","zip":"LV-3924"},"rīgas iela 18 - 4":{"address":"Rīgas iela 18 - 4","city":"Skaistkalne","zip":"LV-3924"},"rīgas iela 18 - 5":{"address":"Rīgas iela 18 - 5","city":"Skaistkalne","zip":"LV-3924"},"rīgas iela 9a - 1":{"address":"Rīgas iela 9A - 1","city":"Skaistkalne","zip":"LV-3924"},"rīgas iela 9a - 2":{"address":"Rīgas iela 9A - 2","city":"Skaistkalne","zip":"LV-3924"},"rīgas iela 9a - 3":{"address":"Rīgas iela 9A - 3","city":"Skaistkalne","zip":"LV-3924"},"rīgas iela 9a - 4":{"address":"Rīgas iela 9A - 4","city":"Skaistkalne","zip":"LV-3924"},"rīgas iela 9a - 5":{"address":"Rīgas iela 9A - 5","city":"Skaistkalne","zip":"LV-3924"},"rīgas iela 9a - 6":{"address":"Rīgas iela 9A - 6","city":"Skaistkalne","zip":"LV-3924"},"rīgas iela 9a - 7":{"address":"Rīgas iela 9A - 7","city":"Skaistkalne","zip":"LV-3924"},"rīgas iela 9a - 8":{"address":"Rīgas iela 9A - 8","city":"Skaistkalne","zip":"LV-3924"},"rīgas iela 9a - 9":{"address":"Rīgas iela 9A - 9","city":"Skaistkalne","zip":"LV-3924"},"rīgas iela 9a - 10":{"address":"Rīgas iela 9A - 10","city":"Skaistkalne","zip":"LV-3924"},"rīgas iela 9a - 11":{"address":"Rīgas iela 9A - 11","city":"Skaistkalne","zip":"LV-3924"},"rīgas iela 9a - 12":{"address":"Rīgas iela 9A - 12","city":"Skaistkalne","zip":"LV-3924"},"rīgas iela 10 - 1":{"address":"Rīgas iela 10 - 1","city":"Skaistkalne","zip":"LV-3924"},"rīgas iela 10 - 2":{"address":"Rīgas iela 10 - 2","city":"Skaistkalne","zip":"LV-3924"},"kurmaņa iela 9 - 1":{"address":"Kurmaņa iela 9 - 1","city":"Skaistkalne","zip":"LV-3924"},"kurmaņa iela 9 - 2":{"address":"Kurmaņa iela 9 - 2","city":"Skaistkalne","zip":"LV-3924"},"kurmaņa iela 9 - 3":{"address":"Kurmaņa iela 9 - 3","city":"Skaistkalne","zip":"LV-3924"},"kurmaņa iela 9 - 5":{"address":"Kurmaņa iela 9 - 5","city":"Skaistkalne","zip":"LV-3924"},"kurmaņa iela 9 - 6":{"address":"Kurmaņa iela 9 - 6","city":"Skaistkalne","zip":"LV-3924"},"kurmaņa iela 9 - 7":{"address":"Kurmaņa iela 9 - 7","city":"Skaistkalne","zip":"LV-3924"},"kurmaņa iela 9 - 8":{"address":"Kurmaņa iela 9 - 8","city":"Skaistkalne","zip":"LV-3924"},"putni 3 - 1":{"address":"Putni 3 - 1","city":"Putni","zip":"LV-3924"},"putni 3 - 2":{"address":"Putni 3 - 2","city":"Putni","zip":"LV-3924"},"putni 3 - 3":{"address":"Putni 3 - 3","city":"Putni","zip":"LV-3924"},"kurmaņa iela 11 - 1":{"address":"Kurmaņa iela 11 - 1","city":"Skaistkalne","zip":"LV-3924"},"kurmaņa iela 11 - 2":{"address":"Kurmaņa iela 11 - 2","city":"Skaistkalne","zip":"LV-3924"},"kurmaņa iela 11 - 3":{"address":"Kurmaņa iela 11 - 3","city":"Skaistkalne","zip":"LV-3924"},"kurmaņa iela 11 - 4":{"address":"Kurmaņa iela 11 - 4","city":"Skaistkalne","zip":"LV-3924"},"kurmaņa iela 11a - 1":{"address":"Kurmaņa iela 11A - 1","city":"Skaistkalne","zip":"LV-3924"},"kurmaņa iela 11a - 2":{"address":"Kurmaņa iela 11A - 2","city":"Skaistkalne","zip":"LV-3924"},"rīgas iela 9 - 1":{"address":"Rīgas iela 9 - 1","city":"Skaistkalne","zip":"LV-3924"},"rīgas iela 9 - 2":{"address":"Rīgas iela 9 - 2","city":"Skaistkalne","zip":"LV-3924"},"rīgas iela 9 - 3":{"address":"Rīgas iela 9 - 3","city":"Skaistkalne","zip":"LV-3924"},"rīgas iela 9 - 4":{"address":"Rīgas iela 9 - 4","city":"Skaistkalne","zip":"LV-3924"},"rīgas iela 9 - 5":{"address":"Rīgas iela 9 - 5","city":"Skaistkalne","zip":"LV-3924"},"rīgas iela 9 - 6":{"address":"Rīgas iela 9 - 6","city":"Skaistkalne","zip":"LV-3924"},"rīgas iela 9 - 7":{"address":"Rīgas iela 9 - 7","city":"Skaistkalne","zip":"LV-3924"},"rīgas iela 9 - 8":{"address":"Rīgas iela 9 - 8","city":"Skaistkalne","zip":"LV-3924"},"rīgas iela 9 - 9":{"address":"Rīgas iela 9 - 9","city":"Skaistkalne","zip":"LV-3924"},"rīgas iela 9 - 10":{"address":"Rīgas iela 9 - 10","city":"Skaistkalne","zip":"LV-3924"},"rīgas iela 9 - 11":{"address":"Rīgas iela 9 - 11","city":"Skaistkalne","zip":"LV-3924"},"rīgas iela 9 - 12":{"address":"Rīgas iela 9 - 12","city":"Skaistkalne","zip":"LV-3924"},"kurmaņa iela 16 - 1":{"address":"Kurmaņa iela 16 - 1","city":"Skaistkalne","zip":"LV-3924"},"kurmaņa iela 16 - 2":{"address":"Kurmaņa iela 16 - 2","city":"Skaistkalne","zip":"LV-3924"},"kurmaņa iela 16 - 3":{"address":"Kurmaņa iela 16 - 3","city":"Skaistkalne","zip":"LV-3924"},"kurmaņa iela 16 - 4":{"address":"Kurmaņa iela 16 - 4","city":"Skaistkalne","zip":"LV-3924"},"kurmaņa iela 16 - 5":{"address":"Kurmaņa iela 16 - 5","city":"Skaistkalne","zip":"LV-3924"},"kurmaņa iela 16 - 6":{"address":"Kurmaņa iela 16 - 6","city":"Skaistkalne","zip":"LV-3924"},"miera iela 2 - 1":{"address":"Miera iela 2 - 1","city":"Skaistkalne","zip":"LV-3924"},"miera iela 2 - 2":{"address":"Miera iela 2 - 2","city":"Skaistkalne","zip":"LV-3924"},"rīgas iela 29 - 1":{"address":"Rīgas iela 29 - 1","city":"Skaistkalne","zip":"LV-3924"},"rīgas iela 29 - 2":{"address":"Rīgas iela 29 - 2","city":"Skaistkalne","zip":"LV-3924"},"sporta iela 3 - 1":{"address":"Sporta iela 3 - 1","city":"Skaistkalne","zip":"LV-3924"},"sporta iela 3 - 2":{"address":"Sporta iela 3 - 2","city":"Skaistkalne","zip":"LV-3924"}}