{"skalbes - 1":{"address":"Skalbes - 1","city":"Vaski","zip":"LV-3137"},"skalbes - 2":{"address":"Skalbes - 2","city":"Vaski","zip":"LV-3137"},"skalbes - 3":{"address":"Skalbes - 3","city":"Vaski","zip":"LV-3137"},"skalbes - 4":{"address":"Skalbes - 4","city":"Vaski","zip":"LV-3137"},"skalbes - 5":{"address":"Skalbes - 5","city":"Vaski","zip":"LV-3137"},"skalbes - 6":{"address":"Skalbes - 6","city":"Vaski","zip":"LV-3137"},"skalbes - 7":{"address":"Skalbes - 7","city":"Vaski","zip":"LV-3137"},"skalbes - 8":{"address":"Skalbes - 8","city":"Vaski","zip":"LV-3137"},"skalbes - 9":{"address":"Skalbes - 9","city":"Vaski","zip":"LV-3137"},"skalbes - 10":{"address":"Skalbes - 10","city":"Vaski","zip":"LV-3137"},"skalbes - 11":{"address":"Skalbes - 11","city":"Vaski","zip":"LV-3137"},"skalbes - 12":{"address":"Skalbes - 12","city":"Vaski","zip":"LV-3137"},"skalbes - 13":{"address":"Skalbes - 13","city":"Lauciene","zip":"LV-3285"},"skalbes - 14":{"address":"Skalbes - 14","city":"Lauciene","zip":"LV-3285"},"skalbes - 15":{"address":"Skalbes - 15","city":"Lauciene","zip":"LV-3285"},"skalbes - 16":{"address":"Skalbes - 16","city":"Lauciene","zip":"LV-3285"},"skalbes - 17":{"address":"Skalbes - 17","city":"Lauciene","zip":"LV-3285"},"skalbes - 18":{"address":"Skalbes - 18","city":"Lauciene","zip":"LV-3285"},"skalbes - 19":{"address":"Skalbes - 19","city":"Lauciene","zip":"LV-3285"},"skalbes - 20":{"address":"Skalbes - 20","city":"Lauciene","zip":"LV-3285"},"skalbes - 21":{"address":"Skalbes - 21","city":"Lauciene","zip":"LV-3285"},"skalbes - 22":{"address":"Skalbes - 22","city":"Lauciene","zip":"LV-3285"},"skalbes - 23":{"address":"Skalbes - 23","city":"Lauciene","zip":"LV-3285"},"skalbes - 24":{"address":"Skalbes - 24","city":"Lauciene","zip":"LV-3285"},"skalbes - 25":{"address":"Skalbes - 25","city":"Lauciene","zip":"LV-3285"},"skalbes - 26":{"address":"Skalbes - 26","city":"Lauciene","zip":"LV-3285"},"skalbes - 27":{"address":"Skalbes - 27","city":"Lauciene","zip":"LV-3285"},"skalbes":{"address":"Skalbes","city":"Tiņģere","zip":"LV-3261"},"kārļa skalbes iela 1":{"address":"Kārļa Skalbes iela 1","city":"Priežciems","zip":"LV-2107"},"kārļa skalbes iela 3":{"address":"Kārļa Skalbes iela 3","city":"Priežciems","zip":"LV-2107"},"kārļa skalbes iela 5":{"address":"Kārļa Skalbes iela 5","city":"Priežciems","zip":"LV-2107"}}