{"skolotāju māja - 1":{"address":"Skolotāju māja - 1","city":"Mazalakste","zip":"LV-3270"},"skolotāju māja - 2":{"address":"Skolotāju māja - 2","city":"Mazalakste","zip":"LV-3270"},"skolotāju māja - 3":{"address":"Skolotāju māja - 3","city":"Mazalakste","zip":"LV-3270"},"skolotāju māja - 4":{"address":"Skolotāju māja - 4","city":"Mazalakste","zip":"LV-3270"},"skolotāju māja - 5":{"address":"Skolotāju māja - 5","city":"Mazalakste","zip":"LV-3270"},"skolotāju māja - 6":{"address":"Skolotāju māja - 6","city":"Kolka","zip":"LV-3275"},"skolotāju māja - 7":{"address":"Skolotāju māja - 7","city":"Kolka","zip":"LV-3275"},"skolotāju māja - 8":{"address":"Skolotāju māja - 8","city":"Kolka","zip":"LV-3275"},"skolotāju māja - 9":{"address":"Skolotāju māja - 9","city":"Kolka","zip":"LV-3275"},"skolotāju māja - 10":{"address":"Skolotāju māja - 10","city":"Liepna","zip":"LV-4354"},"skolotāju māja - 11":{"address":"Skolotāju māja - 11","city":"Liepna","zip":"LV-4354"},"skolotāju māja - 12":{"address":"Skolotāju māja - 12","city":"Liepna","zip":"LV-4354"},"skolotāju māja - 13":{"address":"Skolotāju māja - 13","city":"Kolka","zip":"LV-3275"},"skolotāju māja - 14":{"address":"Skolotāju māja - 14","city":"Kolka","zip":"LV-3275"},"skolotāju māja - 15":{"address":"Skolotāju māja - 15","city":"Liepna","zip":"LV-4354"},"skolotāju māja - 16":{"address":"Skolotāju māja - 16","city":"Kolka","zip":"LV-3275"},"skolotāju māja - 17":{"address":"Skolotāju māja - 17","city":"Liepna","zip":"LV-4354"},"skolotāju māja - 18":{"address":"Skolotāju māja - 18","city":"Liepna","zip":"LV-4354"},"liepnas skolotāju māja - 12":{"address":"Liepnas skolotāju māja - 12","city":"Liepna","zip":"LV-4354"},"liepnas skolotāju māja - 13":{"address":"Liepnas skolotāju māja - 13","city":"Liepna","zip":"LV-4354"},"liepnas skolotāju māja - 1":{"address":"Liepnas skolotāju māja - 1","city":"Liepna","zip":"LV-4354"},"liepnas skolotāju māja - 2":{"address":"Liepnas skolotāju māja - 2","city":"Liepna","zip":"LV-4354"},"liepnas skolotāju māja - 3":{"address":"Liepnas skolotāju māja - 3","city":"Liepna","zip":"LV-4354"},"liepnas skolotāju māja - 4":{"address":"Liepnas skolotāju māja - 4","city":"Liepna","zip":"LV-4354"},"liepnas skolotāju māja - 5":{"address":"Liepnas skolotāju māja - 5","city":"Liepna","zip":"LV-4354"},"liepnas skolotāju māja - 6":{"address":"Liepnas skolotāju māja - 6","city":"Liepna","zip":"LV-4354"},"skolotāju māja 2 - 8":{"address":"Skolotāju māja 2 - 8","city":"Mazirbe","zip":"LV-3275"},"skolotāju māja 2 - 5":{"address":"Skolotāju māja 2 - 5","city":"Mazirbe","zip":"LV-3275"},"skolotāju māja 2 - 1":{"address":"Skolotāju māja 2 - 1","city":"Mazirbe","zip":"LV-3275"},"skolotāju māja 2 - 2":{"address":"Skolotāju māja 2 - 2","city":"Mazirbe","zip":"LV-3275"},"skolotāju māja 2 - 3":{"address":"Skolotāju māja 2 - 3","city":"Mazirbe","zip":"LV-3275"},"skolotāju māja 2 - 4":{"address":"Skolotāju māja 2 - 4","city":"Mazirbe","zip":"LV-3275"},"skolotāju māja 2 - 6":{"address":"Skolotāju māja 2 - 6","city":"Mazirbe","zip":"LV-3275"},"skolotāju māja 2 - 7":{"address":"Skolotāju māja 2 - 7","city":"Mazirbe","zip":"LV-3275"},"skolotāju māja 2 - 9":{"address":"Skolotāju māja 2 - 9","city":"Mazirbe","zip":"LV-3275"},"skolotāju māja 2 - 10":{"address":"Skolotāju māja 2 - 10","city":"Mazirbe","zip":"LV-3275"},"skolotāju māja 2 - 11":{"address":"Skolotāju māja 2 - 11","city":"Mazirbe","zip":"LV-3275"},"skolotāju māja 2 - 12":{"address":"Skolotāju māja 2 - 12","city":"Mazirbe","zip":"LV-3275"},"skolotāju māja 2 - 13":{"address":"Skolotāju māja 2 - 13","city":"Mazirbe","zip":"LV-3275"},"skolotāju māja 2 - 14":{"address":"Skolotāju māja 2 - 14","city":"Mazirbe","zip":"LV-3275"},"skolotāju māja 2 - 15":{"address":"Skolotāju māja 2 - 15","city":"Mazirbe","zip":"LV-3275"},"skolotāju māja 2 - 16":{"address":"Skolotāju māja 2 - 16","city":"Mazirbe","zip":"LV-3275"},"skolotāju māja 2 - 17":{"address":"Skolotāju māja 2 - 17","city":"Mazirbe","zip":"LV-3275"},"skolotāju māja 2 - 18":{"address":"Skolotāju māja 2 - 18","city":"Mazirbe","zip":"LV-3275"}}