{"smaidas - 1":{"address":"Smaidas - 1","city":"Palsmane","zip":"LV-4724"},"smaidas - 2":{"address":"Smaidas - 2","city":"Palsmane","zip":"LV-4724"},"smaidas - 3":{"address":"Smaidas - 3","city":"Palsmane","zip":"LV-4724"},"smaidas - 4":{"address":"Smaidas - 4","city":"Palsmane","zip":"LV-4724"},"smaidas - 5":{"address":"Smaidas - 5","city":"Palsmane","zip":"LV-4724"},"smaidas - 6":{"address":"Smaidas - 6","city":"Palsmane","zip":"LV-4724"},"smaidas - 7":{"address":"Smaidas - 7","city":"Palsmane","zip":"LV-4724"},"smaidas - 8":{"address":"Smaidas - 8","city":"Palsmane","zip":"LV-4724"},"smaidas - 9":{"address":"Smaidas - 9","city":"Palsmane","zip":"LV-4724"},"smaidas - 10":{"address":"Smaidas - 10","city":"Palsmane","zip":"LV-4724"},"smaidas - 11":{"address":"Smaidas - 11","city":"Palsmane","zip":"LV-4724"},"smaidas - 12":{"address":"Smaidas - 12","city":"Palsmane","zip":"LV-4724"},"smaidas - 13":{"address":"Smaidas - 13","city":"Palsmane","zip":"LV-4724"},"smaidas - 14":{"address":"Smaidas - 14","city":"Palsmane","zip":"LV-4724"},"smaidas - 15":{"address":"Smaidas - 15","city":"Palsmane","zip":"LV-4724"},"smaidas - 16":{"address":"Smaidas - 16","city":"Palsmane","zip":"LV-4724"},"smaidas - 17":{"address":"Smaidas - 17","city":"Palsmane","zip":"LV-4724"},"smaidas - 18":{"address":"Smaidas - 18","city":"Palsmane","zip":"LV-4724"},"smaidas - 19":{"address":"Smaidas - 19","city":"Palsmane","zip":"LV-4724"},"smaidas - 20":{"address":"Smaidas - 20","city":"Palsmane","zip":"LV-4724"},"smaidas - 21":{"address":"Smaidas - 21","city":"Palsmane","zip":"LV-4724"},"smaidas - 22":{"address":"Smaidas - 22","city":"Palsmane","zip":"LV-4724"},"smaidas - 23":{"address":"Smaidas - 23","city":"Palsmane","zip":"LV-4724"},"smaidas - 24":{"address":"Smaidas - 24","city":"Palsmane","zip":"LV-4724"},"smaidas":{"address":"Smaidas","city":"KÅ«dums","zip":"LV-4146"}}