{"smilgas - 1":{"address":"Smilgas - 1","city":"Laidze","zip":"LV-3280"},"smilgas - 2":{"address":"Smilgas - 2","city":"Laidze","zip":"LV-3280"},"smilgas - 3":{"address":"Smilgas - 3","city":"Laidze","zip":"LV-3280"},"smilgas - 4":{"address":"Smilgas - 4","city":"Laidze","zip":"LV-3280"},"smilgas - 5":{"address":"Smilgas - 5","city":"Laidze","zip":"LV-3280"},"smilgas - 6":{"address":"Smilgas - 6","city":"Laidze","zip":"LV-3280"},"smilgas - 7":{"address":"Smilgas - 7","city":"Laidze","zip":"LV-3280"},"smilgas - 8":{"address":"Smilgas - 8","city":"Laidze","zip":"LV-3280"},"smilgas - 9":{"address":"Smilgas - 9","city":"Laidze","zip":"LV-3280"},"smilgas - 10":{"address":"Smilgas - 10","city":"Laidze","zip":"LV-3280"},"smilgas - 11":{"address":"Smilgas - 11","city":"Laidze","zip":"LV-3280"},"smilgas - 12":{"address":"Smilgas - 12","city":"Laidze","zip":"LV-3280"},"smilgas - 13":{"address":"Smilgas - 13","city":"Laidze","zip":"LV-3280"},"smilgas - 14":{"address":"Smilgas - 14","city":"Laidze","zip":"LV-3280"},"smilgas - 15":{"address":"Smilgas - 15","city":"Laidze","zip":"LV-3280"},"smilgas - 16":{"address":"Smilgas - 16","city":"Laidze","zip":"LV-3280"},"smilgas - 17":{"address":"Smilgas - 17","city":"Laidze","zip":"LV-3280"},"smilgas - 18":{"address":"Smilgas - 18","city":"Laidze","zip":"LV-3280"},"smilgas - 19":{"address":"Smilgas - 19","city":"Laidze","zip":"LV-3280"}}