{"smilšu iela 8 - 1":{"address":"Smilšu iela 8 - 1","city":"Strūžāni","zip":"LV-4643"},"smilšu iela 8 - 2":{"address":"Smilšu iela 8 - 2","city":"Strūžāni","zip":"LV-4643"},"smilšu iela 8 - 3":{"address":"Smilšu iela 8 - 3","city":"Strūžāni","zip":"LV-4643"},"smilšu iela 8 - 4":{"address":"Smilšu iela 8 - 4","city":"Strūžāni","zip":"LV-4643"},"smilšu iela 8 - 5":{"address":"Smilšu iela 8 - 5","city":"Strūžāni","zip":"LV-4643"},"smilšu iela 8 - 6":{"address":"Smilšu iela 8 - 6","city":"Strūžāni","zip":"LV-4643"},"smilšu iela 8 - 7":{"address":"Smilšu iela 8 - 7","city":"Strūžāni","zip":"LV-4643"},"smilšu iela 8 - 8":{"address":"Smilšu iela 8 - 8","city":"Strūžāni","zip":"LV-4643"},"smilšu iela 6 - 1":{"address":"Smilšu iela 6 - 1","city":"Uļjanova","zip":"LV-4645"},"smilšu iela 6 - 2":{"address":"Smilšu iela 6 - 2","city":"Uļjanova","zip":"LV-4645"},"smilšu iela 6 - 3":{"address":"Smilšu iela 6 - 3","city":"Strūžāni","zip":"LV-4643"},"smilšu iela 6 - 4":{"address":"Smilšu iela 6 - 4","city":"Strūžāni","zip":"LV-4643"},"smilšu iela 6 - 5":{"address":"Smilšu iela 6 - 5","city":"Strūžāni","zip":"LV-4643"},"smilšu iela 6 - 6":{"address":"Smilšu iela 6 - 6","city":"Strūžāni","zip":"LV-4643"},"smilšu iela 6 - 7":{"address":"Smilšu iela 6 - 7","city":"Strūžāni","zip":"LV-4643"},"smilšu iela 6 - 8":{"address":"Smilšu iela 6 - 8","city":"Strūžāni","zip":"LV-4643"},"smilšu iela 6 - 9":{"address":"Smilšu iela 6 - 9","city":"Strūžāni","zip":"LV-4643"},"smilšu iela 6 - 10":{"address":"Smilšu iela 6 - 10","city":"Strūžāni","zip":"LV-4643"},"smilšu iela 6 - 11":{"address":"Smilšu iela 6 - 11","city":"Strūžāni","zip":"LV-4643"},"smilšu iela 6 - 12":{"address":"Smilšu iela 6 - 12","city":"Strūžāni","zip":"LV-4643"},"smilšu iela 6 - 13":{"address":"Smilšu iela 6 - 13","city":"Strūžāni","zip":"LV-4643"},"smilšu iela 6 - 14":{"address":"Smilšu iela 6 - 14","city":"Strūžāni","zip":"LV-4643"},"smilšu iela 6 - 15":{"address":"Smilšu iela 6 - 15","city":"Strūžāni","zip":"LV-4643"},"smilšu iela 6 - 16":{"address":"Smilšu iela 6 - 16","city":"Strūžāni","zip":"LV-4643"},"smilšu iela 6 - 17":{"address":"Smilšu iela 6 - 17","city":"Strūžāni","zip":"LV-4643"},"smilšu iela 6 - 18":{"address":"Smilšu iela 6 - 18","city":"Strūžāni","zip":"LV-4643"},"smilšu iela 6 - 19":{"address":"Smilšu iela 6 - 19","city":"Strūžāni","zip":"LV-4643"},"smilšu iela 6 - 20":{"address":"Smilšu iela 6 - 20","city":"Strūžāni","zip":"LV-4643"},"smilšu iela 6 - 21":{"address":"Smilšu iela 6 - 21","city":"Strūžāni","zip":"LV-4643"},"smilšu iela 6 - 22":{"address":"Smilšu iela 6 - 22","city":"Strūžāni","zip":"LV-4643"},"smilšu iela 6 - 23":{"address":"Smilšu iela 6 - 23","city":"Strūžāni","zip":"LV-4643"},"smilšu iela 6 - 24":{"address":"Smilšu iela 6 - 24","city":"Strūžāni","zip":"LV-4643"},"smilšu iela 4 - 1":{"address":"Smilšu iela 4 - 1","city":"Strūžāni","zip":"LV-4643"},"smilšu iela 4 - 2":{"address":"Smilšu iela 4 - 2","city":"Strūžāni","zip":"LV-4643"},"smilšu iela 4 - 3":{"address":"Smilšu iela 4 - 3","city":"Strūžāni","zip":"LV-4643"},"smilšu iela 4 - 4":{"address":"Smilšu iela 4 - 4","city":"Strūžāni","zip":"LV-4643"},"smilšu iela 4 - 5":{"address":"Smilšu iela 4 - 5","city":"Strūžāni","zip":"LV-4643"},"smilšu iela 4 - 6":{"address":"Smilšu iela 4 - 6","city":"Strūžāni","zip":"LV-4643"},"smilšu iela 4 - 7":{"address":"Smilšu iela 4 - 7","city":"Strūžāni","zip":"LV-4643"},"smilšu iela 4 - 8":{"address":"Smilšu iela 4 - 8","city":"Strūžāni","zip":"LV-4643"},"smilšu iela 4 - 9":{"address":"Smilšu iela 4 - 9","city":"Strūžāni","zip":"LV-4643"},"smilšu iela 4 - 10":{"address":"Smilšu iela 4 - 10","city":"Strūžāni","zip":"LV-4643"},"smilšu iela 4 - 11":{"address":"Smilšu iela 4 - 11","city":"Strūžāni","zip":"LV-4643"},"smilšu iela 4 - 12":{"address":"Smilšu iela 4 - 12","city":"Strūžāni","zip":"LV-4643"},"smilšu iela 4 - 13":{"address":"Smilšu iela 4 - 13","city":"Strūžāni","zip":"LV-4643"},"smilšu iela 4 - 14":{"address":"Smilšu iela 4 - 14","city":"Strūžāni","zip":"LV-4643"},"smilšu iela 4 - 15":{"address":"Smilšu iela 4 - 15","city":"Strūžāni","zip":"LV-4643"},"smilšu iela 4 - 16":{"address":"Smilšu iela 4 - 16","city":"Strūžāni","zip":"LV-4643"},"smilšu iela 4 - 17":{"address":"Smilšu iela 4 - 17","city":"Strūžāni","zip":"LV-4643"},"smilšu iela 4 - 18":{"address":"Smilšu iela 4 - 18","city":"Strūžāni","zip":"LV-4643"},"smilšu iela 4 - 19":{"address":"Smilšu iela 4 - 19","city":"Strūžāni","zip":"LV-4643"},"smilšu iela 4 - 20":{"address":"Smilšu iela 4 - 20","city":"Strūžāni","zip":"LV-4643"},"smilšu iela 4 - 21":{"address":"Smilšu iela 4 - 21","city":"Strūžāni","zip":"LV-4643"},"smilšu iela 4 - 22":{"address":"Smilšu iela 4 - 22","city":"Strūžāni","zip":"LV-4643"},"smilšu iela 4 - 23":{"address":"Smilšu iela 4 - 23","city":"Strūžāni","zip":"LV-4643"},"smilšu iela 4 - 24":{"address":"Smilšu iela 4 - 24","city":"Strūžāni","zip":"LV-4643"},"smilšu iela 20 - 1":{"address":"Smilšu iela 20 - 1","city":"Uļjanova","zip":"LV-4645"},"smilšu iela 20 - 2":{"address":"Smilšu iela 20 - 2","city":"Uļjanova","zip":"LV-4645"},"smilšu iela 12 - 1":{"address":"Smilšu iela 12 - 1","city":"Malta","zip":"LV-4630"},"smilšu iela 12 - 2":{"address":"Smilšu iela 12 - 2","city":"Malta","zip":"LV-4630"},"smilšu iela 12 - 3":{"address":"Smilšu iela 12 - 3","city":"Malta","zip":"LV-4630"},"smilšu iela 12 - 4":{"address":"Smilšu iela 12 - 4","city":"Malta","zip":"LV-4630"},"smilšu iela 12 - 5":{"address":"Smilšu iela 12 - 5","city":"Malta","zip":"LV-4630"},"smilšu iela 12 - 6":{"address":"Smilšu iela 12 - 6","city":"Malta","zip":"LV-4630"},"smilšu iela 12 - 7":{"address":"Smilšu iela 12 - 7","city":"Malta","zip":"LV-4630"},"smilšu iela 12 - 8":{"address":"Smilšu iela 12 - 8","city":"Malta","zip":"LV-4630"},"smilšu iela 7 - 1":{"address":"Smilšu iela 7 - 1","city":"Lejasciems","zip":"LV-4412"},"smilšu iela 7 - 2":{"address":"Smilšu iela 7 - 2","city":"Lejasciems","zip":"LV-4412"},"smilšu iela 7 - 3":{"address":"Smilšu iela 7 - 3","city":"Lejasciems","zip":"LV-4412"},"smilšu iela 7 - 4":{"address":"Smilšu iela 7 - 4","city":"Lejasciems","zip":"LV-4412"}}