{"sprīdīši - 1":{"address":"Sprīdīši - 1","city":"Sece","zip":"LV-5124"},"sprīdīši - 2":{"address":"Sprīdīši - 2","city":"Sece","zip":"LV-5124"},"sprīdīši - 3":{"address":"Sprīdīši - 3","city":"Sece","zip":"LV-5124"},"sprīdīši - 4":{"address":"Sprīdīši - 4","city":"Sece","zip":"LV-5124"},"sprīdīši - 5":{"address":"Sprīdīši - 5","city":"Matkule","zip":"LV-3132"},"sprīdīši - 6":{"address":"Sprīdīši - 6","city":"Matkule","zip":"LV-3132"},"sprīdīši - 7":{"address":"Sprīdīši - 7","city":"Matkule","zip":"LV-3132"},"sprīdīši - 8":{"address":"Sprīdīši - 8","city":"Matkule","zip":"LV-3132"},"sprīdīši - 9":{"address":"Sprīdīši - 9","city":"Matkule","zip":"LV-3132"},"sprīdīši - 10":{"address":"Sprīdīši - 10","city":"Matkule","zip":"LV-3132"},"sprīdīši - 11":{"address":"Sprīdīši - 11","city":"Matkule","zip":"LV-3132"},"sprīdīši - 12":{"address":"Sprīdīši - 12","city":"Zebrene","zip":"LV-3731"},"sprīdīši - 13":{"address":"Sprīdīši - 13","city":"Zebrene","zip":"LV-3731"},"sprīdīši - 14":{"address":"Sprīdīši - 14","city":"Zebrene","zip":"LV-3731"},"sprīdīši - 15":{"address":"Sprīdīši - 15","city":"Zebrene","zip":"LV-3731"},"sprīdīši - 16":{"address":"Sprīdīši - 16","city":"Zebrene","zip":"LV-3731"},"sprīdīši - 17":{"address":"Sprīdīši - 17","city":"Zebrene","zip":"LV-3731"},"sprīdīši - 18":{"address":"Sprīdīši - 18","city":"Zebrene","zip":"LV-3731"},"sprīdīši - 19":{"address":"Sprīdīši - 19","city":"Zebrene","zip":"LV-3731"},"sprīdīši - 20":{"address":"Sprīdīši - 20","city":"Zebrene","zip":"LV-3731"},"sprīdīši - 21":{"address":"Sprīdīši - 21","city":"Zebrene","zip":"LV-3731"},"sprīdīši - 22":{"address":"Sprīdīši - 22","city":"Zebrene","zip":"LV-3731"},"sprīdīši - 23":{"address":"Sprīdīši - 23","city":"Zebrene","zip":"LV-3731"},"sprīdīši - 24":{"address":"Sprīdīši - 24","city":"Zebrene","zip":"LV-3731"},"sprīdīši - 25":{"address":"Sprīdīši - 25","city":"Zebrene","zip":"LV-3731"},"sprīdīši - 26":{"address":"Sprīdīši - 26","city":"Zebrene","zip":"LV-3731"},"sprīdīši - 27":{"address":"Sprīdīši - 27","city":"Zebrene","zip":"LV-3731"}}