{"spāres - 1":{"address":"Spāres - 1","city":"Abavnieki","zip":"LV-3128"},"spāres - 2":{"address":"Spāres - 2","city":"Abavnieki","zip":"LV-3128"},"spāres - 3":{"address":"Spāres - 3","city":"Abavnieki","zip":"LV-3128"},"spāres - 4":{"address":"Spāres - 4","city":"Abavnieki","zip":"LV-3128"},"spāres - 5":{"address":"Spāres - 5","city":"Abavnieki","zip":"LV-3128"},"spāres - 6":{"address":"Spāres - 6","city":"Abavnieki","zip":"LV-3128"},"spāres - 7":{"address":"Spāres - 7","city":"Abavnieki","zip":"LV-3128"},"spāres - 8":{"address":"Spāres - 8","city":"Abavnieki","zip":"LV-3128"},"spāres - 9":{"address":"Spāres - 9","city":"Abavnieki","zip":"LV-3128"},"spāres - 10":{"address":"Spāres - 10","city":"Abavnieki","zip":"LV-3128"},"spāres - 11":{"address":"Spāres - 11","city":"Abavnieki","zip":"LV-3128"},"spāres - 12":{"address":"Spāres - 12","city":"Abavnieki","zip":"LV-3128"},"spāres muiža 10 - 2":{"address":"Spāres muiža 10 - 2","city":"Spāre","zip":"LV-4139"},"spāres muiža 10 - 3":{"address":"Spāres muiža 10 - 3","city":"Spāre","zip":"LV-4139"},"spāres muiža 23 - 1":{"address":"Spāres muiža 23 - 1","city":"Spāre","zip":"LV-4139"},"spāres muiža 23 - 2":{"address":"Spāres muiža 23 - 2","city":"Spāre","zip":"LV-4139"},"spāres muiža 23 - 4":{"address":"Spāres muiža 23 - 4","city":"Spāre","zip":"LV-4139"},"spāres muiža 11 - 2":{"address":"Spāres muiža 11 - 2","city":"Spāre","zip":"LV-4139"},"spāres muiža 11 - 3":{"address":"Spāres muiža 11 - 3","city":"Spāre","zip":"LV-4139"},"spāres muiža 14 - 5":{"address":"Spāres muiža 14 - 5","city":"Spāre","zip":"LV-4139"},"spāres muiža 14 - 1":{"address":"Spāres muiža 14 - 1","city":"Spāre","zip":"LV-4139"},"spāres muiža 14 - 2":{"address":"Spāres muiža 14 - 2","city":"Spāre","zip":"LV-4139"},"spāres muiža 14 - 3":{"address":"Spāres muiža 14 - 3","city":"Spāre","zip":"LV-4139"},"spāres muiža 14 - 4":{"address":"Spāres muiža 14 - 4","city":"Spāre","zip":"LV-4139"},"spāres muiža 14 - 6":{"address":"Spāres muiža 14 - 6","city":"Spāre","zip":"LV-4139"},"spāres muiža 14 - 7":{"address":"Spāres muiža 14 - 7","city":"Spāre","zip":"LV-4139"},"spāres":{"address":"Spāres","city":"Jūrmalciems","zip":"LV-3473"},"spāres muiža":{"address":"Spāres muiža","city":"Spāre","zip":"LV-4139"},"spāres sporta zāle":{"address":"Spāres sporta zāle","city":"Spāre","zip":"LV-4139"},"spāres veikals":{"address":"Spāres veikals","city":"Spāre","zip":"LV-3298"},"spāres baznīca":{"address":"Spāres baznīca","city":"Spāre","zip":"LV-3298"}}