{"staburags - 1":{"address":"Staburags - 1","city":"Madliena","zip":"LV-5045"},"staburags - 2":{"address":"Staburags - 2","city":"Madliena","zip":"LV-5045"},"staburags - 3":{"address":"Staburags - 3","city":"Madliena","zip":"LV-5045"},"staburags - 4":{"address":"Staburags - 4","city":"Madliena","zip":"LV-5045"},"staburags - 5":{"address":"Staburags - 5","city":"Sinole","zip":"LV-4412"},"staburags - 6":{"address":"Staburags - 6","city":"Sinole","zip":"LV-4412"},"staburags - 7":{"address":"Staburags - 7","city":"Sinole","zip":"LV-4412"},"staburags - 8":{"address":"Staburags - 8","city":"Sinole","zip":"LV-4412"},"staburags - 9":{"address":"Staburags - 9","city":"Sinole","zip":"LV-4412"},"staburags - 10":{"address":"Staburags - 10","city":"Sinole","zip":"LV-4412"},"staburags - 11":{"address":"Staburags - 11","city":"Sinole","zip":"LV-4412"},"staburags - 12":{"address":"Staburags - 12","city":"Sinole","zip":"LV-4412"},"parka iela 3 - 1":{"address":"Parka iela 3 - 1","city":"Staburags","zip":"LV-5128"},"parka iela 2 - 1":{"address":"Parka iela 2 - 1","city":"Staburags","zip":"LV-5128"},"parka iela 2 - 2":{"address":"Parka iela 2 - 2","city":"Staburags","zip":"LV-5128"},"smaidas - 1":{"address":"Smaidas - 1","city":"Staburags","zip":"LV-5128"},"smaidas - 2":{"address":"Smaidas - 2","city":"Staburags","zip":"LV-5128"},"smaidas - 3":{"address":"Smaidas - 3","city":"Staburags","zip":"LV-5128"},"smaidas - 4":{"address":"Smaidas - 4","city":"Staburags","zip":"LV-5128"},"smaidas - 5":{"address":"Smaidas - 5","city":"Staburags","zip":"LV-5128"},"smaidas - 6":{"address":"Smaidas - 6","city":"Staburags","zip":"LV-5128"},"smaidas - 7":{"address":"Smaidas - 7","city":"Staburags","zip":"LV-5128"},"smaidas - 8":{"address":"Smaidas - 8","city":"Staburags","zip":"LV-5128"},"smaidas - 9":{"address":"Smaidas - 9","city":"Staburags","zip":"LV-5128"},"smaidas - 10":{"address":"Smaidas - 10","city":"Staburags","zip":"LV-5128"},"smaidas - 11":{"address":"Smaidas - 11","city":"Staburags","zip":"LV-5128"},"smaidas - 12":{"address":"Smaidas - 12","city":"Staburags","zip":"LV-5128"},"smaidas - 13":{"address":"Smaidas - 13","city":"Staburags","zip":"LV-5128"},"smaidas - 14":{"address":"Smaidas - 14","city":"Staburags","zip":"LV-5128"},"smaidas - 15":{"address":"Smaidas - 15","city":"Staburags","zip":"LV-5128"},"smaidas - 16":{"address":"Smaidas - 16","city":"Staburags","zip":"LV-5128"},"smaidas - 17":{"address":"Smaidas - 17","city":"Staburags","zip":"LV-5128"},"smaidas - 18":{"address":"Smaidas - 18","city":"Staburags","zip":"LV-5128"},"parka iela 1 - 1":{"address":"Parka iela 1 - 1","city":"Staburags","zip":"LV-5128"},"parka iela 1 - 2":{"address":"Parka iela 1 - 2","city":"Staburags","zip":"LV-5128"},"parka iela 4 - 1":{"address":"Parka iela 4 - 1","city":"Staburags","zip":"LV-5128"},"parka iela 4 - 2":{"address":"Parka iela 4 - 2","city":"Staburags","zip":"LV-5128"},"dainas - 1":{"address":"Dainas - 1","city":"Staburags","zip":"LV-5128"},"dainas - 2":{"address":"Dainas - 2","city":"Staburags","zip":"LV-5128"},"dainas - 3":{"address":"Dainas - 3","city":"Staburags","zip":"LV-5128"},"dainas - 4":{"address":"Dainas - 4","city":"Staburags","zip":"LV-5128"},"dainas - 5":{"address":"Dainas - 5","city":"Staburags","zip":"LV-5128"},"dainas - 6":{"address":"Dainas - 6","city":"Staburags","zip":"LV-5128"},"dainas - 7":{"address":"Dainas - 7","city":"Staburags","zip":"LV-5128"},"dainas - 8":{"address":"Dainas - 8","city":"Staburags","zip":"LV-5128"},"dainas - 9":{"address":"Dainas - 9","city":"Staburags","zip":"LV-5128"},"dainas - 10":{"address":"Dainas - 10","city":"Staburags","zip":"LV-5128"},"dainas - 11":{"address":"Dainas - 11","city":"Staburags","zip":"LV-5128"},"dainas - 12":{"address":"Dainas - 12","city":"Staburags","zip":"LV-5128"},"dainas - 13":{"address":"Dainas - 13","city":"Staburags","zip":"LV-5128"},"dainas - 14":{"address":"Dainas - 14","city":"Staburags","zip":"LV-5128"},"dainas - 15":{"address":"Dainas - 15","city":"Staburags","zip":"LV-5128"},"dainas - 16":{"address":"Dainas - 16","city":"Staburags","zip":"LV-5128"},"dainas - 17":{"address":"Dainas - 17","city":"Staburags","zip":"LV-5128"},"dainas - 18":{"address":"Dainas - 18","city":"Staburags","zip":"LV-5128"},"staburags":{"address":"Staburags","city":"Luciški","zip":"LV-4626"},"vīgante":{"address":"Vīgante","city":"Staburags","zip":"LV-5128"},"veikals-ēdnīca":{"address":"Veikals-ēdnīca","city":"Staburags","zip":"LV-5128"},"avoti":{"address":"Avoti","city":"Staburags","zip":"LV-5128"},"staburags 1":{"address":"Staburags 1","city":"Naudaskalns","zip":"LV-4561"},"noriņas":{"address":"Noriņas","city":"Staburags","zip":"LV-5128"},"klintis":{"address":"Klintis","city":"Staburags","zip":"LV-5128"},"saimniecības ēka":{"address":"Saimniecības ēka","city":"Staburags","zip":"LV-5128"},"elkšņi":{"address":"Elkšņi","city":"Staburags","zip":"LV-5128"},"dimanti":{"address":"Dimanti","city":"Staburags","zip":"LV-5128"},"lauras":{"address":"Lauras","city":"Staburags","zip":"LV-5128"},"liepavoti":{"address":"Liepavoti","city":"Staburags","zip":"LV-5128"},"parka iela 2":{"address":"Parka iela 2","city":"Staburags","zip":"LV-5128"},"parka iela 3":{"address":"Parka iela 3","city":"Staburags","zip":"LV-5128"},"smaidas":{"address":"Smaidas","city":"Staburags","zip":"LV-5128"},"parka iela 1":{"address":"Parka iela 1","city":"Staburags","zip":"LV-5128"},"parka iela 4":{"address":"Parka iela 4","city":"Staburags","zip":"LV-5128"},"zemgales iela 1":{"address":"Zemgales iela 1","city":"Staburags","zip":"LV-5128"},"zemgales iela 2":{"address":"Zemgales iela 2","city":"Staburags","zip":"LV-5128"},"zemgales iela 3":{"address":"Zemgales iela 3","city":"Staburags","zip":"LV-5128"},"zemgales iela 4":{"address":"Zemgales iela 4","city":"Staburags","zip":"LV-5128"},"zemgales iela 5":{"address":"Zemgales iela 5","city":"Staburags","zip":"LV-5128"},"zemgales iela 6":{"address":"Zemgales iela 6","city":"Staburags","zip":"LV-5128"},"zemgales iela 7":{"address":"Zemgales iela 7","city":"Staburags","zip":"LV-5128"},"zemgales iela 8":{"address":"Zemgales iela 8","city":"Staburags","zip":"LV-5128"},"zemgales iela 9":{"address":"Zemgales iela 9","city":"Staburags","zip":"LV-5128"},"zemgales iela 10":{"address":"Zemgales iela 10","city":"Staburags","zip":"LV-5128"},"dainas":{"address":"Dainas","city":"Staburags","zip":"LV-5128"}}