{"stacijas iela 7 - 1":{"address":"Stacijas iela 7 - 1","city":"Bērzpils","zip":"LV-4576"},"stacijas iela 7 - 2":{"address":"Stacijas iela 7 - 2","city":"Bērzpils","zip":"LV-4576"},"stacijas iela 20 - 1":{"address":"Stacijas iela 20 - 1","city":"Bērzpils","zip":"LV-4576"},"stacijas iela 20 - 2":{"address":"Stacijas iela 20 - 2","city":"Bērzpils","zip":"LV-4576"},"stacijas iela 20 - 3":{"address":"Stacijas iela 20 - 3","city":"Bērzpils","zip":"LV-4576"},"stacijas iela 20 - 4":{"address":"Stacijas iela 20 - 4","city":"Bērzpils","zip":"LV-4576"},"stacijas iela 24 - 1":{"address":"Stacijas iela 24 - 1","city":"Bērzpils","zip":"LV-4576"},"stacijas iela 24 - 2":{"address":"Stacijas iela 24 - 2","city":"Bērzpils","zip":"LV-4576"},"stacijas iela 24 - 3":{"address":"Stacijas iela 24 - 3","city":"Bērzpils","zip":"LV-4576"},"stacijas iela 24 - 4":{"address":"Stacijas iela 24 - 4","city":"Bērzpils","zip":"LV-4576"},"stacijas iela 22 - 1":{"address":"Stacijas iela 22 - 1","city":"Bērzpils","zip":"LV-4576"},"stacijas iela 22 - 2":{"address":"Stacijas iela 22 - 2","city":"Bērzpils","zip":"LV-4576"},"stacija - 1":{"address":"Stacija - 1","city":"Jaungulbene","zip":"LV-4420"},"stacija - 2":{"address":"Stacija - 2","city":"Jaungulbene","zip":"LV-4420"},"stacija - 3":{"address":"Stacija - 3","city":"Jaungulbene","zip":"LV-4420"},"stacija - 4":{"address":"Stacija - 4","city":"Jaungulbene","zip":"LV-4420"},"stacija - 5":{"address":"Stacija - 5","city":"Jaungulbene","zip":"LV-4420"},"stacija - 6":{"address":"Stacija - 6","city":"Jaungulbene","zip":"LV-4420"},"stacija - 7":{"address":"Stacija - 7","city":"Jaungulbene","zip":"LV-4420"},"stacija - 8":{"address":"Stacija - 8","city":"Jaungulbene","zip":"LV-4420"}}