{"strauta iela 17 - 1":{"address":"Strauta iela 17 - 1","city":"Roja","zip":"LV-3264"},"strauta iela 17 - 2":{"address":"Strauta iela 17 - 2","city":"Roja","zip":"LV-3264"},"strauta iela 17 - 3":{"address":"Strauta iela 17 - 3","city":"Roja","zip":"LV-3264"},"strauta iela 17 - 4":{"address":"Strauta iela 17 - 4","city":"Roja","zip":"LV-3264"},"strauta iela 17a - 8":{"address":"Strauta iela 17A - 8","city":"Roja","zip":"LV-3264"},"strauta iela 17a - 9":{"address":"Strauta iela 17A - 9","city":"Roja","zip":"LV-3264"},"strauta iela 17a - 11":{"address":"Strauta iela 17A - 11","city":"Roja","zip":"LV-3264"},"strauta iela 17a - 12":{"address":"Strauta iela 17A - 12","city":"Roja","zip":"LV-3264"},"strauta iela 17a - 14":{"address":"Strauta iela 17A - 14","city":"Roja","zip":"LV-3264"},"strauta iela 17a - 15":{"address":"Strauta iela 17A - 15","city":"Roja","zip":"LV-3264"},"strauta iela 6 - 1":{"address":"Strauta iela 6 - 1","city":"Roja","zip":"LV-3264"},"strauta iela 6 - 2":{"address":"Strauta iela 6 - 2","city":"Roja","zip":"LV-3264"},"strauta iela 6 - 3":{"address":"Strauta iela 6 - 3","city":"Roja","zip":"LV-3264"},"strauta iela 6 - 4":{"address":"Strauta iela 6 - 4","city":"Roja","zip":"LV-3264"},"strauta iela 6 - 5":{"address":"Strauta iela 6 - 5","city":"Roja","zip":"LV-3264"},"strauta iela 6 - 6":{"address":"Strauta iela 6 - 6","city":"Roja","zip":"LV-3264"},"strauta iela 6 - 7":{"address":"Strauta iela 6 - 7","city":"Roja","zip":"LV-3264"},"strauta iela 6 - 8":{"address":"Strauta iela 6 - 8","city":"Roja","zip":"LV-3264"},"strauta iela 6 - 9":{"address":"Strauta iela 6 - 9","city":"Roja","zip":"LV-3264"},"strauta iela 6 - 10":{"address":"Strauta iela 6 - 10","city":"Roja","zip":"LV-3264"},"strauta iela 6 - 11":{"address":"Strauta iela 6 - 11","city":"Roja","zip":"LV-3264"},"strauta iela 6 - 12":{"address":"Strauta iela 6 - 12","city":"Roja","zip":"LV-3264"},"strauta iela 6 - 13":{"address":"Strauta iela 6 - 13","city":"Roja","zip":"LV-3264"},"strauta iela 6 - 14":{"address":"Strauta iela 6 - 14","city":"Roja","zip":"LV-3264"},"strauta iela 6 - 15":{"address":"Strauta iela 6 - 15","city":"Roja","zip":"LV-3264"},"strauta iela 6 - 16":{"address":"Strauta iela 6 - 16","city":"Roja","zip":"LV-3264"},"strauta iela 6 - 17":{"address":"Strauta iela 6 - 17","city":"Roja","zip":"LV-3264"},"strauta iela 6 - 18":{"address":"Strauta iela 6 - 18","city":"Roja","zip":"LV-3264"},"strauta iela 6 - 19":{"address":"Strauta iela 6 - 19","city":"Roja","zip":"LV-3264"},"strauta iela 6 - 20":{"address":"Strauta iela 6 - 20","city":"Roja","zip":"LV-3264"},"strauta iela 6 - 21":{"address":"Strauta iela 6 - 21","city":"Roja","zip":"LV-3264"},"strauta iela 6 - 22":{"address":"Strauta iela 6 - 22","city":"Roja","zip":"LV-3264"},"strauta iela 6 - 23":{"address":"Strauta iela 6 - 23","city":"Roja","zip":"LV-3264"},"strauta iela 6 - 24":{"address":"Strauta iela 6 - 24","city":"Roja","zip":"LV-3264"},"strauta iela 15 - 1":{"address":"Strauta iela 15 - 1","city":"Roja","zip":"LV-3264"},"strauta iela 15 - 2":{"address":"Strauta iela 15 - 2","city":"Roja","zip":"LV-3264"},"strauta iela 15 - 3":{"address":"Strauta iela 15 - 3","city":"Roja","zip":"LV-3264"},"strauta iela 15 - 4":{"address":"Strauta iela 15 - 4","city":"Roja","zip":"LV-3264"},"strauta iela 15 - 5":{"address":"Strauta iela 15 - 5","city":"Roja","zip":"LV-3264"},"strauta iela 15 - 6":{"address":"Strauta iela 15 - 6","city":"Roja","zip":"LV-3264"},"strauta iela 15 - 7":{"address":"Strauta iela 15 - 7","city":"Roja","zip":"LV-3264"},"strauta iela 15 - 8":{"address":"Strauta iela 15 - 8","city":"Roja","zip":"LV-3264"},"strauta iela 15 - 9":{"address":"Strauta iela 15 - 9","city":"Roja","zip":"LV-3264"},"strauta iela 3 - 1":{"address":"Strauta iela 3 - 1","city":"Roja","zip":"LV-3264"},"strauta iela 3 - 2":{"address":"Strauta iela 3 - 2","city":"Roja","zip":"LV-3264"},"strauta iela 3 - 3":{"address":"Strauta iela 3 - 3","city":"Roja","zip":"LV-3264"},"strauta iela 3 - 4":{"address":"Strauta iela 3 - 4","city":"Roja","zip":"LV-3264"},"strauta iela 3 - 5":{"address":"Strauta iela 3 - 5","city":"Roja","zip":"LV-3264"},"strauta iela 3 - 6":{"address":"Strauta iela 3 - 6","city":"Roja","zip":"LV-3264"},"strauta iela 3 - 7":{"address":"Strauta iela 3 - 7","city":"Roja","zip":"LV-3264"},"strauta iela 3 - 8":{"address":"Strauta iela 3 - 8","city":"Roja","zip":"LV-3264"},"strauta iela 3 - 9":{"address":"Strauta iela 3 - 9","city":"Roja","zip":"LV-3264"},"strauta iela 3 - 10":{"address":"Strauta iela 3 - 10","city":"Roja","zip":"LV-3264"},"strauta iela 3 - 11":{"address":"Strauta iela 3 - 11","city":"Roja","zip":"LV-3264"},"strauta iela 3 - 12":{"address":"Strauta iela 3 - 12","city":"Roja","zip":"LV-3264"},"strauta iela 3 - 13":{"address":"Strauta iela 3 - 13","city":"Roja","zip":"LV-3264"},"strauta iela 3 - 14":{"address":"Strauta iela 3 - 14","city":"Roja","zip":"LV-3264"},"strauta iela 3 - 15":{"address":"Strauta iela 3 - 15","city":"Roja","zip":"LV-3264"},"strauta iela 3 - 16":{"address":"Strauta iela 3 - 16","city":"Roja","zip":"LV-3264"},"strauta iela 3 - 17":{"address":"Strauta iela 3 - 17","city":"Roja","zip":"LV-3264"},"strauta iela 3 - 18":{"address":"Strauta iela 3 - 18","city":"Roja","zip":"LV-3264"},"strauta iela 3 - 19":{"address":"Strauta iela 3 - 19","city":"Roja","zip":"LV-3264"},"strauta iela 8 - 1":{"address":"Strauta iela 8 - 1","city":"Roja","zip":"LV-3264"},"strauta iela 8 - 2":{"address":"Strauta iela 8 - 2","city":"Roja","zip":"LV-3264"},"strauta iela 8 - 3":{"address":"Strauta iela 8 - 3","city":"Roja","zip":"LV-3264"},"strauta iela 8 - 4":{"address":"Strauta iela 8 - 4","city":"Roja","zip":"LV-3264"},"strauta iela 8 - 5":{"address":"Strauta iela 8 - 5","city":"Roja","zip":"LV-3264"},"strauta iela 8 - 6":{"address":"Strauta iela 8 - 6","city":"Roja","zip":"LV-3264"},"strauta iela 8 - 7":{"address":"Strauta iela 8 - 7","city":"Roja","zip":"LV-3264"},"strauta iela 8 - 8":{"address":"Strauta iela 8 - 8","city":"Roja","zip":"LV-3264"},"strauta iela 8 - 9":{"address":"Strauta iela 8 - 9","city":"Roja","zip":"LV-3264"},"strauta iela 8 - 10":{"address":"Strauta iela 8 - 10","city":"Roja","zip":"LV-3264"},"strauta iela 8 - 11":{"address":"Strauta iela 8 - 11","city":"Roja","zip":"LV-3264"},"strauta iela 8 - 12":{"address":"Strauta iela 8 - 12","city":"Roja","zip":"LV-3264"},"strauta iela 8 - 13":{"address":"Strauta iela 8 - 13","city":"Roja","zip":"LV-3264"},"strauta iela 8 - 14":{"address":"Strauta iela 8 - 14","city":"Roja","zip":"LV-3264"},"strauta iela 8 - 15":{"address":"Strauta iela 8 - 15","city":"Roja","zip":"LV-3264"},"strauta iela 8 - 16":{"address":"Strauta iela 8 - 16","city":"Roja","zip":"LV-3264"},"strauta iela 8 - 17":{"address":"Strauta iela 8 - 17","city":"Roja","zip":"LV-3264"},"strauta iela 8 - 18":{"address":"Strauta iela 8 - 18","city":"Roja","zip":"LV-3264"},"strauta iela 8 - 19":{"address":"Strauta iela 8 - 19","city":"Roja","zip":"LV-3264"},"strauta iela 8 - 20":{"address":"Strauta iela 8 - 20","city":"Roja","zip":"LV-3264"},"strauta iela 8 - 21":{"address":"Strauta iela 8 - 21","city":"Roja","zip":"LV-3264"},"strauta iela 8 - 22":{"address":"Strauta iela 8 - 22","city":"Roja","zip":"LV-3264"}}