{"strazdi - 1":{"address":"Strazdi - 1","city":"Dvorčani","zip":"LV-5662"},"strazdi - 2":{"address":"Strazdi - 2","city":"Dvorčani","zip":"LV-5662"},"strazdi - 3":{"address":"Strazdi - 3","city":"Pasiene","zip":"LV-5732"},"strazdi - 4":{"address":"Strazdi - 4","city":"Pasiene","zip":"LV-5732"},"strazdi - 5":{"address":"Strazdi - 5","city":"Pasiene","zip":"LV-5732"},"strazdi - 6":{"address":"Strazdi - 6","city":"Pasiene","zip":"LV-5732"},"strazdi - 7":{"address":"Strazdi - 7","city":"Pasiene","zip":"LV-5732"},"strazdi - 8":{"address":"Strazdi - 8","city":"Pasiene","zip":"LV-5732"},"strazdi - 9":{"address":"Strazdi - 9","city":"Pasiene","zip":"LV-5732"},"strazdi - 10":{"address":"Strazdi - 10","city":"Pasiene","zip":"LV-5732"},"strazdi - 11":{"address":"Strazdi - 11","city":"Pasiene","zip":"LV-5732"},"strazdi - 12":{"address":"Strazdi - 12","city":"Pasiene","zip":"LV-5732"},"strazdiņi - 1":{"address":"Strazdiņi - 1","city":"Pope","zip":"LV-3614"},"strazdiņi - 2":{"address":"Strazdiņi - 2","city":"Pope","zip":"LV-3614"},"strazdiņi - 3":{"address":"Strazdiņi - 3","city":"Ziras","zip":"LV-3624"},"strazdiņi - 4":{"address":"Strazdiņi - 4","city":"Ziras","zip":"LV-3624"},"strazdiņi - 5":{"address":"Strazdiņi - 5","city":"Ziras","zip":"LV-3624"},"strazdiņi - 6":{"address":"Strazdiņi - 6","city":"Ziras","zip":"LV-3624"},"strazdiņi - 9":{"address":"Strazdiņi - 9","city":"Ziras","zip":"LV-3624"},"strazdiņi - 10":{"address":"Strazdiņi - 10","city":"Ziras","zip":"LV-3624"},"strazdiņu iela 26 - 1":{"address":"Strazdiņu iela 26 - 1","city":"Dreiliņi","zip":"LV-2130"},"strazdiņu iela 26 - 2":{"address":"Strazdiņu iela 26 - 2","city":"Dreiliņi","zip":"LV-2130"},"strazdiņu iela 23 - 1":{"address":"Strazdiņu iela 23 - 1","city":"Dreiliņi","zip":"LV-2130"},"strazdiņu iela 23 - 2":{"address":"Strazdiņu iela 23 - 2","city":"Dreiliņi","zip":"LV-2130"},"strazdi":{"address":"Strazdi","city":"Mārsnēni","zip":"LV-4129"},"strazdiņi":{"address":"Strazdiņi","city":"Naukšēni","zip":"LV-4244"}}