{"birztalas - 1":{"address":"Birztalas - 1","city":"Lielstraupe","zip":"LV-4152"},"birztalas - 2":{"address":"Birztalas - 2","city":"Lielstraupe","zip":"LV-4152"},"birztalas - 3":{"address":"Birztalas - 3","city":"Lielstraupe","zip":"LV-4152"},"birztalas - 4":{"address":"Birztalas - 4","city":"Lielstraupe","zip":"LV-4152"},"laimītes - 1":{"address":"Laimītes - 1","city":"Lielstraupe","zip":"LV-4152"},"laimītes - 2":{"address":"Laimītes - 2","city":"Lielstraupe","zip":"LV-4152"},"laimītes - 3":{"address":"Laimītes - 3","city":"Lielstraupe","zip":"LV-4152"},"laimītes - 4":{"address":"Laimītes - 4","city":"Lielstraupe","zip":"LV-4152"},"laimītes - 5":{"address":"Laimītes - 5","city":"Lielstraupe","zip":"LV-4152"},"laimītes - 6":{"address":"Laimītes - 6","city":"Lielstraupe","zip":"LV-4152"},"laimītes - 7":{"address":"Laimītes - 7","city":"Lielstraupe","zip":"LV-4152"},"laimītes - 8":{"address":"Laimītes - 8","city":"Lielstraupe","zip":"LV-4152"},"pekši - 1":{"address":"Pekši - 1","city":"Lielstraupe","zip":"LV-4152"},"pekši - 2":{"address":"Pekši - 2","city":"Lielstraupe","zip":"LV-4152"},"pekši - 3":{"address":"Pekši - 3","city":"Lielstraupe","zip":"LV-4152"},"laimneši - 1":{"address":"Laimneši - 1","city":"Lielstraupe","zip":"LV-4152"},"laimneši - 2":{"address":"Laimneši - 2","city":"Lielstraupe","zip":"LV-4152"},"putnu māja - 1":{"address":"Putnu māja - 1","city":"Straupe","zip":"LV-4152"},"putnu māja - 2":{"address":"Putnu māja - 2","city":"Straupe","zip":"LV-4152"},"brīdaki - 1":{"address":"Brīdaki - 1","city":"Straupe","zip":"LV-4152"},"brīdaki - 2":{"address":"Brīdaki - 2","city":"Straupe","zip":"LV-4152"},"kraujas - 1":{"address":"Kraujas - 1","city":"Straupe","zip":"LV-4152"},"kraujas - 2":{"address":"Kraujas - 2","city":"Straupe","zip":"LV-4152"},"kraujas - 3":{"address":"Kraujas - 3","city":"Straupe","zip":"LV-4152"},"tiltiņi - 1":{"address":"Tiltiņi - 1","city":"Straupe","zip":"LV-4152"},"tiltiņi - 2":{"address":"Tiltiņi - 2","city":"Straupe","zip":"LV-4152"},"austriņi - 1":{"address":"Austriņi - 1","city":"Straupe","zip":"LV-4152"},"austriņi - 2":{"address":"Austriņi - 2","city":"Straupe","zip":"LV-4152"},"beverīnas - 1":{"address":"Beverīnas - 1","city":"Straupe","zip":"LV-4152"},"beverīnas - 2":{"address":"Beverīnas - 2","city":"Straupe","zip":"LV-4152"},"beverīnas - 3":{"address":"Beverīnas - 3","city":"Straupe","zip":"LV-4152"},"beverīnas - 4":{"address":"Beverīnas - 4","city":"Straupe","zip":"LV-4152"},"beverīnas - 5":{"address":"Beverīnas - 5","city":"Straupe","zip":"LV-4152"},"beverīnas - 6":{"address":"Beverīnas - 6","city":"Straupe","zip":"LV-4152"},"beverīnas - 7":{"address":"Beverīnas - 7","city":"Straupe","zip":"LV-4152"},"beverīnas - 8":{"address":"Beverīnas - 8","city":"Straupe","zip":"LV-4152"},"dimantas - 1":{"address":"Dimantas - 1","city":"Straupe","zip":"LV-4152"},"dimantas - 2":{"address":"Dimantas - 2","city":"Straupe","zip":"LV-4152"},"dimantas - 3":{"address":"Dimantas - 3","city":"Straupe","zip":"LV-4152"},"dimantas - 4":{"address":"Dimantas - 4","city":"Straupe","zip":"LV-4152"},"kalnsētas - 1":{"address":"Kalnsētas - 1","city":"Straupe","zip":"LV-4152"},"kalnsētas - 2":{"address":"Kalnsētas - 2","city":"Straupe","zip":"LV-4152"},"kalnsētas - 3":{"address":"Kalnsētas - 3","city":"Straupe","zip":"LV-4152"},"kalnsētas - 4":{"address":"Kalnsētas - 4","city":"Straupe","zip":"LV-4152"},"kalnsētas - 5":{"address":"Kalnsētas - 5","city":"Straupe","zip":"LV-4152"},"kalnsētas - 6":{"address":"Kalnsētas - 6","city":"Straupe","zip":"LV-4152"},"kalnsētas - 7":{"address":"Kalnsētas - 7","city":"Straupe","zip":"LV-4152"},"kalnsētas - 8":{"address":"Kalnsētas - 8","city":"Straupe","zip":"LV-4152"},"kalnsētas - 9":{"address":"Kalnsētas - 9","city":"Straupe","zip":"LV-4152"},"kalnsētas - 10":{"address":"Kalnsētas - 10","city":"Straupe","zip":"LV-4152"},"kalnsētas - 11":{"address":"Kalnsētas - 11","city":"Straupe","zip":"LV-4152"},"kalnsētas - 12":{"address":"Kalnsētas - 12","city":"Straupe","zip":"LV-4152"},"kalnsētas - 13":{"address":"Kalnsētas - 13","city":"Straupe","zip":"LV-4152"},"kalnsētas - 14":{"address":"Kalnsētas - 14","city":"Straupe","zip":"LV-4152"},"kalnsētas - 15":{"address":"Kalnsētas - 15","city":"Straupe","zip":"LV-4152"},"kalnsētas - 16":{"address":"Kalnsētas - 16","city":"Straupe","zip":"LV-4152"},"kalnsētas - 17":{"address":"Kalnsētas - 17","city":"Straupe","zip":"LV-4152"},"kalnsētas - 18":{"address":"Kalnsētas - 18","city":"Straupe","zip":"LV-4152"},"kalnsētas - 19":{"address":"Kalnsētas - 19","city":"Straupe","zip":"LV-4152"},"mediķi - 1":{"address":"Mediķi - 1","city":"Straupe","zip":"LV-4152"}}