{"strodi - 1":{"address":"Strodi - 1","city":"Pilda","zip":"LV-5730"},"strodi - 2":{"address":"Strodi - 2","city":"Pilda","zip":"LV-5730"},"strodi - 3":{"address":"Strodi - 3","city":"Pilda","zip":"LV-5730"},"dagutneica - 1":{"address":"Dagutneica - 1","city":"Strodi","zip":"LV-5315"},"dagutneica - 2":{"address":"Dagutneica - 2","city":"Strodi","zip":"LV-5315"},"dagutneica - 3":{"address":"Dagutneica - 3","city":"Strodi","zip":"LV-5315"},"dagutneica - 4":{"address":"Dagutneica - 4","city":"Strodi","zip":"LV-5315"},"strodi":{"address":"Strodi","city":"Strodi","zip":"LV-4630"},"griezes":{"address":"Griezes","city":"Strodi","zip":"LV-5315"},"laukakmeņi":{"address":"Laukakmeņi","city":"Strodi","zip":"LV-4630"},"zemturi":{"address":"Zemturi","city":"Strodi","zip":"LV-5325"},"liepkrastiņi":{"address":"Liepkrastiņi","city":"Strodi","zip":"LV-5315"},"smuidras":{"address":"Smuidras","city":"Strodi","zip":"LV-5325"},"rožkalniņi":{"address":"Rožkalniņi","city":"Strodi","zip":"LV-5737"},"kulitāni":{"address":"Kulitāni","city":"Strodi","zip":"LV-5315"},"mežrozes":{"address":"Mežrozes","city":"Strodi","zip":"LV-5315"},"pureņi":{"address":"Pureņi","city":"Strodi","zip":"LV-5315"},"kolna strodi":{"address":"Kolna Strodi","city":"Piziči","zip":"LV-4650"},"dzegūžpuķes":{"address":"Dzegūžpuķes","city":"Strodi","zip":"LV-5737"},"kalna dzeņi":{"address":"Kalna Dzeņi","city":"Strodi","zip":"LV-5315"},"pelēkie strodi":{"address":"Pelēkie Strodi","city":"Mazie Bernāni","zip":"LV-5304"},"mellenes":{"address":"Mellenes","city":"Strodiški","zip":"LV-5481"},"lapsas":{"address":"Lapsas","city":"Strodi","zip":"LV-5325"},"kaudzītes":{"address":"Kaudzītes","city":"Strodi","zip":"LV-5325"},"straujupe":{"address":"Straujupe","city":"Strodi","zip":"LV-5325"},"dzilnas":{"address":"Dzilnas","city":"Strodi","zip":"LV-4622"},"žanna":{"address":"Žanna","city":"Strodi","zip":"LV-4630"},"dzintariņi":{"address":"Dzintariņi","city":"Strodi","zip":"LV-5315"},"kaivusēta":{"address":"Kaivusēta","city":"Strodi","zip":"LV-5737"},"mūrnieku mājas":{"address":"Mūrnieku mājas","city":"Strodi","zip":"LV-5325"},"ieviņas":{"address":"Ieviņas","city":"Strodi","zip":"LV-5325"},"valburga":{"address":"Valburga","city":"Strodi","zip":"LV-5315"},"liepkrasti":{"address":"Liepkrasti","city":"Strodi","zip":"LV-5315"},"priedīšu kalns":{"address":"Priedīšu kalns","city":"Strodi","zip":"LV-4622"},"stārķuligzda":{"address":"Stārķuligzda","city":"Strodiški","zip":"LV-5481"},"veras":{"address":"Veras","city":"Strodiški","zip":"LV-5481"},"birztalas":{"address":"Birztalas","city":"Strodi","zip":"LV-4622"},"irbenes":{"address":"Irbenes","city":"Strodi","zip":"LV-5737"},"aparnieki":{"address":"Aparnieki","city":"Strodi","zip":"LV-5687"},"cirvji":{"address":"Cirvji","city":"Strodi","zip":"LV-5687"},"dālderi":{"address":"Dālderi","city":"Strodi","zip":"LV-5687"},"dargeļi":{"address":"Dargeļi","city":"Strodi","zip":"LV-5687"},"hmeļņicki":{"address":"Hmeļņicki","city":"Strodi","zip":"LV-5687"},"kļavas":{"address":"Kļavas","city":"Strodi","zip":"LV-5687"},"lielkustari":{"address":"Lielkustari","city":"Strodi","zip":"LV-5687"},"liperi":{"address":"Liperi","city":"Strodi","zip":"LV-5687"},"menči":{"address":"Menči","city":"Strodi","zip":"LV-5687"},"pakši":{"address":"Pakši","city":"Strodi","zip":"LV-5687"},"plenči":{"address":"Plenči","city":"Strodi","zip":"LV-5687"},"vanagi":{"address":"Vanagi","city":"Strodi","zip":"LV-5687"},"vecmenči":{"address":"Vecmenči","city":"Strodi","zip":"LV-5687"},"turaiņi":{"address":"Turaiņi","city":"Strodiški","zip":"LV-5481"},"akas":{"address":"Akas","city":"Strodiški","zip":"LV-5481"},"eceka":{"address":"Eceka","city":"Strodiški","zip":"LV-5481"},"laimstari":{"address":"Laimstari","city":"Strodiški","zip":"LV-5481"},"tīrumi":{"address":"Tīrumi","city":"Strodiški","zip":"LV-5481"},"eglīte":{"address":"Eglīte","city":"Strodi","zip":"LV-5459"},"liepas":{"address":"Liepas","city":"Strodi","zip":"LV-5459"},"monika":{"address":"Monika","city":"Strodi","zip":"LV-5459"},"strodi 2":{"address":"Strodi 2","city":"Strodi","zip":"LV-5459"},"kokini":{"address":"Kokini","city":"Strodi","zip":"LV-5325"},"dzalbi":{"address":"Dzalbi","city":"Strodi","zip":"LV-5325"},"liepsaldes":{"address":"Liepsaldes","city":"Strodi","zip":"LV-5325"},"avoti":{"address":"Avoti","city":"Strodi","zip":"LV-5325"},"vaivodi":{"address":"Vaivodi","city":"Strodi","zip":"LV-5325"},"zīles":{"address":"Zīles","city":"Strodi","zip":"LV-5325"},"dagutneica":{"address":"Dagutneica","city":"Strodi","zip":"LV-5315"},"dzegužkalns":{"address":"Dzegužkalns","city":"Strodi","zip":"LV-5315"},"dzeņu kalns":{"address":"Dzeņu Kalns","city":"Strodi","zip":"LV-5315"},"dzintari":{"address":"Dzintari","city":"Strodi","zip":"LV-5315"},"krasti":{"address":"Krasti","city":"Strodi","zip":"LV-5315"},"mežmalas":{"address":"Mežmalas","city":"Strodi","zip":"LV-5315"},"stiebriņi":{"address":"Stiebriņi","city":"Strodi","zip":"LV-5315"},"lielie strodi":{"address":"Lielie Strodi","city":"Pauliņi","zip":"LV-4633"},"karuseļi":{"address":"Karuseļi","city":"Strodi","zip":"LV-4630"},"stārķi":{"address":"Stārķi","city":"Strodi","zip":"LV-4630"},"lielceļa māja":{"address":"Lielceļa māja","city":"Strodi","zip":"LV-4630"},"ceriņi":{"address":"Ceriņi","city":"Strodi","zip":"LV-4630"},"mazcīrulīši":{"address":"Mazcīrulīši","city":"Strodi","zip":"LV-4630"},"siliņi":{"address":"Siliņi","city":"Strodi","zip":"LV-4630"}}