{"dzelmes 1 - 11":{"address":"Dzelmes 1 - 11","city":"Suntaži","zip":"LV-5060"},"dzelmes 1 - 1":{"address":"Dzelmes 1 - 1","city":"Suntaži","zip":"LV-5060"},"dzelmes 1 - 2":{"address":"Dzelmes 1 - 2","city":"Suntaži","zip":"LV-5060"},"dzelmes 1 - 3":{"address":"Dzelmes 1 - 3","city":"Suntaži","zip":"LV-5060"},"dzelmes 1 - 4":{"address":"Dzelmes 1 - 4","city":"Suntaži","zip":"LV-5060"},"dzelmes 1 - 5":{"address":"Dzelmes 1 - 5","city":"Suntaži","zip":"LV-5060"},"dzelmes 1 - 6":{"address":"Dzelmes 1 - 6","city":"Suntaži","zip":"LV-5060"},"dzelmes 1 - 7":{"address":"Dzelmes 1 - 7","city":"Suntaži","zip":"LV-5060"},"dzelmes 1 - 8":{"address":"Dzelmes 1 - 8","city":"Suntaži","zip":"LV-5060"},"dzelmes 1 - 9":{"address":"Dzelmes 1 - 9","city":"Suntaži","zip":"LV-5060"},"dzelmes 1 - 12":{"address":"Dzelmes 1 - 12","city":"Suntaži","zip":"LV-5060"},"dzelmes 1 - 13":{"address":"Dzelmes 1 - 13","city":"Suntaži","zip":"LV-5060"},"dzelmes 1 - 14":{"address":"Dzelmes 1 - 14","city":"Suntaži","zip":"LV-5060"},"dzelmes 1 - 15":{"address":"Dzelmes 1 - 15","city":"Suntaži","zip":"LV-5060"},"dzelmes 1 - 10":{"address":"Dzelmes 1 - 10","city":"Suntaži","zip":"LV-5060"},"dzelmes 1 - 16":{"address":"Dzelmes 1 - 16","city":"Suntaži","zip":"LV-5060"},"dzelmes 1 - 17":{"address":"Dzelmes 1 - 17","city":"Suntaži","zip":"LV-5060"},"dzelmes 1 - 18":{"address":"Dzelmes 1 - 18","city":"Suntaži","zip":"LV-5060"},"gundegas - 1":{"address":"Gundegas - 1","city":"Suntaži","zip":"LV-5060"},"gundegas - 2":{"address":"Gundegas - 2","city":"Suntaži","zip":"LV-5060"},"gundegas - 3":{"address":"Gundegas - 3","city":"Suntaži","zip":"LV-5060"},"gundegas - 4":{"address":"Gundegas - 4","city":"Suntaži","zip":"LV-5060"},"māja 1 - 1":{"address":"Māja 1 - 1","city":"Suntaži","zip":"LV-5060"},"māja 1 - 2":{"address":"Māja 1 - 2","city":"Suntaži","zip":"LV-5060"},"māja 1 - 3":{"address":"Māja 1 - 3","city":"Suntaži","zip":"LV-5060"},"māja 1 - 4":{"address":"Māja 1 - 4","city":"Suntaži","zip":"LV-5060"}}