{"klusā iela 1 - 7":{"address":"Klusā iela 1 - 7","city":"Sunīši","zip":"LV-2144"},"klusā iela 1 - 21":{"address":"Klusā iela 1 - 21","city":"Sunīši","zip":"LV-2144"},"klusā iela 1 - 28":{"address":"Klusā iela 1 - 28","city":"Sunīši","zip":"LV-2144"},"zaļā iela 1 - 1":{"address":"Zaļā iela 1 - 1","city":"Sunīši","zip":"LV-2144"},"zaļā iela 1 - 2":{"address":"Zaļā iela 1 - 2","city":"Sunīši","zip":"LV-2144"},"zaļā iela 1 - 3":{"address":"Zaļā iela 1 - 3","city":"Sunīši","zip":"LV-2144"},"zaļā iela 1 - 4":{"address":"Zaļā iela 1 - 4","city":"Sunīši","zip":"LV-2144"},"ernesta sovera iela 1 - 25":{"address":"Ernesta Sovera iela 1 - 25","city":"Sunīši","zip":"LV-2144"},"ernesta sovera iela 1 - 26":{"address":"Ernesta Sovera iela 1 - 26","city":"Sunīši","zip":"LV-2144"},"zaļā iela 2 - 1":{"address":"Zaļā iela 2 - 1","city":"Sunīši","zip":"LV-2144"},"zaļā iela 2 - 2":{"address":"Zaļā iela 2 - 2","city":"Sunīši","zip":"LV-2144"},"zaļā iela 2 - 3":{"address":"Zaļā iela 2 - 3","city":"Sunīši","zip":"LV-2144"},"zaļā iela 2 - 4":{"address":"Zaļā iela 2 - 4","city":"Sunīši","zip":"LV-2144"},"centra iela 10 - 1":{"address":"Centra iela 10 - 1","city":"Sunīši","zip":"LV-2144"},"centra iela 10 - 2":{"address":"Centra iela 10 - 2","city":"Sunīši","zip":"LV-2144"},"centra iela 10 - 3":{"address":"Centra iela 10 - 3","city":"Sunīši","zip":"LV-2144"},"centra iela 10 - 4":{"address":"Centra iela 10 - 4","city":"Sunīši","zip":"LV-2144"},"centra iela 10 - 5":{"address":"Centra iela 10 - 5","city":"Sunīši","zip":"LV-2144"},"centra iela 10 - 6":{"address":"Centra iela 10 - 6","city":"Sunīši","zip":"LV-2144"},"centra iela 10 - 7":{"address":"Centra iela 10 - 7","city":"Sunīši","zip":"LV-2144"},"centra iela 10 - 8":{"address":"Centra iela 10 - 8","city":"Sunīši","zip":"LV-2144"},"centra iela 10 - 9":{"address":"Centra iela 10 - 9","city":"Sunīši","zip":"LV-2144"},"centra iela 10 - 10":{"address":"Centra iela 10 - 10","city":"Sunīši","zip":"LV-2144"},"centra iela 10 - 11":{"address":"Centra iela 10 - 11","city":"Sunīši","zip":"LV-2144"},"centra iela 10 - 12":{"address":"Centra iela 10 - 12","city":"Sunīši","zip":"LV-2144"},"centra iela 10 - 13":{"address":"Centra iela 10 - 13","city":"Sunīši","zip":"LV-2144"},"centra iela 10 - 14":{"address":"Centra iela 10 - 14","city":"Sunīši","zip":"LV-2144"},"centra iela 10 - 15":{"address":"Centra iela 10 - 15","city":"Sunīši","zip":"LV-2144"},"centra iela 10 - 16":{"address":"Centra iela 10 - 16","city":"Sunīši","zip":"LV-2144"},"centra iela 10 - 17":{"address":"Centra iela 10 - 17","city":"Sunīši","zip":"LV-2144"},"centra iela 10 - 18":{"address":"Centra iela 10 - 18","city":"Sunīši","zip":"LV-2144"},"centra iela 10 - 19":{"address":"Centra iela 10 - 19","city":"Sunīši","zip":"LV-2144"},"centra iela 10 - 20":{"address":"Centra iela 10 - 20","city":"Sunīši","zip":"LV-2144"},"centra iela 10 - 21":{"address":"Centra iela 10 - 21","city":"Sunīši","zip":"LV-2144"},"centra iela 10 - 22":{"address":"Centra iela 10 - 22","city":"Sunīši","zip":"LV-2144"},"centra iela 10 - 23":{"address":"Centra iela 10 - 23","city":"Sunīši","zip":"LV-2144"},"centra iela 10 - 24":{"address":"Centra iela 10 - 24","city":"Sunīši","zip":"LV-2144"},"klusā iela 1 - 20":{"address":"Klusā iela 1 - 20","city":"Sunīši","zip":"LV-2144"},"klusā iela 1 - 2":{"address":"Klusā iela 1 - 2","city":"Sunīši","zip":"LV-2144"},"klusā iela 1 - 22":{"address":"Klusā iela 1 - 22","city":"Sunīši","zip":"LV-2144"},"klusā iela 1 - 23":{"address":"Klusā iela 1 - 23","city":"Sunīši","zip":"LV-2144"},"klusā iela 1 - 24":{"address":"Klusā iela 1 - 24","city":"Sunīši","zip":"LV-2144"},"klusā iela 1 - 25":{"address":"Klusā iela 1 - 25","city":"Sunīši","zip":"LV-2144"},"klusā iela 1 - 26":{"address":"Klusā iela 1 - 26","city":"Sunīši","zip":"LV-2144"},"klusā iela 1 - 27":{"address":"Klusā iela 1 - 27","city":"Sunīši","zip":"LV-2144"},"klusā iela 1 - 1":{"address":"Klusā iela 1 - 1","city":"Sunīši","zip":"LV-2144"},"klusā iela 1 - 3":{"address":"Klusā iela 1 - 3","city":"Sunīši","zip":"LV-2144"},"klusā iela 1 - 4":{"address":"Klusā iela 1 - 4","city":"Sunīši","zip":"LV-2144"},"klusā iela 1 - 5":{"address":"Klusā iela 1 - 5","city":"Sunīši","zip":"LV-2144"},"klusā iela 1 - 6":{"address":"Klusā iela 1 - 6","city":"Sunīši","zip":"LV-2144"},"klusā iela 1 - 8":{"address":"Klusā iela 1 - 8","city":"Sunīši","zip":"LV-2144"},"klusā iela 1 - 9":{"address":"Klusā iela 1 - 9","city":"Sunīši","zip":"LV-2144"},"klusā iela 1 - 10":{"address":"Klusā iela 1 - 10","city":"Sunīši","zip":"LV-2144"},"klusā iela 1 - 11":{"address":"Klusā iela 1 - 11","city":"Sunīši","zip":"LV-2144"},"klusā iela 1 - 12":{"address":"Klusā iela 1 - 12","city":"Sunīši","zip":"LV-2144"},"klusā iela 1 - 13":{"address":"Klusā iela 1 - 13","city":"Sunīši","zip":"LV-2144"},"klusā iela 1 - 14":{"address":"Klusā iela 1 - 14","city":"Sunīši","zip":"LV-2144"},"klusā iela 1 - 15":{"address":"Klusā iela 1 - 15","city":"Sunīši","zip":"LV-2144"},"klusā iela 1 - 16":{"address":"Klusā iela 1 - 16","city":"Sunīši","zip":"LV-2144"},"klusā iela 1 - 17":{"address":"Klusā iela 1 - 17","city":"Sunīši","zip":"LV-2144"},"klusā iela 1 - 18":{"address":"Klusā iela 1 - 18","city":"Sunīši","zip":"LV-2144"},"klusā iela 1 - 19":{"address":"Klusā iela 1 - 19","city":"Sunīši","zip":"LV-2144"},"klusā iela 1 - 29":{"address":"Klusā iela 1 - 29","city":"Sunīši","zip":"LV-2144"},"klusā iela 1 - 30":{"address":"Klusā iela 1 - 30","city":"Sunīši","zip":"LV-2144"},"klusā iela 1 - 31":{"address":"Klusā iela 1 - 31","city":"Sunīši","zip":"LV-2144"},"klusā iela 1 - 32":{"address":"Klusā iela 1 - 32","city":"Sunīši","zip":"LV-2144"},"klusā iela 1 - 33":{"address":"Klusā iela 1 - 33","city":"Sunīši","zip":"LV-2144"},"klusā iela 1 - 34":{"address":"Klusā iela 1 - 34","city":"Sunīši","zip":"LV-2144"},"klusā iela 1 - 35":{"address":"Klusā iela 1 - 35","city":"Sunīši","zip":"LV-2144"},"klusā iela 1 - 36":{"address":"Klusā iela 1 - 36","city":"Sunīši","zip":"LV-2144"},"nākotnes iela 3 - 5":{"address":"Nākotnes iela 3 - 5","city":"Sunīši","zip":"LV-2144"},"nākotnes iela 3 - 1":{"address":"Nākotnes iela 3 - 1","city":"Sunīši","zip":"LV-2144"},"nākotnes iela 3 - 2":{"address":"Nākotnes iela 3 - 2","city":"Sunīši","zip":"LV-2144"},"nākotnes iela 3 - 3":{"address":"Nākotnes iela 3 - 3","city":"Sunīši","zip":"LV-2144"},"nākotnes iela 3 - 4":{"address":"Nākotnes iela 3 - 4","city":"Sunīši","zip":"LV-2144"},"nākotnes iela 3 - 6":{"address":"Nākotnes iela 3 - 6","city":"Sunīši","zip":"LV-2144"},"nākotnes iela 3 - 7":{"address":"Nākotnes iela 3 - 7","city":"Sunīši","zip":"LV-2144"},"nākotnes iela 3 - 8":{"address":"Nākotnes iela 3 - 8","city":"Sunīši","zip":"LV-2144"},"nākotnes iela 3 - 9":{"address":"Nākotnes iela 3 - 9","city":"Sunīši","zip":"LV-2144"},"nākotnes iela 3 - 16":{"address":"Nākotnes iela 3 - 16","city":"Sunīši","zip":"LV-2144"},"nākotnes iela 3 - 10":{"address":"Nākotnes iela 3 - 10","city":"Sunīši","zip":"LV-2144"},"nākotnes iela 3 - 11":{"address":"Nākotnes iela 3 - 11","city":"Sunīši","zip":"LV-2144"},"nākotnes iela 3 - 12":{"address":"Nākotnes iela 3 - 12","city":"Sunīši","zip":"LV-2144"},"nākotnes iela 3 - 13":{"address":"Nākotnes iela 3 - 13","city":"Sunīši","zip":"LV-2144"},"nākotnes iela 3 - 14":{"address":"Nākotnes iela 3 - 14","city":"Sunīši","zip":"LV-2144"},"nākotnes iela 3 - 15":{"address":"Nākotnes iela 3 - 15","city":"Sunīši","zip":"LV-2144"},"nākotnes iela 3 - 17":{"address":"Nākotnes iela 3 - 17","city":"Sunīši","zip":"LV-2144"},"nākotnes iela 3 - 18":{"address":"Nākotnes iela 3 - 18","city":"Sunīši","zip":"LV-2144"},"nākotnes iela 3 - 19":{"address":"Nākotnes iela 3 - 19","city":"Sunīši","zip":"LV-2144"},"nākotnes iela 3 - 20":{"address":"Nākotnes iela 3 - 20","city":"Sunīši","zip":"LV-2144"},"nākotnes iela 3 - 21":{"address":"Nākotnes iela 3 - 21","city":"Sunīši","zip":"LV-2144"},"nākotnes iela 5 - 1":{"address":"Nākotnes iela 5 - 1","city":"Sunīši","zip":"LV-2144"},"nākotnes iela 5 - 2":{"address":"Nākotnes iela 5 - 2","city":"Sunīši","zip":"LV-2144"},"nākotnes iela 5 - 3":{"address":"Nākotnes iela 5 - 3","city":"Sunīši","zip":"LV-2144"},"nākotnes iela 5 - 4":{"address":"Nākotnes iela 5 - 4","city":"Sunīši","zip":"LV-2144"},"nākotnes iela 5 - 5":{"address":"Nākotnes iela 5 - 5","city":"Sunīši","zip":"LV-2144"},"nākotnes iela 5 - 6":{"address":"Nākotnes iela 5 - 6","city":"Sunīši","zip":"LV-2144"},"nākotnes iela 5 - 7":{"address":"Nākotnes iela 5 - 7","city":"Sunīši","zip":"LV-2144"},"nākotnes iela 5 - 8":{"address":"Nākotnes iela 5 - 8","city":"Sunīši","zip":"LV-2144"},"nākotnes iela 5 - 9":{"address":"Nākotnes iela 5 - 9","city":"Sunīši","zip":"LV-2144"}}