{"rudzīši sādža":{"address":"Rudzīši sādža","city":"Rudziši","zip":"LV-5739"},"jaunā sādža":{"address":"Jaunā sādža","city":"Taraputki","zip":"LV-4641"},"ignatjevu sādža":{"address":"Ignatjevu sādža","city":"Staroščiki","zip":"LV-4601"},"skujas":{"address":"Skujas","city":"Jaunā sādža","zip":"LV-5463"},"motivānu sādža 2":{"address":"Motivānu sādža 2","city":"Motivāni","zip":"LV-5477"},"pudānu sādža 1":{"address":"Pudānu sādža 1","city":"Pudāni","zip":"LV-5477"},"divkšu sādža":{"address":"Divkšu sādža","city":"Divkši","zip":"LV-5736"},"lapsas":{"address":"Lapsas","city":"Jaunā sādža","zip":"LV-5463"},"krievi 1":{"address":"Krievi 1","city":"Jaunā sādža","zip":"LV-5463"},"kastaņu sādža":{"address":"Kastaņu sādža","city":"Maskovskaja","zip":"LV-5481"},"pudānu sādža":{"address":"Pudānu sādža","city":"Pudāni","zip":"LV-5477"},"motivānu sādža":{"address":"Motivānu sādža","city":"Motivāni","zip":"LV-5477"},"flokši":{"address":"Flokši","city":"Jaunā sādža","zip":"LV-5463"},"kalinas":{"address":"Kalinas","city":"Jaunā sādža","zip":"LV-5463"},"krievi":{"address":"Krievi","city":"Jaunā sādža","zip":"LV-5463"},"leonovi":{"address":"Leonovi","city":"Jaunā sādža","zip":"LV-5463"},"nadeždas":{"address":"Nadeždas","city":"Jaunā sādža","zip":"LV-5463"},"ozoli 1":{"address":"Ozoli 1","city":"Jaunā sādža","zip":"LV-5463"},"pļavas":{"address":"Pļavas","city":"Jaunā sādža","zip":"LV-5463"},"pļavmalas":{"address":"Pļavmalas","city":"Jaunā sādža","zip":"LV-5463"},"pūces":{"address":"Pūces","city":"Jaunā sādža","zip":"LV-5463"},"puduri":{"address":"Puduri","city":"Jaunā sādža","zip":"LV-5463"},"sapaļi":{"address":"Sapaļi","city":"Jaunā sādža","zip":"LV-5463"},"smilgas":{"address":"Smilgas","city":"Jaunā sādža","zip":"LV-5463"},"stropi":{"address":"Stropi","city":"Jaunā sādža","zip":"LV-5463"},"vasiļjevi":{"address":"Vasiļjevi","city":"Jaunā sādža","zip":"LV-5463"},"žuburi":{"address":"Žuburi","city":"Jaunā sādža","zip":"LV-5463"}}