{"gricenko sēta - 1":{"address":"Gricenko sēta - 1","city":"Stolbovka","zip":"LV-4641"},"gricenko sēta - 2":{"address":"Gricenko sēta - 2","city":"Stolbovka","zip":"LV-4641"},"lejas sētas - 1":{"address":"Lejas sētas - 1","city":"Vecdome","zip":"LV-5674"},"lejas sētas - 2":{"address":"Lejas sētas - 2","city":"Vecdome","zip":"LV-5674"},"lejas sētas - 3":{"address":"Lejas sētas - 3","city":"Vecdome","zip":"LV-5674"},"lejas sētas - 4":{"address":"Lejas sētas - 4","city":"Vecdome","zip":"LV-5674"},"lejas sētas - 5":{"address":"Lejas sētas - 5","city":"Vecdome","zip":"LV-5674"},"lejas sētas - 6":{"address":"Lejas sētas - 6","city":"Vecdome","zip":"LV-5674"},"lejas sētas - 7":{"address":"Lejas sētas - 7","city":"Vecdome","zip":"LV-5674"},"lejas sētas - 8":{"address":"Lejas sētas - 8","city":"Vecdome","zip":"LV-5674"},"lejas sētas - 9":{"address":"Lejas sētas - 9","city":"Vecdome","zip":"LV-5674"},"lejas sētas - 10":{"address":"Lejas sētas - 10","city":"Vecdome","zip":"LV-5674"},"lejas sētas - 11":{"address":"Lejas sētas - 11","city":"Vecdome","zip":"LV-5674"},"lejas sētas - 12":{"address":"Lejas sētas - 12","city":"Vecdome","zip":"LV-5674"},"lejas sētas - 13":{"address":"Lejas sētas - 13","city":"Vecdome","zip":"LV-5674"},"lejas sētas - 14":{"address":"Lejas sētas - 14","city":"Vecdome","zip":"LV-5674"},"lejas sētas - 15":{"address":"Lejas sētas - 15","city":"Vecdome","zip":"LV-5674"},"lejas sētas - 16":{"address":"Lejas sētas - 16","city":"Vecdome","zip":"LV-5674"},"lejas sētas - 17":{"address":"Lejas sētas - 17","city":"Vecdome","zip":"LV-5674"},"lejas sētas - 18":{"address":"Lejas sētas - 18","city":"Vecdome","zip":"LV-5674"},"jāņa sēta":{"address":"Jāņa sēta","city":"Lukštenieki","zip":"LV-5481"},"sēta":{"address":"Sēta","city":"Kjarkuži","zip":"LV-5443"},"jestafa sēta":{"address":"Jestafa sēta","city":"Deimaņi","zip":"LV-4633"},"ģimeņu sēta":{"address":"Ģimeņu sēta","city":"Pauliņi","zip":"LV-4633"},"rupaiņa sēta 1":{"address":"Rupaiņa sēta 1","city":"Pūriski","zip":"LV-4625"},"kalnu sēta":{"address":"Kalnu Sēta","city":"Vabaļi","zip":"LV-4611"},"andra sēta":{"address":"Andra sēta","city":"Astici","zip":"LV-4622"},"jāņu sēta":{"address":"Jāņu sēta","city":"Vilmaņi","zip":"LV-5601"},"annas sēta":{"address":"Annas Sēta","city":"Jaunie Čači","zip":"LV-4601"},"jāzepa sēta":{"address":"Jāzepa sēta","city":"Mazie Garanči","zip":"LV-4601"},"laļu sēta":{"address":"Laļu sēta","city":"Laļi","zip":"LV-4601"},"senču sēta":{"address":"Senču sēta","city":"Augstābirzs","zip":"LV-4580"},"sētas":{"address":"Sētas","city":"Lukštāni","zip":"LV-5660"},"vorobjovu sēta":{"address":"Vorobjovu sēta","city":"Lielie Dreizi","zip":"LV-4641"},"gricenko sēta":{"address":"Gricenko sēta","city":"Stolbovka","zip":"LV-4641"},"marijas sēta":{"address":"Marijas sēta","city":"Babri","zip":"LV-4635"},"sētas māja":{"address":"Sētas māja","city":"Mizovski","zip":"LV-5325"},"kalna sēta":{"address":"Kalna Sēta","city":"Kazīši","zip":"LV-5326"},"vecticībnieku sēta":{"address":"Vecticībnieku sēta","city":"Slutiški","zip":"LV-5462"},"pētera sēta":{"address":"Pētera sēta","city":"Jaunmurāni","zip":"LV-4640"},"vaidera sēta":{"address":"Vaidera sēta","city":"Ribaki","zip":"LV-5456"},"priežu sēta":{"address":"Priežu sēta","city":"Vilkakrogs","zip":"LV-4622"},"muižas sēta":{"address":"Muižas sēta","city":"Adamova","zip":"LV-4647"},"zemnieka sēta":{"address":"Zemnieka sēta","city":"Dzalzava","zip":"LV-5326"},"saulīšu sēta":{"address":"Saulīšu sēta","city":"Porskova","zip":"LV-4587"},"poču sēta":{"address":"Poču sēta","city":"Poči","zip":"LV-4650"},"pumpuru sēta":{"address":"Pumpuru sēta","city":"Dekšāres","zip":"LV-4614"},"lejas sētas":{"address":"Lejas sētas","city":"Vecdome","zip":"LV-5674"},"jāņu sētas":{"address":"Jāņu sētas","city":"Pirmie Zukuliški","zip":"LV-5671"},"maksima sēta":{"address":"Maksima sēta","city":"Barsuki","zip":"LV-5459"},"aleksandru sēta":{"address":"Aleksandru sēta","city":"Mazie Kokini","zip":"LV-5459"}}