{"lejas sētas - 1":{"address":"Lejas sētas - 1","city":"Vecdome","zip":"LV-5674"},"lejas sētas - 2":{"address":"Lejas sētas - 2","city":"Vecdome","zip":"LV-5674"},"lejas sētas - 3":{"address":"Lejas sētas - 3","city":"Vecdome","zip":"LV-5674"},"lejas sētas - 4":{"address":"Lejas sētas - 4","city":"Vecdome","zip":"LV-5674"},"lejas sētas - 5":{"address":"Lejas sētas - 5","city":"Vecdome","zip":"LV-5674"},"lejas sētas - 6":{"address":"Lejas sētas - 6","city":"Vecdome","zip":"LV-5674"},"lejas sētas - 7":{"address":"Lejas sētas - 7","city":"Vecdome","zip":"LV-5674"},"lejas sētas - 8":{"address":"Lejas sētas - 8","city":"Vecdome","zip":"LV-5674"},"lejas sētas - 9":{"address":"Lejas sētas - 9","city":"Vecdome","zip":"LV-5674"},"lejas sētas - 10":{"address":"Lejas sētas - 10","city":"Vecdome","zip":"LV-5674"},"lejas sētas - 11":{"address":"Lejas sētas - 11","city":"Vecdome","zip":"LV-5674"},"lejas sētas - 12":{"address":"Lejas sētas - 12","city":"Vecdome","zip":"LV-5674"},"lejas sētas - 13":{"address":"Lejas sētas - 13","city":"Vecdome","zip":"LV-5674"},"lejas sētas - 14":{"address":"Lejas sētas - 14","city":"Vecdome","zip":"LV-5674"},"lejas sētas - 15":{"address":"Lejas sētas - 15","city":"Vecdome","zip":"LV-5674"},"lejas sētas - 16":{"address":"Lejas sētas - 16","city":"Vecdome","zip":"LV-5674"},"lejas sētas - 17":{"address":"Lejas sētas - 17","city":"Vecdome","zip":"LV-5674"},"lejas sētas - 18":{"address":"Lejas sētas - 18","city":"Vecdome","zip":"LV-5674"},"sētas":{"address":"Sētas","city":"Lukštāni","zip":"LV-5660"},"sētas māja":{"address":"Sētas māja","city":"Mizovski","zip":"LV-5325"},"lejas sētas":{"address":"Lejas sētas","city":"Vecdome","zip":"LV-5674"},"jāņu sētas":{"address":"Jāņu sētas","city":"Pirmie Zukuliški","zip":"LV-5671"}}