{"sēļi - 1":{"address":"Sēļi - 1","city":"Pilsrundāle","zip":"LV-3921"},"sēļi - 2":{"address":"Sēļi - 2","city":"Pilsrundāle","zip":"LV-3921"},"sēļi - 3":{"address":"Sēļi - 3","city":"Pilsrundāle","zip":"LV-3921"},"sēļi - 4":{"address":"Sēļi - 4","city":"Pilsrundāle","zip":"LV-3921"},"sēļi - 5":{"address":"Sēļi - 5","city":"Pilsrundāle","zip":"LV-3921"},"sēļi - 6":{"address":"Sēļi - 6","city":"Pilsrundāle","zip":"LV-3921"},"sēļi - 7":{"address":"Sēļi - 7","city":"Pilsrundāle","zip":"LV-3921"},"sēļi - 8":{"address":"Sēļi - 8","city":"Sēļi","zip":"LV-4213"},"atmodas - 1":{"address":"Atmodas - 1","city":"Sēļi","zip":"LV-4213"},"atmodas - 2":{"address":"Atmodas - 2","city":"Sēļi","zip":"LV-4213"},"atmodas - 3":{"address":"Atmodas - 3","city":"Sēļi","zip":"LV-4213"},"atmodas - 4":{"address":"Atmodas - 4","city":"Sēļi","zip":"LV-4213"},"atmodas - 5":{"address":"Atmodas - 5","city":"Sēļi","zip":"LV-4213"},"atmodas - 6":{"address":"Atmodas - 6","city":"Sēļi","zip":"LV-4213"},"atmodas - 7":{"address":"Atmodas - 7","city":"Sēļi","zip":"LV-4213"},"atmodas - 8":{"address":"Atmodas - 8","city":"Sēļi","zip":"LV-4213"},"atmodas - 9":{"address":"Atmodas - 9","city":"Sēļi","zip":"LV-4213"},"atmodas - 10":{"address":"Atmodas - 10","city":"Sēļi","zip":"LV-4213"},"atmodas - 11":{"address":"Atmodas - 11","city":"Sēļi","zip":"LV-4213"},"atmodas - 12":{"address":"Atmodas - 12","city":"Sēļi","zip":"LV-4213"},"atmodas - 13":{"address":"Atmodas - 13","city":"Sēļi","zip":"LV-4213"},"atmodas - 14":{"address":"Atmodas - 14","city":"Sēļi","zip":"LV-4213"},"atmodas - 15":{"address":"Atmodas - 15","city":"Sēļi","zip":"LV-4213"},"atmodas - 16":{"address":"Atmodas - 16","city":"Sēļi","zip":"LV-4213"},"dārziņi - 1":{"address":"Dārziņi - 1","city":"Sēļi","zip":"LV-4213"},"dārziņi - 2":{"address":"Dārziņi - 2","city":"Sēļi","zip":"LV-4213"},"dārziņi - 3":{"address":"Dārziņi - 3","city":"Sēļi","zip":"LV-4213"},"dārziņi - 4":{"address":"Dārziņi - 4","city":"Sēļi","zip":"LV-4213"},"druvas - 1":{"address":"Druvas - 1","city":"Sēļi","zip":"LV-4213"},"druvas - 2":{"address":"Druvas - 2","city":"Sēļi","zip":"LV-4213"},"druvas - 3":{"address":"Druvas - 3","city":"Sēļi","zip":"LV-4213"},"druvas - 4":{"address":"Druvas - 4","city":"Sēļi","zip":"LV-4213"},"druvas - 5":{"address":"Druvas - 5","city":"Sēļi","zip":"LV-4213"},"druvas - 6":{"address":"Druvas - 6","city":"Sēļi","zip":"LV-4213"},"druvas - 7":{"address":"Druvas - 7","city":"Sēļi","zip":"LV-4213"},"druvas - 8":{"address":"Druvas - 8","city":"Sēļi","zip":"LV-4213"},"druvas - 9":{"address":"Druvas - 9","city":"Sēļi","zip":"LV-4213"},"druvas - 10":{"address":"Druvas - 10","city":"Sēļi","zip":"LV-4213"},"druvas - 11":{"address":"Druvas - 11","city":"Sēļi","zip":"LV-4213"},"druvas - 12":{"address":"Druvas - 12","city":"Sēļi","zip":"LV-4213"},"druvas - 13":{"address":"Druvas - 13","city":"Sēļi","zip":"LV-4213"},"druvas - 14":{"address":"Druvas - 14","city":"Sēļi","zip":"LV-4213"},"druvas - 15":{"address":"Druvas - 15","city":"Sēļi","zip":"LV-4213"},"druvas - 16":{"address":"Druvas - 16","city":"Sēļi","zip":"LV-4213"},"druvas - 17":{"address":"Druvas - 17","city":"Sēļi","zip":"LV-4213"},"druvas - 18":{"address":"Druvas - 18","city":"Sēļi","zip":"LV-4213"},"kaļķi 2 - 1":{"address":"Kaļķi 2 - 1","city":"Sēļi","zip":"LV-4213"},"kaļķi 2 - 2":{"address":"Kaļķi 2 - 2","city":"Sēļi","zip":"LV-4213"},"kaļķi 2 - 3":{"address":"Kaļķi 2 - 3","city":"Sēļi","zip":"LV-4213"},"kaļķi 2 - 4":{"address":"Kaļķi 2 - 4","city":"Sēļi","zip":"LV-4213"},"kaļķi 2 - 5":{"address":"Kaļķi 2 - 5","city":"Sēļi","zip":"LV-4213"},"kaļķi 2 - 6":{"address":"Kaļķi 2 - 6","city":"Sēļi","zip":"LV-4213"},"kaļķi 2 - 7":{"address":"Kaļķi 2 - 7","city":"Sēļi","zip":"LV-4213"},"kaļķi 2 - 8":{"address":"Kaļķi 2 - 8","city":"Sēļi","zip":"LV-4213"},"kaļķi 1 - 1":{"address":"Kaļķi 1 - 1","city":"Sēļi","zip":"LV-4213"},"kaļķi 1 - 2":{"address":"Kaļķi 1 - 2","city":"Sēļi","zip":"LV-4213"},"kaļķi 1 - 3":{"address":"Kaļķi 1 - 3","city":"Sēļi","zip":"LV-4213"},"kaļķi 1 - 4":{"address":"Kaļķi 1 - 4","city":"Sēļi","zip":"LV-4213"},"sēļi - 9":{"address":"Sēļi - 9","city":"Pilsrundāle","zip":"LV-3921"},"sēļi - 10":{"address":"Sēļi - 10","city":"Pilsrundāle","zip":"LV-3921"},"sēļi - 11":{"address":"Sēļi - 11","city":"Pilsrundāle","zip":"LV-3921"},"sēļi - 12":{"address":"Sēļi - 12","city":"Pilsrundāle","zip":"LV-3921"},"sēļi - 13":{"address":"Sēļi - 13","city":"Pilsrundāle","zip":"LV-3921"},"sēļi - 14":{"address":"Sēļi - 14","city":"Pilsrundāle","zip":"LV-3921"},"sēļi - 15":{"address":"Sēļi - 15","city":"Pilsrundāle","zip":"LV-3921"},"sēļi - 16":{"address":"Sēļi - 16","city":"Pilsrundāle","zip":"LV-3921"},"sēļi - 17":{"address":"Sēļi - 17","city":"Pilsrundāle","zip":"LV-3921"},"sēļi - 18":{"address":"Sēļi - 18","city":"Pilsrundāle","zip":"LV-3921"},"sēļi - 19":{"address":"Sēļi - 19","city":"Pilsrundāle","zip":"LV-3921"},"sēļi - 20":{"address":"Sēļi - 20","city":"Pilsrundāle","zip":"LV-3921"},"sēļi - 21":{"address":"Sēļi - 21","city":"Pilsrundāle","zip":"LV-3921"},"sēļi - 22":{"address":"Sēļi - 22","city":"Pilsrundāle","zip":"LV-3921"},"sēļi - 23":{"address":"Sēļi - 23","city":"Pilsrundāle","zip":"LV-3921"},"sēļi - 24":{"address":"Sēļi - 24","city":"Pilsrundāle","zip":"LV-3921"},"sēļi - 25":{"address":"Sēļi - 25","city":"Pilsrundāle","zip":"LV-3921"},"sēļi - 26":{"address":"Sēļi - 26","city":"Pilsrundāle","zip":"LV-3921"},"sēļi - 27":{"address":"Sēļi - 27","city":"Pilsrundāle","zip":"LV-3921"},"sēlieši - 1":{"address":"Sēlieši - 1","city":"Villasmuiža","zip":"LV-2135"},"sēlieši - 2":{"address":"Sēlieši - 2","city":"Villasmuiža","zip":"LV-2135"},"sudrabkalna iela 1 - 3":{"address":"Sudrabkalna iela 1 - 3","city":"Sēlija","zip":"LV-5232"}}