{"tenisa klubs - 1":{"address":"Tenisa Klubs - 1","city":"Ezernieki","zip":"LV-5692"},"tenisa klubs - 2":{"address":"Tenisa Klubs - 2","city":"Ezernieki","zip":"LV-5692"},"tenisa klubs - 3":{"address":"Tenisa Klubs - 3","city":"Ezernieki","zip":"LV-5692"},"tenisa klubs - 4":{"address":"Tenisa Klubs - 4","city":"Ezernieki","zip":"LV-5692"},"tenisa klubs - 5":{"address":"Tenisa Klubs - 5","city":"Ezernieki","zip":"LV-5692"},"tenisa klubs - 6":{"address":"Tenisa Klubs - 6","city":"Ezernieki","zip":"LV-5692"},"tenisa klubs - 7":{"address":"Tenisa Klubs - 7","city":"Ezernieki","zip":"LV-5692"},"tenisa klubs - 8":{"address":"Tenisa Klubs - 8","city":"Ezernieki","zip":"LV-5692"},"tenisa klubs - 9":{"address":"Tenisa Klubs - 9","city":"Ezernieki","zip":"LV-5692"},"tenisa klubs - 10":{"address":"Tenisa Klubs - 10","city":"Ezernieki","zip":"LV-5692"},"tenisa klubs - 11":{"address":"Tenisa Klubs - 11","city":"Ezernieki","zip":"LV-5692"},"tenisa klubs - 12":{"address":"Tenisa Klubs - 12","city":"Ezernieki","zip":"LV-5692"},"tenisa klubs - 13":{"address":"Tenisa Klubs - 13","city":"Ezernieki","zip":"LV-5692"},"tenisa klubs - 14":{"address":"Tenisa Klubs - 14","city":"Ezernieki","zip":"LV-5692"},"tenisa klubs - 15":{"address":"Tenisa Klubs - 15","city":"Ezernieki","zip":"LV-5692"},"tenisa klubs - 16":{"address":"Tenisa Klubs - 16","city":"Ezernieki","zip":"LV-5692"},"tenisa klubs - 17":{"address":"Tenisa Klubs - 17","city":"Ezernieki","zip":"LV-5692"},"tenisa klubs - 18":{"address":"Tenisa Klubs - 18","city":"Ezernieki","zip":"LV-5692"},"tenisa klubs 1 - 1":{"address":"Tenisa Klubs 1 - 1","city":"Ezernieki","zip":"LV-5692"},"tenisa klubs 1 - 2":{"address":"Tenisa Klubs 1 - 2","city":"Ezernieki","zip":"LV-5692"},"tenisa klubs 1 - 3":{"address":"Tenisa Klubs 1 - 3","city":"Ezernieki","zip":"LV-5692"},"tenisa klubs 1 - 4":{"address":"Tenisa Klubs 1 - 4","city":"Ezernieki","zip":"LV-5692"},"tenisa klubs 1 - 5":{"address":"Tenisa Klubs 1 - 5","city":"Ezernieki","zip":"LV-5692"},"tenisa klubs 1 - 6":{"address":"Tenisa Klubs 1 - 6","city":"Ezernieki","zip":"LV-5692"},"tenisa klubs 1 - 7":{"address":"Tenisa Klubs 1 - 7","city":"Ezernieki","zip":"LV-5692"},"tenisa klubs 1 - 8":{"address":"Tenisa Klubs 1 - 8","city":"Ezernieki","zip":"LV-5692"},"tenisa klubs 1 - 9":{"address":"Tenisa Klubs 1 - 9","city":"Ezernieki","zip":"LV-5692"},"tenisa klubs 1 - 10":{"address":"Tenisa Klubs 1 - 10","city":"Ezernieki","zip":"LV-5692"},"tenisa klubs 1 - 11":{"address":"Tenisa Klubs 1 - 11","city":"Ezernieki","zip":"LV-5692"},"tenisa klubs 1 - 12":{"address":"Tenisa Klubs 1 - 12","city":"Ezernieki","zip":"LV-5692"},"tenisa klubs 1 - 13":{"address":"Tenisa Klubs 1 - 13","city":"Ezernieki","zip":"LV-5692"},"tenisa klubs 1 - 14":{"address":"Tenisa Klubs 1 - 14","city":"Ezernieki","zip":"LV-5692"},"tenisa klubs 1 - 15":{"address":"Tenisa Klubs 1 - 15","city":"Ezernieki","zip":"LV-5692"},"tenisa klubs 1 - 16":{"address":"Tenisa Klubs 1 - 16","city":"Ezernieki","zip":"LV-5692"},"tenisa klubs 1 - 17":{"address":"Tenisa Klubs 1 - 17","city":"Ezernieki","zip":"LV-5692"},"tenisa klubs 1 - 18":{"address":"Tenisa Klubs 1 - 18","city":"Ezernieki","zip":"LV-5692"},"tenisa klubs 1 - 19":{"address":"Tenisa Klubs 1 - 19","city":"Ezernieki","zip":"LV-5692"},"tenisa klubs 1 - 20":{"address":"Tenisa Klubs 1 - 20","city":"Ezernieki","zip":"LV-5692"},"tenisa klubs 1 - 21":{"address":"Tenisa Klubs 1 - 21","city":"Ezernieki","zip":"LV-5692"},"tenisa klubs 1":{"address":"Tenisa Klubs 1","city":"Ezernieki","zip":"LV-5692"},"tenisa klubs":{"address":"Tenisa Klubs","city":"Ezernieki","zip":"LV-5692"}}