{"apsītes - 1":{"address":"Apsītes - 1","city":"Tjapši","zip":"LV-5733"},"apsītes - 2":{"address":"Apsītes - 2","city":"Tjapši","zip":"LV-5733"},"aļona":{"address":"Aļona","city":"Tjapši","zip":"LV-5733"},"andžela":{"address":"Andžela","city":"Tjapši","zip":"LV-5733"},"ziemeļi":{"address":"Ziemeļi","city":"Tjapši","zip":"LV-5733"},"lejaskalni":{"address":"Lejaskalni","city":"Tjapši","zip":"LV-5733"},"tjapši":{"address":"Tjapši","city":"Poļu Gorbuni","zip":"LV-5716"},"upītes":{"address":"Upītes","city":"Tjapši","zip":"LV-5733"},"zaicevi":{"address":"Zaicevi","city":"Tjapši","zip":"LV-5733"},"papeles":{"address":"Papeles","city":"Tjapši","zip":"LV-5733"},"stabiņi":{"address":"Stabiņi","city":"Tjapši","zip":"LV-5733"},"apsītes":{"address":"Apsītes","city":"Tjapši","zip":"LV-5733"},"arāji":{"address":"Arāji","city":"Tjapši","zip":"LV-5733"},"čiekurkalni":{"address":"Čiekurkalni","city":"Tjapši","zip":"LV-5733"},"fermeri":{"address":"Fermeri","city":"Tjapši","zip":"LV-5733"},"mežciemi":{"address":"Mežciemi","city":"Tjapši","zip":"LV-5733"}}