{"trīsdesmit ceturtā iela 34":{"address":"Trīsdesmit ceturtā iela 34","city":"Šķēde","zip":"LV-3461"},"trīsdesmit ceturtā iela 46":{"address":"Trīsdesmit ceturtā iela 46","city":"Šķēde","zip":"LV-3461"},"trīsdesmit ceturtā iela 39":{"address":"Trīsdesmit ceturtā iela 39","city":"Šķēde","zip":"LV-3461"},"trīsdesmit ceturtā iela 31":{"address":"Trīsdesmit ceturtā iela 31","city":"Šķēde","zip":"LV-3461"},"trīsdesmit ceturtā iela 32":{"address":"Trīsdesmit ceturtā iela 32","city":"Šķēde","zip":"LV-3461"},"trīsdesmit ceturtā iela 20":{"address":"Trīsdesmit ceturtā iela 20","city":"Šķēde","zip":"LV-3461"},"trīsdesmit ceturtā iela 29":{"address":"Trīsdesmit ceturtā iela 29","city":"Šķēde","zip":"LV-3461"},"trīsdesmit ceturtā iela 22":{"address":"Trīsdesmit ceturtā iela 22","city":"Šķēde","zip":"LV-3461"},"trīsdesmit ceturtā iela 23":{"address":"Trīsdesmit ceturtā iela 23","city":"Šķēde","zip":"LV-3461"},"trīsdesmit ceturtā iela 24":{"address":"Trīsdesmit ceturtā iela 24","city":"Šķēde","zip":"LV-3461"},"trīsdesmit ceturtā iela 25":{"address":"Trīsdesmit ceturtā iela 25","city":"Šķēde","zip":"LV-3461"},"trīsdesmit ceturtā iela 12":{"address":"Trīsdesmit ceturtā iela 12","city":"Šķēde","zip":"LV-3461"},"trīsdesmit ceturtā iela 13":{"address":"Trīsdesmit ceturtā iela 13","city":"Šķēde","zip":"LV-3461"},"trīsdesmit ceturtā iela 14":{"address":"Trīsdesmit ceturtā iela 14","city":"Šķēde","zip":"LV-3461"},"trīsdesmit ceturtā iela 15":{"address":"Trīsdesmit ceturtā iela 15","city":"Šķēde","zip":"LV-3461"},"trīsdesmit ceturtā iela 16":{"address":"Trīsdesmit ceturtā iela 16","city":"Šķēde","zip":"LV-3461"},"trīsdesmit ceturtā iela 17":{"address":"Trīsdesmit ceturtā iela 17","city":"Šķēde","zip":"LV-3461"},"trīsdesmit ceturtā iela 18":{"address":"Trīsdesmit ceturtā iela 18","city":"Šķēde","zip":"LV-3461"},"trīsdesmit ceturtā iela 4":{"address":"Trīsdesmit ceturtā iela 4","city":"Šķēde","zip":"LV-3461"},"trīsdesmit ceturtā iela 5":{"address":"Trīsdesmit ceturtā iela 5","city":"Šķēde","zip":"LV-3461"},"trīsdesmit ceturtā iela 6":{"address":"Trīsdesmit ceturtā iela 6","city":"Šķēde","zip":"LV-3461"},"trīsdesmit ceturtā iela 7":{"address":"Trīsdesmit ceturtā iela 7","city":"Šķēde","zip":"LV-3461"},"trīsdesmit ceturtā iela 8":{"address":"Trīsdesmit ceturtā iela 8","city":"Šķēde","zip":"LV-3461"},"trīsdesmit ceturtā iela 9":{"address":"Trīsdesmit ceturtā iela 9","city":"Šķēde","zip":"LV-3461"},"trīsdesmit ceturtā iela 10":{"address":"Trīsdesmit ceturtā iela 10","city":"Šķēde","zip":"LV-3461"},"trīsdesmit ceturtā iela 1":{"address":"Trīsdesmit ceturtā iela 1","city":"Šķēde","zip":"LV-3461"},"trīsdesmit ceturtā iela 2":{"address":"Trīsdesmit ceturtā iela 2","city":"Šķēde","zip":"LV-3461"},"trīsdesmit otrā iela 28":{"address":"Trīsdesmit otrā iela 28","city":"Šķēde","zip":"LV-3461"},"trīsdesmit otrā iela 40":{"address":"Trīsdesmit otrā iela 40","city":"Šķēde","zip":"LV-3461"},"trīsdesmit otrā iela 42":{"address":"Trīsdesmit otrā iela 42","city":"Šķēde","zip":"LV-3461"},"trīsdesmit otrā iela 44":{"address":"Trīsdesmit otrā iela 44","city":"Šķēde","zip":"LV-3461"},"trīsdesmit otrā iela 31":{"address":"Trīsdesmit otrā iela 31","city":"Šķēde","zip":"LV-3461"},"trīsdesmit otrā iela 33":{"address":"Trīsdesmit otrā iela 33","city":"Šķēde","zip":"LV-3461"},"trīsdesmit otrā iela 25":{"address":"Trīsdesmit otrā iela 25","city":"Šķēde","zip":"LV-3461"},"trīsdesmit otrā iela 26":{"address":"Trīsdesmit otrā iela 26","city":"Šķēde","zip":"LV-3461"},"trīsdesmit otrā iela 27":{"address":"Trīsdesmit otrā iela 27","city":"Šķēde","zip":"LV-3461"},"trīsdesmit otrā iela 18":{"address":"Trīsdesmit otrā iela 18","city":"Šķēde","zip":"LV-3461"},"trīsdesmit otrā iela 19":{"address":"Trīsdesmit otrā iela 19","city":"Šķēde","zip":"LV-3461"},"trīsdesmit otrā iela 21":{"address":"Trīsdesmit otrā iela 21","city":"Šķēde","zip":"LV-3461"},"trīsdesmit otrā iela 22":{"address":"Trīsdesmit otrā iela 22","city":"Šķēde","zip":"LV-3461"},"trīsdesmit otrā iela 23":{"address":"Trīsdesmit otrā iela 23","city":"Šķēde","zip":"LV-3461"},"trīsdesmit otrā iela 11":{"address":"Trīsdesmit otrā iela 11","city":"Šķēde","zip":"LV-3461"},"trīsdesmit otrā iela 13":{"address":"Trīsdesmit otrā iela 13","city":"Šķēde","zip":"LV-3461"},"trīsdesmit otrā iela 14":{"address":"Trīsdesmit otrā iela 14","city":"Šķēde","zip":"LV-3461"},"trīsdesmit otrā iela 5":{"address":"Trīsdesmit otrā iela 5","city":"Šķēde","zip":"LV-3461"},"trīsdesmit otrā iela 6":{"address":"Trīsdesmit otrā iela 6","city":"Šķēde","zip":"LV-3461"},"trīsdesmit otrā iela 7":{"address":"Trīsdesmit otrā iela 7","city":"Šķēde","zip":"LV-3461"},"trīsdesmit otrā iela 8":{"address":"Trīsdesmit otrā iela 8","city":"Šķēde","zip":"LV-3461"},"trīsdesmit otrā iela 1":{"address":"Trīsdesmit otrā iela 1","city":"Šķēde","zip":"LV-3461"},"trīsdesmit otrā iela 2":{"address":"Trīsdesmit otrā iela 2","city":"Šķēde","zip":"LV-3461"},"trīsdesmit otrā iela 3":{"address":"Trīsdesmit otrā iela 3","city":"Šķēde","zip":"LV-3461"},"trīsdesmit piektā iela 45":{"address":"Trīsdesmit piektā iela 45","city":"Šķēde","zip":"LV-3461"},"trīsdesmit piektā iela 42":{"address":"Trīsdesmit piektā iela 42","city":"Šķēde","zip":"LV-3461"},"trīsdesmit piektā iela 40":{"address":"Trīsdesmit piektā iela 40","city":"Šķēde","zip":"LV-3461"},"trīsdesmit piektā iela 37":{"address":"Trīsdesmit piektā iela 37","city":"Šķēde","zip":"LV-3461"},"trīsdesmit piektā iela 38":{"address":"Trīsdesmit piektā iela 38","city":"Šķēde","zip":"LV-3461"},"trīsdesmit piektā iela 35":{"address":"Trīsdesmit piektā iela 35","city":"Šķēde","zip":"LV-3461"},"trīsdesmit piektā iela 33":{"address":"Trīsdesmit piektā iela 33","city":"Šķēde","zip":"LV-3461"},"trīsdesmit piektā iela 31":{"address":"Trīsdesmit piektā iela 31","city":"Šķēde","zip":"LV-3461"},"trīsdesmit piektā iela 26":{"address":"Trīsdesmit piektā iela 26","city":"Šķēde","zip":"LV-3461"},"trīsdesmit piektā iela 27":{"address":"Trīsdesmit piektā iela 27","city":"Šķēde","zip":"LV-3461"},"trīsdesmit piektā iela 28":{"address":"Trīsdesmit piektā iela 28","city":"Šķēde","zip":"LV-3461"},"trīsdesmit piektā iela 1":{"address":"Trīsdesmit piektā iela 1","city":"Pabaži","zip":"LV-2160"},"trīsdesmit piektā iela 1a":{"address":"Trīsdesmit piektā iela 1A","city":"Šķēde","zip":"LV-3461"},"trīsdesmit piektā iela 2":{"address":"Trīsdesmit piektā iela 2","city":"Pabaži","zip":"LV-2160"},"trīsdesmit piektā iela 3":{"address":"Trīsdesmit piektā iela 3","city":"Pabaži","zip":"LV-2160"},"trīsdesmit piektā iela 4":{"address":"Trīsdesmit piektā iela 4","city":"Pabaži","zip":"LV-2160"},"trīsdesmit piektā iela 5":{"address":"Trīsdesmit piektā iela 5","city":"Pabaži","zip":"LV-2160"},"trīsdesmit piektā iela 6":{"address":"Trīsdesmit piektā iela 6","city":"Šķēde","zip":"LV-3461"},"trīsdesmit piektā iela 7":{"address":"Trīsdesmit piektā iela 7","city":"Pabaži","zip":"LV-2160"},"trīsdesmit piektā iela 8":{"address":"Trīsdesmit piektā iela 8","city":"Pabaži","zip":"LV-2160"},"trīsdesmit piektā iela 9":{"address":"Trīsdesmit piektā iela 9","city":"Pabaži","zip":"LV-2160"},"trīsdesmit piektā iela 10":{"address":"Trīsdesmit piektā iela 10","city":"Pabaži","zip":"LV-2160"},"trīsdesmit piektā iela 11":{"address":"Trīsdesmit piektā iela 11","city":"Šķēde","zip":"LV-3461"},"trīsdesmit piektā iela 12":{"address":"Trīsdesmit piektā iela 12","city":"Šķēde","zip":"LV-3461"},"trīsdesmit piektā iela 13":{"address":"Trīsdesmit piektā iela 13","city":"Šķēde","zip":"LV-3461"},"trīsdesmit piektā iela 14":{"address":"Trīsdesmit piektā iela 14","city":"Šķēde","zip":"LV-3461"},"trīsdesmit piektā iela 15":{"address":"Trīsdesmit piektā iela 15","city":"Šķēde","zip":"LV-3461"},"trīsdesmit piektā iela 16":{"address":"Trīsdesmit piektā iela 16","city":"Šķēde","zip":"LV-3461"},"trīsdesmit piektā iela 17":{"address":"Trīsdesmit piektā iela 17","city":"Šķēde","zip":"LV-3461"},"trīsdesmit piektā iela 18":{"address":"Trīsdesmit piektā iela 18","city":"Šķēde","zip":"LV-3461"},"trīsdesmit piektā iela 19":{"address":"Trīsdesmit piektā iela 19","city":"Šķēde","zip":"LV-3461"},"trīsdesmit piektā iela 20":{"address":"Trīsdesmit piektā iela 20","city":"Šķēde","zip":"LV-3461"},"trīsdesmit piektā iela 21":{"address":"Trīsdesmit piektā iela 21","city":"Šķēde","zip":"LV-3461"},"trīsdesmit piektā iela 22":{"address":"Trīsdesmit piektā iela 22","city":"Šķēde","zip":"LV-3461"},"trīsdesmit piektā iela 23":{"address":"Trīsdesmit piektā iela 23","city":"Šķēde","zip":"LV-3461"},"trīsdesmit piektā iela 6b":{"address":"Trīsdesmit piektā iela 6B","city":"Pabaži","zip":"LV-2160"},"trīsdesmit piektā iela 6a":{"address":"Trīsdesmit piektā iela 6A","city":"Pabaži","zip":"LV-2160"},"trīsdesmit pirmā iela 31":{"address":"Trīsdesmit pirmā iela 31","city":"Šķēde","zip":"LV-3461"},"trīsdesmit pirmā iela 18":{"address":"Trīsdesmit pirmā iela 18","city":"Šķēde","zip":"LV-3461"},"trīsdesmit pirmā iela 19":{"address":"Trīsdesmit pirmā iela 19","city":"Šķēde","zip":"LV-3461"}}