{"tulpes - 1":{"address":"Tulpes - 1","city":"Ezernieki","zip":"LV-5692"},"tulpes - 2":{"address":"Tulpes - 2","city":"Ezernieki","zip":"LV-5692"},"tulpes - 3":{"address":"Tulpes - 3","city":"Ezernieki","zip":"LV-5692"},"tulpes - 4":{"address":"Tulpes - 4","city":"Ezernieki","zip":"LV-5692"},"tulpes - 5":{"address":"Tulpes - 5","city":"Ezernieki","zip":"LV-5692"},"tulpes - 6":{"address":"Tulpes - 6","city":"Ezernieki","zip":"LV-5692"},"tulpes - 7":{"address":"Tulpes - 7","city":"Ezernieki","zip":"LV-5692"},"tulpes - 8":{"address":"Tulpes - 8","city":"Ezernieki","zip":"LV-5692"},"tulpes - 9":{"address":"Tulpes - 9","city":"Ezernieki","zip":"LV-5692"},"tulpes - 10":{"address":"Tulpes - 10","city":"Ezernieki","zip":"LV-5692"},"tulpes - 11":{"address":"Tulpes - 11","city":"Ezernieki","zip":"LV-5692"},"tulpes - 12":{"address":"Tulpes - 12","city":"Ezernieki","zip":"LV-5692"},"tulpes - 13":{"address":"Tulpes - 13","city":"Pastende","zip":"LV-3251"},"tulpes - 14":{"address":"Tulpes - 14","city":"Pastende","zip":"LV-3251"},"tulpes - 15":{"address":"Tulpes - 15","city":"Pastende","zip":"LV-3251"},"tulpes - 16":{"address":"Tulpes - 16","city":"Pastende","zip":"LV-3251"},"tulpes - 17":{"address":"Tulpes - 17","city":"Pastende","zip":"LV-3251"},"tulpes - 18":{"address":"Tulpes - 18","city":"Pastende","zip":"LV-3251"},"tulpes - 19":{"address":"Tulpes - 19","city":"Pastende","zip":"LV-3251"},"tulpes - 20":{"address":"Tulpes - 20","city":"Pastende","zip":"LV-3251"},"tulpes - 21":{"address":"Tulpes - 21","city":"Vandzene","zip":"LV-3281"},"tulpes - 1a":{"address":"Tulpes - 1A","city":"Pastende","zip":"LV-3251"},"tulpes":{"address":"Tulpes","city":"Evertova","zip":"LV-5735"}}