{"tuči - 3":{"address":"Tuči - 3","city":"Standzes ciems","zip":"LV-3621"},"tuči - 4":{"address":"Tuči - 4","city":"Standzes ciems","zip":"LV-3621"},"tuči - 1":{"address":"Tuči - 1","city":"Standzes ciems","zip":"LV-3621"},"pētera māja - 1":{"address":"Pētera māja - 1","city":"Tuči","zip":"LV-4601"},"pētera māja - 2":{"address":"Pētera māja - 2","city":"Tuči","zip":"LV-4601"},"tuči":{"address":"Tuči","city":"Zači","zip":"LV-4619"},"vēri":{"address":"Vēri","city":"Tuči","zip":"LV-4601"},"vārpas":{"address":"Vārpas","city":"Tuči","zip":"LV-4601"},"lācīšu mājas":{"address":"Lācīšu mājas","city":"Tuči","zip":"LV-4601"},"jevģēnijs":{"address":"Jevģēnijs","city":"Tuči","zip":"LV-4601"},"pūdnieki":{"address":"Pūdnieki","city":"Tuči","zip":"LV-4601"},"viszinīši":{"address":"Viszinīši","city":"Tuči","zip":"LV-4636"},"juškeviči":{"address":"Juškeviči","city":"Lielie Tuči","zip":"LV-4628"},"ausma":{"address":"Ausma","city":"Tuči","zip":"LV-4601"},"liepu sāta":{"address":"Liepu sāta","city":"Tuči","zip":"LV-4601"},"pētera māja":{"address":"Pētera māja","city":"Tuči","zip":"LV-4601"},"dzirnieki":{"address":"Dzirnieki","city":"Tuči","zip":"LV-4636"},"kaijiņa":{"address":"Kaijiņa","city":"Tuči","zip":"LV-4636"},"mākonīši":{"address":"Mākonīši","city":"Tuči","zip":"LV-4601"},"turku mājas":{"address":"Turku mājas","city":"Tuči","zip":"LV-4601"},"laizāni":{"address":"Laizāni","city":"Tuči","zip":"LV-4601"},"ievu tuči":{"address":"Ievu Tuči","city":"Lielie Tuči","zip":"LV-4628"},"goleņi":{"address":"Goleņi","city":"Lielie Tuči","zip":"LV-4628"},"robežnieki":{"address":"Robežnieki","city":"Tuči","zip":"LV-4636"},"jaunkalēji":{"address":"Jaunkalēji","city":"Tuči","zip":"LV-4636"},"ķirši":{"address":"Ķirši","city":"Tuči","zip":"LV-4636"},"margrietas":{"address":"Margrietas","city":"Tuči","zip":"LV-4636"},"ilgsalieši":{"address":"Ilgsalieši","city":"Tuči","zip":"LV-4636"},"āres":{"address":"Āres","city":"Tuči","zip":"LV-4636"},"baltā māja":{"address":"Baltā māja","city":"Tuči","zip":"LV-4623"},"bravari":{"address":"Bravari","city":"Tuči","zip":"LV-4623"},"červjakovka":{"address":"Červjakovka","city":"Tuči","zip":"LV-4623"},"kaļvi":{"address":"Kaļvi","city":"Tuči","zip":"LV-4623"},"kastaņi":{"address":"Kastaņi","city":"Tuči","zip":"LV-4623"},"leonida":{"address":"Leonida","city":"Tuči","zip":"LV-4623"},"lielais":{"address":"Lielais","city":"Tuči","zip":"LV-4623"},"mežasara":{"address":"Mežasara","city":"Tuči","zip":"LV-4623"},"mihailovka":{"address":"Mihailovka","city":"Tuči","zip":"LV-4623"},"saulespuķes":{"address":"Saulespuķes","city":"Tuči","zip":"LV-4623"},"tomiņi":{"address":"Tomiņi","city":"Tuči","zip":"LV-4623"},"ozolāji":{"address":"Ozolāji","city":"Meža Tuči","zip":"LV-4628"},"pajumti":{"address":"Pajumti","city":"Meža Tuči","zip":"LV-4628"},"plienāji":{"address":"Plienāji","city":"Meža Tuči","zip":"LV-4628"},"ilgas":{"address":"Ilgas","city":"Meža Tuči","zip":"LV-4628"},"stirnas":{"address":"Stirnas","city":"Lielie Tuči","zip":"LV-4628"},"lielvirši":{"address":"Lielvirši","city":"Tuči","zip":"LV-4617"},"atvari":{"address":"Atvari","city":"Tuči","zip":"LV-4617"},"saules mājas":{"address":"Saules mājas","city":"Tuči","zip":"LV-4617"},"žagariene":{"address":"Žagariene","city":"Tuči","zip":"LV-4617"},"zaleski":{"address":"Zaleski","city":"Tuči","zip":"LV-4601"},"aizmeži":{"address":"Aizmeži","city":"Tuči","zip":"LV-4601"},"auzrope":{"address":"Auzrope","city":"Tuči","zip":"LV-4601"},"eduarda mājas":{"address":"Eduarda mājas","city":"Tuči","zip":"LV-4601"},"edvarda mājas":{"address":"Edvarda mājas","city":"Tuči","zip":"LV-4601"},"grāvjkalni":{"address":"Grāvjkalni","city":"Tuči","zip":"LV-4601"},"irbes":{"address":"Irbes","city":"Tuči","zip":"LV-4601"},"zalkši":{"address":"Zalkši","city":"Tuči","zip":"LV-4601"},"lejas tuči":{"address":"Lejas Tuči","city":"Tuči","zip":"LV-4601"},"mosāni":{"address":"Mosāni","city":"Tuči","zip":"LV-4601"},"mūsmājas":{"address":"Mūsmājas","city":"Tuči","zip":"LV-4601"},"pauguri":{"address":"Pauguri","city":"Tuči","zip":"LV-4601"},"priedītes mājas":{"address":"Priedītes mājas","city":"Tuči","zip":"LV-4601"},"skutāni":{"address":"Skutāni","city":"Tuči","zip":"LV-4601"}}