{"tūjas - 1":{"address":"Tūjas - 1","city":"Ogresgals","zip":"LV-5041"},"tūjas - 2":{"address":"Tūjas - 2","city":"Ogresgals","zip":"LV-5041"},"tūjas - 3":{"address":"Tūjas - 3","city":"Ogresgals","zip":"LV-5041"},"tūjas - 4":{"address":"Tūjas - 4","city":"Ogresgals","zip":"LV-5041"},"tūjas - 5":{"address":"Tūjas - 5","city":"Dunava","zip":"LV-5216"},"tūjas - 1b":{"address":"Tūjas - 1B","city":"Bērzaine","zip":"LV-4208"},"tūjas - 6":{"address":"Tūjas - 6","city":"Dunava","zip":"LV-5216"},"tūjas - 7":{"address":"Tūjas - 7","city":"Dunava","zip":"LV-5216"},"tūjas - 8":{"address":"Tūjas - 8","city":"Dunava","zip":"LV-5216"},"tūjas":{"address":"Tūjas","city":"Mežāres","zip":"LV-2101"},"tūjas iela 11":{"address":"Tūjas iela 11","city":"Vārzas","zip":"LV-4025"},"tūjas iela 20":{"address":"Tūjas iela 20","city":"Vārzas","zip":"LV-4025"},"tūjas iela 18":{"address":"Tūjas iela 18","city":"Vārzas","zip":"LV-4025"},"tūjas iela 1":{"address":"Tūjas iela 1","city":"Dreiliņi","zip":"LV-2130"},"tūjas iela 2":{"address":"Tūjas iela 2","city":"Dreiliņi","zip":"LV-2130"},"tūjas iela 3":{"address":"Tūjas iela 3","city":"Dreiliņi","zip":"LV-2130"},"tūjas iela 4":{"address":"Tūjas iela 4","city":"Dreiliņi","zip":"LV-2130"},"tūjas iela 5":{"address":"Tūjas iela 5","city":"Dreiliņi","zip":"LV-2130"},"tūjas iela 6":{"address":"Tūjas iela 6","city":"Dreiliņi","zip":"LV-2130"}}