{"unguri - 1":{"address":"Unguri - 1","city":"Džūkste","zip":"LV-3147"},"unguri - 2":{"address":"Unguri - 2","city":"Džūkste","zip":"LV-3147"},"unguri":{"address":"Unguri","city":"Kozori","zip":"LV-4601"},"unguri b":{"address":"Unguri B","city":"Mārupe","zip":"LV-2167"},"lapsu kalni":{"address":"Lapsu kalni","city":"Lielie Unguri","zip":"LV-5656"},"mežmaļi":{"address":"Mežmaļi","city":"Lielie Unguri","zip":"LV-5656"},"aitiņas":{"address":"Aitiņas","city":"Lielie Unguri","zip":"LV-5656"},"lauras":{"address":"Lauras","city":"Lielie Unguri","zip":"LV-5656"},"unguriņi":{"address":"Unguriņi","city":"Ungurpils","zip":"LV-4064"},"sauleskalns":{"address":"Sauleskalns","city":"Lielie Unguri","zip":"LV-5656"},"kalnlejas":{"address":"Kalnlejas","city":"Mazie Unguri","zip":"LV-5656"},"ceriņi":{"address":"Ceriņi","city":"Lielie Unguri","zip":"LV-5656"},"dīva dorzi":{"address":"Dīva dorzi","city":"Lielie Unguri","zip":"LV-5656"},"dubiņkalni":{"address":"Dubiņkalni","city":"Lielie Unguri","zip":"LV-5656"},"dubiņkrasti":{"address":"Dubiņkrasti","city":"Lielie Unguri","zip":"LV-5656"},"dzeguzes":{"address":"Dzeguzes","city":"Lielie Unguri","zip":"LV-5656"},"dzegužmājas":{"address":"Dzegužmājas","city":"Lielie Unguri","zip":"LV-5656"},"līcīši":{"address":"Līcīši","city":"Lielie Unguri","zip":"LV-5656"},"mazirbes":{"address":"Mazirbes","city":"Lielie Unguri","zip":"LV-5656"},"pipari":{"address":"Pipari","city":"Lielie Unguri","zip":"LV-5656"},"priedāji":{"address":"Priedāji","city":"Lielie Unguri","zip":"LV-5656"},"priedes":{"address":"Priedes","city":"Lielie Unguri","zip":"LV-5656"},"rairīši":{"address":"Rairīši","city":"Lielie Unguri","zip":"LV-5656"},"rītiņi":{"address":"Rītiņi","city":"Lielie Unguri","zip":"LV-5656"},"saulīte":{"address":"Saulīte","city":"Lielie Unguri","zip":"LV-5656"},"saulkrasti":{"address":"Saulkrasti","city":"Lielie Unguri","zip":"LV-5656"},"uzkalniņi":{"address":"Uzkalniņi","city":"Lielie Unguri","zip":"LV-5656"},"viselova":{"address":"Viselova","city":"Lielie Unguri","zip":"LV-5656"},"alvīši":{"address":"Alvīši","city":"Mazie Unguri","zip":"LV-5656"},"bebriši":{"address":"Bebriši","city":"Mazie Unguri","zip":"LV-5656"},"strazdi":{"address":"Strazdi","city":"Mazie Unguri","zip":"LV-5656"}}