{"upeslejas - 1":{"address":"Upeslejas - 1","city":"Džūkste","zip":"LV-3147"},"upeslejas - 2":{"address":"Upeslejas - 2","city":"Džūkste","zip":"LV-3147"},"upeslejas - 3":{"address":"Upeslejas - 3","city":"Džūkste","zip":"LV-3147"},"upeslejas - 4":{"address":"Upeslejas - 4","city":"Džūkste","zip":"LV-3147"},"upeslejas - 5":{"address":"Upeslejas - 5","city":"Džūkste","zip":"LV-3147"},"upeslejas - 6":{"address":"Upeslejas - 6","city":"Džūkste","zip":"LV-3147"},"upeslejas - 7":{"address":"Upeslejas - 7","city":"Džūkste","zip":"LV-3147"},"upeslejas - 8":{"address":"Upeslejas - 8","city":"Džūkste","zip":"LV-3147"},"skolas iela 2 - 1":{"address":"Skolas iela 2 - 1","city":"Upeslejas","zip":"LV-2118"},"skolas iela 2 - 2":{"address":"Skolas iela 2 - 2","city":"Upeslejas","zip":"LV-2118"},"skolas iela 2 - 3":{"address":"Skolas iela 2 - 3","city":"Upeslejas","zip":"LV-2118"},"skolas iela 2 - 4":{"address":"Skolas iela 2 - 4","city":"Upeslejas","zip":"LV-2118"},"skolas iela 2 - 5":{"address":"Skolas iela 2 - 5","city":"Upeslejas","zip":"LV-2118"},"skolas iela 2 - 6":{"address":"Skolas iela 2 - 6","city":"Upeslejas","zip":"LV-2118"},"skolas iela 2 - 7":{"address":"Skolas iela 2 - 7","city":"Upeslejas","zip":"LV-2118"},"skolas iela 2 - 8":{"address":"Skolas iela 2 - 8","city":"Upeslejas","zip":"LV-2118"},"skolas iela 2 - 9":{"address":"Skolas iela 2 - 9","city":"Upeslejas","zip":"LV-2118"},"skolas iela 2 - 10":{"address":"Skolas iela 2 - 10","city":"Upeslejas","zip":"LV-2118"},"skolas iela 2 - 11":{"address":"Skolas iela 2 - 11","city":"Upeslejas","zip":"LV-2118"},"skolas iela 2 - 12":{"address":"Skolas iela 2 - 12","city":"Upeslejas","zip":"LV-2118"},"skolas iela 2 - 13":{"address":"Skolas iela 2 - 13","city":"Upeslejas","zip":"LV-2118"},"skolas iela 2 - 14":{"address":"Skolas iela 2 - 14","city":"Upeslejas","zip":"LV-2118"},"skolas iela 2 - 15":{"address":"Skolas iela 2 - 15","city":"Upeslejas","zip":"LV-2118"},"skolas iela 2 - 16":{"address":"Skolas iela 2 - 16","city":"Upeslejas","zip":"LV-2118"},"skolas iela 2 - 17":{"address":"Skolas iela 2 - 17","city":"Upeslejas","zip":"LV-2118"},"skolas iela 2 - 18":{"address":"Skolas iela 2 - 18","city":"Upeslejas","zip":"LV-2118"},"skolas iela 2 - 19":{"address":"Skolas iela 2 - 19","city":"Upeslejas","zip":"LV-2118"},"skolas iela 2 - 20":{"address":"Skolas iela 2 - 20","city":"Upeslejas","zip":"LV-2118"},"skolas iela 2 - 21":{"address":"Skolas iela 2 - 21","city":"Upeslejas","zip":"LV-2118"},"skolas iela 2 - 22":{"address":"Skolas iela 2 - 22","city":"Upeslejas","zip":"LV-2118"},"skolas iela 2 - 23":{"address":"Skolas iela 2 - 23","city":"Upeslejas","zip":"LV-2118"},"skolas iela 2 - 24":{"address":"Skolas iela 2 - 24","city":"Upeslejas","zip":"LV-2118"},"skolas iela 2 - 25":{"address":"Skolas iela 2 - 25","city":"Upeslejas","zip":"LV-2118"},"skolas iela 2 - 26":{"address":"Skolas iela 2 - 26","city":"Upeslejas","zip":"LV-2118"},"skolas iela 2 - 27":{"address":"Skolas iela 2 - 27","city":"Upeslejas","zip":"LV-2118"},"skolas iela 2 - 28":{"address":"Skolas iela 2 - 28","city":"Upeslejas","zip":"LV-2118"},"skolas iela 2 - 29":{"address":"Skolas iela 2 - 29","city":"Upeslejas","zip":"LV-2118"},"skolas iela 2 - 30":{"address":"Skolas iela 2 - 30","city":"Upeslejas","zip":"LV-2118"},"skolas iela 2 - 31":{"address":"Skolas iela 2 - 31","city":"Upeslejas","zip":"LV-2118"},"skolas iela 2 - 32":{"address":"Skolas iela 2 - 32","city":"Upeslejas","zip":"LV-2118"},"skolas iela 2 - 33":{"address":"Skolas iela 2 - 33","city":"Upeslejas","zip":"LV-2118"},"skolas iela 2 - 34":{"address":"Skolas iela 2 - 34","city":"Upeslejas","zip":"LV-2118"},"skolas iela 2 - 35":{"address":"Skolas iela 2 - 35","city":"Upeslejas","zip":"LV-2118"},"skolas iela 2 - 36":{"address":"Skolas iela 2 - 36","city":"Upeslejas","zip":"LV-2118"},"skolas iela 2 - 37":{"address":"Skolas iela 2 - 37","city":"Upeslejas","zip":"LV-2118"},"skolas iela 2 - 38":{"address":"Skolas iela 2 - 38","city":"Upeslejas","zip":"LV-2118"},"skolas iela 2 - 39":{"address":"Skolas iela 2 - 39","city":"Upeslejas","zip":"LV-2118"},"skolas iela 2 - 40":{"address":"Skolas iela 2 - 40","city":"Upeslejas","zip":"LV-2118"},"skolas iela 2 - 41":{"address":"Skolas iela 2 - 41","city":"Upeslejas","zip":"LV-2118"},"skolas iela 2 - 42":{"address":"Skolas iela 2 - 42","city":"Upeslejas","zip":"LV-2118"},"skolas iela 2 - 43":{"address":"Skolas iela 2 - 43","city":"Upeslejas","zip":"LV-2118"},"skolas iela 2 - 44":{"address":"Skolas iela 2 - 44","city":"Upeslejas","zip":"LV-2118"},"skolas iela 2 - 45":{"address":"Skolas iela 2 - 45","city":"Upeslejas","zip":"LV-2118"},"skolas iela 2 - 46":{"address":"Skolas iela 2 - 46","city":"Upeslejas","zip":"LV-2118"},"skolas iela 2 - 47":{"address":"Skolas iela 2 - 47","city":"Upeslejas","zip":"LV-2118"},"skolas iela 2 - 48":{"address":"Skolas iela 2 - 48","city":"Upeslejas","zip":"LV-2118"},"skolas iela 2 - 49":{"address":"Skolas iela 2 - 49","city":"Upeslejas","zip":"LV-2118"},"zahārija stopija iela 15 - 7":{"address":"Zahārija Stopija iela 15 - 7","city":"Upeslejas","zip":"LV-2118"},"zahārija stopija iela 15 - 45":{"address":"Zahārija Stopija iela 15 - 45","city":"Upeslejas","zip":"LV-2118"},"zahārija stopija iela 15 - 28":{"address":"Zahārija Stopija iela 15 - 28","city":"Upeslejas","zip":"LV-2118"},"zahārija stopija iela 15 - 41":{"address":"Zahārija Stopija iela 15 - 41","city":"Upeslejas","zip":"LV-2118"},"zahārija stopija iela 15 - 15":{"address":"Zahārija Stopija iela 15 - 15","city":"Upeslejas","zip":"LV-2118"},"zahārija stopija iela 15 - 33":{"address":"Zahārija Stopija iela 15 - 33","city":"Upeslejas","zip":"LV-2118"},"zahārija stopija iela 15 - 12":{"address":"Zahārija Stopija iela 15 - 12","city":"Upeslejas","zip":"LV-2118"},"zahārija stopija iela 15 - 43":{"address":"Zahārija Stopija iela 15 - 43","city":"Upeslejas","zip":"LV-2118"},"zahārija stopija iela 15 - 1":{"address":"Zahārija Stopija iela 15 - 1","city":"Upeslejas","zip":"LV-2118"},"zahārija stopija iela 15 - 2":{"address":"Zahārija Stopija iela 15 - 2","city":"Upeslejas","zip":"LV-2118"},"zahārija stopija iela 15 - 3":{"address":"Zahārija Stopija iela 15 - 3","city":"Upeslejas","zip":"LV-2118"},"zahārija stopija iela 15 - 4":{"address":"Zahārija Stopija iela 15 - 4","city":"Upeslejas","zip":"LV-2118"},"zahārija stopija iela 15 - 5":{"address":"Zahārija Stopija iela 15 - 5","city":"Upeslejas","zip":"LV-2118"},"zahārija stopija iela 15 - 6":{"address":"Zahārija Stopija iela 15 - 6","city":"Upeslejas","zip":"LV-2118"},"zahārija stopija iela 15 - 8":{"address":"Zahārija Stopija iela 15 - 8","city":"Upeslejas","zip":"LV-2118"},"zahārija stopija iela 15 - 9":{"address":"Zahārija Stopija iela 15 - 9","city":"Upeslejas","zip":"LV-2118"},"zahārija stopija iela 15 - 10":{"address":"Zahārija Stopija iela 15 - 10","city":"Upeslejas","zip":"LV-2118"},"zahārija stopija iela 15 - 11":{"address":"Zahārija Stopija iela 15 - 11","city":"Upeslejas","zip":"LV-2118"},"zahārija stopija iela 15 - 13":{"address":"Zahārija Stopija iela 15 - 13","city":"Upeslejas","zip":"LV-2118"},"zahārija stopija iela 15 - 14":{"address":"Zahārija Stopija iela 15 - 14","city":"Upeslejas","zip":"LV-2118"},"zahārija stopija iela 15 - 16":{"address":"Zahārija Stopija iela 15 - 16","city":"Upeslejas","zip":"LV-2118"},"zahārija stopija iela 15 - 32":{"address":"Zahārija Stopija iela 15 - 32","city":"Upeslejas","zip":"LV-2118"},"zahārija stopija iela 15 - 39":{"address":"Zahārija Stopija iela 15 - 39","city":"Upeslejas","zip":"LV-2118"},"zahārija stopija iela 15 - 50":{"address":"Zahārija Stopija iela 15 - 50","city":"Upeslejas","zip":"LV-2118"},"zahārija stopija iela 15 - 38":{"address":"Zahārija Stopija iela 15 - 38","city":"Upeslejas","zip":"LV-2118"},"zahārija stopija iela 15 - 34":{"address":"Zahārija Stopija iela 15 - 34","city":"Upeslejas","zip":"LV-2118"},"zahārija stopija iela 15 - 46":{"address":"Zahārija Stopija iela 15 - 46","city":"Upeslejas","zip":"LV-2118"},"zahārija stopija iela 15 - 49":{"address":"Zahārija Stopija iela 15 - 49","city":"Upeslejas","zip":"LV-2118"},"zahārija stopija iela 15 - 23":{"address":"Zahārija Stopija iela 15 - 23","city":"Upeslejas","zip":"LV-2118"},"zahārija stopija iela 15 - 19":{"address":"Zahārija Stopija iela 15 - 19","city":"Upeslejas","zip":"LV-2118"},"zahārija stopija iela 15 - 48":{"address":"Zahārija Stopija iela 15 - 48","city":"Upeslejas","zip":"LV-2118"},"zahārija stopija iela 15 - 56":{"address":"Zahārija Stopija iela 15 - 56","city":"Upeslejas","zip":"LV-2118"},"zahārija stopija iela 15 - 17":{"address":"Zahārija Stopija iela 15 - 17","city":"Upeslejas","zip":"LV-2118"}}