{"upes iela 1 - 1":{"address":"Upes iela 1 - 1","city":"Rikava","zip":"LV-4648"},"upes iela 1 - 2":{"address":"Upes iela 1 - 2","city":"Rikava","zip":"LV-4648"},"upes iela 1 - 3":{"address":"Upes iela 1 - 3","city":"Rikava","zip":"LV-4648"},"upes iela 1 - 4":{"address":"Upes iela 1 - 4","city":"Rikava","zip":"LV-4648"},"upes iela 1 - 5":{"address":"Upes iela 1 - 5","city":"Rikava","zip":"LV-4648"},"upes iela 1 - 6":{"address":"Upes iela 1 - 6","city":"Rikava","zip":"LV-4648"},"upes iela 1 - 7":{"address":"Upes iela 1 - 7","city":"Rikava","zip":"LV-4648"},"upes iela 1 - 8":{"address":"Upes iela 1 - 8","city":"Rikava","zip":"LV-4648"},"upes iela 2 - 1":{"address":"Upes iela 2 - 1","city":"Rikava","zip":"LV-4648"},"upes iela 2 - 2":{"address":"Upes iela 2 - 2","city":"Rikava","zip":"LV-4648"},"upes iela 2 - 3":{"address":"Upes iela 2 - 3","city":"Rikava","zip":"LV-4648"},"upes iela 2 - 4":{"address":"Upes iela 2 - 4","city":"Rikava","zip":"LV-4648"},"upes iela 2 - 5":{"address":"Upes iela 2 - 5","city":"Rikava","zip":"LV-4648"},"upes iela 2 - 6":{"address":"Upes iela 2 - 6","city":"Rikava","zip":"LV-4648"},"upes iela 2 - 7":{"address":"Upes iela 2 - 7","city":"Rikava","zip":"LV-4648"},"upes iela 2 - 8":{"address":"Upes iela 2 - 8","city":"Rikava","zip":"LV-4648"},"upes iela 2 - 9":{"address":"Upes iela 2 - 9","city":"Rikava","zip":"LV-4648"},"upes iela 2 - 10":{"address":"Upes iela 2 - 10","city":"Rikava","zip":"LV-4648"},"upes iela 2 - 11":{"address":"Upes iela 2 - 11","city":"Rikava","zip":"LV-4648"},"upes iela 2 - 12":{"address":"Upes iela 2 - 12","city":"Rikava","zip":"LV-4648"},"upes iela 2 - 13":{"address":"Upes iela 2 - 13","city":"Rikava","zip":"LV-4648"},"upes iela 2 - 14":{"address":"Upes iela 2 - 14","city":"Rikava","zip":"LV-4648"},"upes iela 2 - 15":{"address":"Upes iela 2 - 15","city":"Rikava","zip":"LV-4648"},"upes iela 2 - 16":{"address":"Upes iela 2 - 16","city":"Rikava","zip":"LV-4648"},"upes iela 2 - 17":{"address":"Upes iela 2 - 17","city":"Rikava","zip":"LV-4648"},"upes iela 2 - 18":{"address":"Upes iela 2 - 18","city":"Rikava","zip":"LV-4648"},"upes iela 2 - 19":{"address":"Upes iela 2 - 19","city":"Rikava","zip":"LV-4648"},"upes iela 2 - 20":{"address":"Upes iela 2 - 20","city":"Rikava","zip":"LV-4648"},"upes iela 2 - 21":{"address":"Upes iela 2 - 21","city":"Rikava","zip":"LV-4648"},"upes iela 2 - 22":{"address":"Upes iela 2 - 22","city":"Rikava","zip":"LV-4648"},"upes iela 2 - 23":{"address":"Upes iela 2 - 23","city":"Rikava","zip":"LV-4648"},"upes iela 2 - 24":{"address":"Upes iela 2 - 24","city":"Rikava","zip":"LV-4648"},"upes iela 5 - 1":{"address":"Upes iela 5 - 1","city":"Rikava","zip":"LV-4648"},"upes iela 5 - 2":{"address":"Upes iela 5 - 2","city":"Rikava","zip":"LV-4648"},"upes iela 5 - 3":{"address":"Upes iela 5 - 3","city":"Rikava","zip":"LV-4648"},"upes iela 5 - 4":{"address":"Upes iela 5 - 4","city":"Rikava","zip":"LV-4648"},"upes iela 5 - 5":{"address":"Upes iela 5 - 5","city":"Kaunata","zip":"LV-4622"},"upes iela 5 - 6":{"address":"Upes iela 5 - 6","city":"Rikava","zip":"LV-4648"},"upes iela 5 - 7":{"address":"Upes iela 5 - 7","city":"Rikava","zip":"LV-4648"},"upes iela 5 - 8":{"address":"Upes iela 5 - 8","city":"Rikava","zip":"LV-4648"},"upes iela 5 - 9":{"address":"Upes iela 5 - 9","city":"Rikava","zip":"LV-4648"},"upes iela 5 - 10":{"address":"Upes iela 5 - 10","city":"Rikava","zip":"LV-4648"},"upes iela 5 - 11":{"address":"Upes iela 5 - 11","city":"Rikava","zip":"LV-4648"},"upes iela 5 - 12":{"address":"Upes iela 5 - 12","city":"Rikava","zip":"LV-4648"},"upes iela 5 - 13":{"address":"Upes iela 5 - 13","city":"Rikava","zip":"LV-4648"},"upes iela 5 - 14":{"address":"Upes iela 5 - 14","city":"Rikava","zip":"LV-4648"},"upes iela 5 - 15":{"address":"Upes iela 5 - 15","city":"Rikava","zip":"LV-4648"},"upes iela 5 - 16":{"address":"Upes iela 5 - 16","city":"Rikava","zip":"LV-4648"},"upes iela 5 - 17":{"address":"Upes iela 5 - 17","city":"Rikava","zip":"LV-4648"},"upes iela 5 - 18":{"address":"Upes iela 5 - 18","city":"Rikava","zip":"LV-4648"},"upes iela 5 - 19":{"address":"Upes iela 5 - 19","city":"Rikava","zip":"LV-4648"},"upes iela 5 - 20":{"address":"Upes iela 5 - 20","city":"Rikava","zip":"LV-4648"},"upes iela 5 - 21":{"address":"Upes iela 5 - 21","city":"Rikava","zip":"LV-4648"},"upes iela 5 - 22":{"address":"Upes iela 5 - 22","city":"Rikava","zip":"LV-4648"},"upes iela 5 - 23":{"address":"Upes iela 5 - 23","city":"Rikava","zip":"LV-4648"},"upes iela 5 - 24":{"address":"Upes iela 5 - 24","city":"Rikava","zip":"LV-4648"},"upes iela 5 - 25":{"address":"Upes iela 5 - 25","city":"Rikava","zip":"LV-4648"},"upes iela 5 - 26":{"address":"Upes iela 5 - 26","city":"Rikava","zip":"LV-4648"},"upes iela 5 - 27":{"address":"Upes iela 5 - 27","city":"Rikava","zip":"LV-4648"},"upes iela 5 - 28":{"address":"Upes iela 5 - 28","city":"Rikava","zip":"LV-4648"},"upes iela 5 - 29":{"address":"Upes iela 5 - 29","city":"Rikava","zip":"LV-4648"},"upes iela 5 - 30":{"address":"Upes iela 5 - 30","city":"Rikava","zip":"LV-4648"},"upes iela 4 - 1":{"address":"Upes iela 4 - 1","city":"Rikava","zip":"LV-4648"},"upes iela 4 - 2":{"address":"Upes iela 4 - 2","city":"Rikava","zip":"LV-4648"},"upes iela 4 - 3":{"address":"Upes iela 4 - 3","city":"Rikava","zip":"LV-4648"},"upes iela 4 - 4":{"address":"Upes iela 4 - 4","city":"Rikava","zip":"LV-4648"},"upes iela 4 - 5":{"address":"Upes iela 4 - 5","city":"Rikava","zip":"LV-4648"},"upes iela 4 - 6":{"address":"Upes iela 4 - 6","city":"Rikava","zip":"LV-4648"},"upes iela 4 - 7":{"address":"Upes iela 4 - 7","city":"Rikava","zip":"LV-4648"},"upes iela 4 - 8":{"address":"Upes iela 4 - 8","city":"Rikava","zip":"LV-4648"},"upes iela 4 - 9":{"address":"Upes iela 4 - 9","city":"Rikava","zip":"LV-4648"},"upes iela 4 - 10":{"address":"Upes iela 4 - 10","city":"Rikava","zip":"LV-4648"},"upes iela 4 - 11":{"address":"Upes iela 4 - 11","city":"Rikava","zip":"LV-4648"},"upes iela 4 - 12":{"address":"Upes iela 4 - 12","city":"Rikava","zip":"LV-4648"},"upes iela 4 - 13":{"address":"Upes iela 4 - 13","city":"Rikava","zip":"LV-4648"},"upes iela 4 - 14":{"address":"Upes iela 4 - 14","city":"Rikava","zip":"LV-4648"},"upes iela 4 - 15":{"address":"Upes iela 4 - 15","city":"Rikava","zip":"LV-4648"},"upes iela 4 - 16":{"address":"Upes iela 4 - 16","city":"Rikava","zip":"LV-4648"},"upes iela 4 - 17":{"address":"Upes iela 4 - 17","city":"Rikava","zip":"LV-4648"},"upes iela 4 - 18":{"address":"Upes iela 4 - 18","city":"Rikava","zip":"LV-4648"},"upes iela 4 - 19":{"address":"Upes iela 4 - 19","city":"Rikava","zip":"LV-4648"},"upes iela 4 - 20":{"address":"Upes iela 4 - 20","city":"Rikava","zip":"LV-4648"},"upes iela 4 - 21":{"address":"Upes iela 4 - 21","city":"Rikava","zip":"LV-4648"},"upes iela 4 - 22":{"address":"Upes iela 4 - 22","city":"Rikava","zip":"LV-4648"},"upes iela 4 - 23":{"address":"Upes iela 4 - 23","city":"Rikava","zip":"LV-4648"},"upes iela 4 - 24":{"address":"Upes iela 4 - 24","city":"Rikava","zip":"LV-4648"},"upes iela 3 - 1":{"address":"Upes iela 3 - 1","city":"Rikava","zip":"LV-4648"},"upes iela 3 - 2":{"address":"Upes iela 3 - 2","city":"Rikava","zip":"LV-4648"},"upes iela 3 - 3":{"address":"Upes iela 3 - 3","city":"Rikava","zip":"LV-4648"},"upes iela 3 - 4":{"address":"Upes iela 3 - 4","city":"Rikava","zip":"LV-4648"},"upes iela 3 - 5":{"address":"Upes iela 3 - 5","city":"Rikava","zip":"LV-4648"},"upes iela 3 - 6":{"address":"Upes iela 3 - 6","city":"Rikava","zip":"LV-4648"},"upes iela 3 - 7":{"address":"Upes iela 3 - 7","city":"Rikava","zip":"LV-4648"},"upes iela 3 - 8":{"address":"Upes iela 3 - 8","city":"Rikava","zip":"LV-4648"},"upes iela 3 - 9":{"address":"Upes iela 3 - 9","city":"Rikava","zip":"LV-4648"},"upes iela 3 - 10":{"address":"Upes iela 3 - 10","city":"Rikava","zip":"LV-4648"},"upes iela 3 - 12":{"address":"Upes iela 3 - 12","city":"Rikava","zip":"LV-4648"},"upes iela 3 - 14":{"address":"Upes iela 3 - 14","city":"Rikava","zip":"LV-4648"},"upes iela 3 - 11":{"address":"Upes iela 3 - 11","city":"Rikava","zip":"LV-4648"}}