{"uplejas - 1":{"address":"Uplejas - 1","city":"Naukšēni","zip":"LV-4244"},"uplejas - 2":{"address":"Uplejas - 2","city":"Naukšēni","zip":"LV-4244"},"uplejas - 3":{"address":"Uplejas - 3","city":"Naukšēni","zip":"LV-4244"},"uplejas - 4":{"address":"Uplejas - 4","city":"Naukšēni","zip":"LV-4244"},"uplejas - 5":{"address":"Uplejas - 5","city":"Naukšēni","zip":"LV-4244"},"uplejas - 6":{"address":"Uplejas - 6","city":"Naukšēni","zip":"LV-4244"},"uplejas - 7":{"address":"Uplejas - 7","city":"Naukšēni","zip":"LV-4244"},"uplejas - 8":{"address":"Uplejas - 8","city":"Naukšēni","zip":"LV-4244"},"uplejas - 9":{"address":"Uplejas - 9","city":"Naukšēni","zip":"LV-4244"},"uplejas - 10":{"address":"Uplejas - 10","city":"Naukšēni","zip":"LV-4244"},"uplejas - 11":{"address":"Uplejas - 11","city":"Naukšēni","zip":"LV-4244"},"uplejas - 12":{"address":"Uplejas - 12","city":"Naukšēni","zip":"LV-4244"},"uplejas":{"address":"Uplejas","city":"Graužupes","zip":"LV-5070"},"uplejas 3":{"address":"Uplejas 3","city":"Sinole","zip":"LV-4412"},"uplejas 1":{"address":"Uplejas 1","city":"Lielie Dreizi","zip":"LV-4641"}}