{"upmalas - 1":{"address":"Upmalas - 1","city":"Vaski","zip":"LV-3137"},"upmalas - 2":{"address":"Upmalas - 2","city":"Vaski","zip":"LV-3137"},"upmalas - 3":{"address":"Upmalas - 3","city":"Vaski","zip":"LV-3137"},"upmalas - 4":{"address":"Upmalas - 4","city":"Vaski","zip":"LV-3137"},"upmalas - 5":{"address":"Upmalas - 5","city":"Vaski","zip":"LV-3137"},"upmalas - 6":{"address":"Upmalas - 6","city":"Ineši","zip":"LV-4123"},"upmalas - 7":{"address":"Upmalas - 7","city":"Ineši","zip":"LV-4123"},"upmalas - 8":{"address":"Upmalas - 8","city":"Ineši","zip":"LV-4123"},"upmalas - 9":{"address":"Upmalas - 9","city":"Ineši","zip":"LV-4123"},"upmalas - 10":{"address":"Upmalas - 10","city":"Ineši","zip":"LV-4123"},"upmalas - 11":{"address":"Upmalas - 11","city":"Ineši","zip":"LV-4123"},"upmalas - 12":{"address":"Upmalas - 12","city":"Ineši","zip":"LV-4123"},"upmalas - 13":{"address":"Upmalas - 13","city":"Ineši","zip":"LV-4123"},"upmalas - 14":{"address":"Upmalas - 14","city":"Ineši","zip":"LV-4123"},"upmalas - 15":{"address":"Upmalas - 15","city":"Ineši","zip":"LV-4123"},"upmalas - 16":{"address":"Upmalas - 16","city":"Ineši","zip":"LV-4123"},"upmalas - 17":{"address":"Upmalas - 17","city":"Ineši","zip":"LV-4123"},"upmalas - 18":{"address":"Upmalas - 18","city":"Ineši","zip":"LV-4123"},"upmalas - 19":{"address":"Upmalas - 19","city":"Ineši","zip":"LV-4123"},"upmalas - 20":{"address":"Upmalas - 20","city":"Ineši","zip":"LV-4123"},"upmalas - 21":{"address":"Upmalas - 21","city":"Ineši","zip":"LV-4123"},"lielvārdes šoseja 17 - 18":{"address":"Lielvārdes šoseja 17 - 18","city":"Upmalas","zip":"LV-2152"},"lielvārdes šoseja 17 - 17":{"address":"Lielvārdes šoseja 17 - 17","city":"Upmalas","zip":"LV-2152"},"lielvārdes šoseja 17 - 14":{"address":"Lielvārdes šoseja 17 - 14","city":"Upmalas","zip":"LV-2152"},"lielvārdes šoseja 17 - 15":{"address":"Lielvārdes šoseja 17 - 15","city":"Upmalas","zip":"LV-2152"},"lielvārdes šoseja 17 - 12":{"address":"Lielvārdes šoseja 17 - 12","city":"Upmalas","zip":"LV-2152"},"lielvārdes šoseja 17 - 1":{"address":"Lielvārdes šoseja 17 - 1","city":"Upmalas","zip":"LV-2152"},"lielvārdes šoseja 17 - 2":{"address":"Lielvārdes šoseja 17 - 2","city":"Upmalas","zip":"LV-2152"},"lielvārdes šoseja 17 - 3":{"address":"Lielvārdes šoseja 17 - 3","city":"Upmalas","zip":"LV-2152"},"lielvārdes šoseja 17 - 5":{"address":"Lielvārdes šoseja 17 - 5","city":"Upmalas","zip":"LV-2152"},"lielvārdes šoseja 17 - 4":{"address":"Lielvārdes šoseja 17 - 4","city":"Upmalas","zip":"LV-2152"}}