{"vaivari - 1":{"address":"Vaivari - 1","city":"Sidrabiņi","zip":"LV-4841"},"vaivari - 2":{"address":"Vaivari - 2","city":"Sidrabiņi","zip":"LV-4841"},"vaivari - 3":{"address":"Vaivari - 3","city":"Sidrabiņi","zip":"LV-4841"},"vaivari - 4":{"address":"Vaivari - 4","city":"Sidrabiņi","zip":"LV-4841"},"vaivari - 5":{"address":"Vaivari - 5","city":"Sidrabiņi","zip":"LV-4841"},"vaivari - 6":{"address":"Vaivari - 6","city":"Sidrabiņi","zip":"LV-4841"},"vaivari - 7":{"address":"Vaivari - 7","city":"Sidrabiņi","zip":"LV-4841"},"vaivari - 8":{"address":"Vaivari - 8","city":"Sidrabiņi","zip":"LV-4841"},"vaivari - 9":{"address":"Vaivari - 9","city":"Sidrabiņi","zip":"LV-4841"},"vaivari - 10":{"address":"Vaivari - 10","city":"Sidrabiņi","zip":"LV-4841"},"vaivari - 11":{"address":"Vaivari - 11","city":"Sidrabiņi","zip":"LV-4841"},"vaivari - 12":{"address":"Vaivari - 12","city":"Sidrabiņi","zip":"LV-4841"},"vaivari - 13":{"address":"Vaivari - 13","city":"Sidrabiņi","zip":"LV-4841"},"vaivari - 14":{"address":"Vaivari - 14","city":"Sidrabiņi","zip":"LV-4841"},"vaivari - 15":{"address":"Vaivari - 15","city":"Sidrabiņi","zip":"LV-4841"},"vaivari - 16":{"address":"Vaivari - 16","city":"Sidrabiņi","zip":"LV-4841"},"vaivari - 17":{"address":"Vaivari - 17","city":"Sidrabiņi","zip":"LV-4841"},"vaivari - 18":{"address":"Vaivari - 18","city":"Sidrabiņi","zip":"LV-4841"},"vaivariņi - 1":{"address":"Vaivariņi - 1","city":"Salinīki","zip":"LV-4652"},"vaivariņi - 2":{"address":"Vaivariņi - 2","city":"Salinīki","zip":"LV-4652"},"vaivariņi - 3":{"address":"Vaivariņi - 3","city":"Gāgari","zip":"LV-5716"},"vaivariņi - 4":{"address":"Vaivariņi - 4","city":"Gāgari","zip":"LV-5716"},"vaivariņi - 5":{"address":"Vaivariņi - 5","city":"Gāgari","zip":"LV-5716"},"vaivariņi - 6":{"address":"Vaivariņi - 6","city":"Gāgari","zip":"LV-5716"},"vaivariņi - 7":{"address":"Vaivariņi - 7","city":"Gāgari","zip":"LV-5716"},"vaivariņi - 8":{"address":"Vaivariņi - 8","city":"Gāgari","zip":"LV-5716"},"vaivariņi - 9":{"address":"Vaivariņi - 9","city":"Sikšņi","zip":"LV-3480"},"vaivariņi - 10":{"address":"Vaivariņi - 10","city":"Sikšņi","zip":"LV-3480"},"vaivariņi - 11":{"address":"Vaivariņi - 11","city":"Sikšņi","zip":"LV-3480"},"vaivariņi - 12":{"address":"Vaivariņi - 12","city":"Sikšņi","zip":"LV-3480"},"vaivariņu iela 7 - 1":{"address":"Vaivariņu iela 7 - 1","city":"Stapriņi","zip":"LV-2164"},"vaivariņu iela 7 - 2":{"address":"Vaivariņu iela 7 - 2","city":"Stapriņi","zip":"LV-2164"},"vaivariņu iela 2 - 1":{"address":"Vaivariņu iela 2 - 1","city":"Stapriņi","zip":"LV-2164"},"vaivariņu iela 2 - 2":{"address":"Vaivariņu iela 2 - 2","city":"Stapriņi","zip":"LV-2164"},"vaivari - 19":{"address":"Vaivari - 19","city":"Sidrabiņi","zip":"LV-4841"},"vaivari - 20":{"address":"Vaivari - 20","city":"Sidrabiņi","zip":"LV-4841"},"vaivari - 21":{"address":"Vaivari - 21","city":"Sidrabiņi","zip":"LV-4841"},"vaivari - 22":{"address":"Vaivari - 22","city":"Sidrabiņi","zip":"LV-4841"},"vaivari - 23":{"address":"Vaivari - 23","city":"Sidrabiņi","zip":"LV-4841"},"vaivari - 24":{"address":"Vaivari - 24","city":"Sidrabiņi","zip":"LV-4841"},"vaivari":{"address":"Vaivari","city":"Druviena","zip":"LV-4426"},"vaivariņi":{"address":"Vaivariņi","city":"Daukstes","zip":"LV-4429"}}