{"varavīksnes - 1":{"address":"Varavīksnes - 1","city":"Ropaži","zip":"LV-2135"},"varavīksnes - 2":{"address":"Varavīksnes - 2","city":"Ropaži","zip":"LV-2135"},"varavīksnes - 3":{"address":"Varavīksnes - 3","city":"Ropaži","zip":"LV-2135"},"varavīksnes - 4":{"address":"Varavīksnes - 4","city":"Ropaži","zip":"LV-2135"},"varavīksnes - 5":{"address":"Varavīksnes - 5","city":"Ropaži","zip":"LV-2135"},"varavīksnes - 6":{"address":"Varavīksnes - 6","city":"Ropaži","zip":"LV-2135"},"varavīksnes - 7":{"address":"Varavīksnes - 7","city":"Alsviķi","zip":"LV-4333"},"varavīksnes - 8":{"address":"Varavīksnes - 8","city":"Alsviķi","zip":"LV-4333"},"varavīksnes - 9":{"address":"Varavīksnes - 9","city":"Alsviķi","zip":"LV-4333"},"varavīksnes - 10":{"address":"Varavīksnes - 10","city":"Alsviķi","zip":"LV-4333"},"varavīksnes - 11":{"address":"Varavīksnes - 11","city":"Alsviķi","zip":"LV-4333"},"varavīksnes - 12":{"address":"Varavīksnes - 12","city":"Alsviķi","zip":"LV-4333"},"varavīksnes - 13":{"address":"Varavīksnes - 13","city":"Alsviķi","zip":"LV-4333"},"varavīksnes - 14":{"address":"Varavīksnes - 14","city":"Alsviķi","zip":"LV-4333"},"varavīksnes - 15":{"address":"Varavīksnes - 15","city":"Alsviķi","zip":"LV-4333"},"varavīksnes - 16":{"address":"Varavīksnes - 16","city":"Alsviķi","zip":"LV-4333"},"varavīksnes - 17":{"address":"Varavīksnes - 17","city":"Alsviķi","zip":"LV-4333"},"varavīksnes - 18":{"address":"Varavīksnes - 18","city":"Alsviķi","zip":"LV-4333"},"varavīksnes - 19":{"address":"Varavīksnes - 19","city":"Alsviķi","zip":"LV-4333"},"varavīksnes - 20":{"address":"Varavīksnes - 20","city":"Alsviķi","zip":"LV-4333"},"varavīksnes - 21":{"address":"Varavīksnes - 21","city":"Alsviķi","zip":"LV-4333"},"varavīksnes - 22":{"address":"Varavīksnes - 22","city":"Alsviķi","zip":"LV-4333"},"varavīksnes - 23":{"address":"Varavīksnes - 23","city":"Alsviķi","zip":"LV-4333"},"varavīksnes - 24":{"address":"Varavīksnes - 24","city":"Alsviķi","zip":"LV-4333"}}