{"vecozolu iela 13 - 15":{"address":"Vecozolu iela 13 - 15","city":"Mārupe","zip":"LV-2167"},"vecozolu iela 13 - 14":{"address":"Vecozolu iela 13 - 14","city":"Mārupe","zip":"LV-2167"},"vecozolu iela 13 - 13":{"address":"Vecozolu iela 13 - 13","city":"Mārupe","zip":"LV-2167"},"vecozolu iela 13 - 12":{"address":"Vecozolu iela 13 - 12","city":"Mārupe","zip":"LV-2167"},"vecozolu iela 13 - 11":{"address":"Vecozolu iela 13 - 11","city":"Mārupe","zip":"LV-2167"},"vecozolu iela 13 - 10":{"address":"Vecozolu iela 13 - 10","city":"Mārupe","zip":"LV-2167"},"vecozolu iela 13 - 9":{"address":"Vecozolu iela 13 - 9","city":"Mārupe","zip":"LV-2167"},"vecozolu iela 13 - 8":{"address":"Vecozolu iela 13 - 8","city":"Mārupe","zip":"LV-2167"},"vecozolu iela 13 - 7":{"address":"Vecozolu iela 13 - 7","city":"Mārupe","zip":"LV-2167"},"vecozolu iela 13 - 6":{"address":"Vecozolu iela 13 - 6","city":"Mārupe","zip":"LV-2167"},"vecozolu iela 13 - 5":{"address":"Vecozolu iela 13 - 5","city":"Mārupe","zip":"LV-2167"},"vecozolu iela 13 - 4":{"address":"Vecozolu iela 13 - 4","city":"Mārupe","zip":"LV-2167"},"vecozolu iela 13 - 3":{"address":"Vecozolu iela 13 - 3","city":"Mārupe","zip":"LV-2167"},"vecozolu iela 13 - 2":{"address":"Vecozolu iela 13 - 2","city":"Mārupe","zip":"LV-2167"},"vecozolu iela 13 - 1":{"address":"Vecozolu iela 13 - 1","city":"Mārupe","zip":"LV-2167"},"vecozolu iela 13 - 16":{"address":"Vecozolu iela 13 - 16","city":"Mārupe","zip":"LV-2167"},"vecozolu iela 13 - 17":{"address":"Vecozolu iela 13 - 17","city":"Mārupe","zip":"LV-2167"},"vecozolu iela 13 - 18":{"address":"Vecozolu iela 13 - 18","city":"Mārupe","zip":"LV-2167"},"vecozolu iela 13 - 19":{"address":"Vecozolu iela 13 - 19","city":"Mārupe","zip":"LV-2167"},"vecozolu iela 13 - 20":{"address":"Vecozolu iela 13 - 20","city":"Mārupe","zip":"LV-2167"},"vecozolu iela 13 - 21":{"address":"Vecozolu iela 13 - 21","city":"Mārupe","zip":"LV-2167"},"vecozolu iela 13 - 22":{"address":"Vecozolu iela 13 - 22","city":"Mārupe","zip":"LV-2167"},"vecozolu iela 13 - 23":{"address":"Vecozolu iela 13 - 23","city":"Mārupe","zip":"LV-2167"},"vecozolu iela 13 - 24":{"address":"Vecozolu iela 13 - 24","city":"Mārupe","zip":"LV-2167"},"vecozolu iela 13 - 25":{"address":"Vecozolu iela 13 - 25","city":"Mārupe","zip":"LV-2167"},"vecozolu iela 13 - 26":{"address":"Vecozolu iela 13 - 26","city":"Mārupe","zip":"LV-2167"},"vecozolu iela 13 - 27":{"address":"Vecozolu iela 13 - 27","city":"Mārupe","zip":"LV-2167"},"vecozolu iela 13 - 28":{"address":"Vecozolu iela 13 - 28","city":"Mārupe","zip":"LV-2167"},"vecozolu iela 13 - 29":{"address":"Vecozolu iela 13 - 29","city":"Mārupe","zip":"LV-2167"},"vecozolu iela 13 - 30":{"address":"Vecozolu iela 13 - 30","city":"Mārupe","zip":"LV-2167"},"vecozolu iela 13 - 31":{"address":"Vecozolu iela 13 - 31","city":"Mārupe","zip":"LV-2167"},"vecozolu iela 13 - 32":{"address":"Vecozolu iela 13 - 32","city":"Mārupe","zip":"LV-2167"},"vecozolu iela 13 - 33":{"address":"Vecozolu iela 13 - 33","city":"Mārupe","zip":"LV-2167"},"vecozolu iela 13 - 34":{"address":"Vecozolu iela 13 - 34","city":"Mārupe","zip":"LV-2167"},"vecozolu iela 13 - 35":{"address":"Vecozolu iela 13 - 35","city":"Mārupe","zip":"LV-2167"},"vecozolu iela 13 - 36":{"address":"Vecozolu iela 13 - 36","city":"Mārupe","zip":"LV-2167"},"vecozolu iela 13 - 37":{"address":"Vecozolu iela 13 - 37","city":"Mārupe","zip":"LV-2167"},"vecozolu iela 13 - 38":{"address":"Vecozolu iela 13 - 38","city":"Mārupe","zip":"LV-2167"},"vecozolu iela 13 - 39":{"address":"Vecozolu iela 13 - 39","city":"Mārupe","zip":"LV-2167"},"vecozolu iela 13 - 42":{"address":"Vecozolu iela 13 - 42","city":"Mārupe","zip":"LV-2167"},"vecozolu iela 13 - 40":{"address":"Vecozolu iela 13 - 40","city":"Mārupe","zip":"LV-2167"},"vecozolu iela 13 - 41":{"address":"Vecozolu iela 13 - 41","city":"Mārupe","zip":"LV-2167"},"vecozolu iela 39a - 1":{"address":"Vecozolu iela 39A - 1","city":"Tīraine","zip":"LV-2167"},"vecozolu iela 39a - 2":{"address":"Vecozolu iela 39A - 2","city":"Tīraine","zip":"LV-2167"},"vecozolu iela 18":{"address":"Vecozolu iela 18","city":"Ķekava","zip":"LV-2123"},"vecozolu iela 1":{"address":"Vecozolu iela 1","city":"Ķekava","zip":"LV-2123"},"vecozolu iela 13":{"address":"Vecozolu iela 13","city":"Mārupe","zip":"LV-2167"},"vecozolu iela 14":{"address":"Vecozolu iela 14","city":"Ķekava","zip":"LV-2123"},"vecozolu iela 27":{"address":"Vecozolu iela 27","city":"Mārupe","zip":"LV-2167"},"vecozolu iela 29":{"address":"Vecozolu iela 29","city":"Mārupe","zip":"LV-2167"},"vecozolu iela 31":{"address":"Vecozolu iela 31","city":"Mārupe","zip":"LV-2167"},"vecozolu iela 2":{"address":"Vecozolu iela 2","city":"Ķekava","zip":"LV-2123"},"vecozolu iela 3":{"address":"Vecozolu iela 3","city":"Ķekava","zip":"LV-2123"},"vecozolu iela 4":{"address":"Vecozolu iela 4","city":"Ķekava","zip":"LV-2123"},"vecozolu iela 5":{"address":"Vecozolu iela 5","city":"Ķekava","zip":"LV-2123"},"vecozolu iela 6":{"address":"Vecozolu iela 6","city":"Ķekava","zip":"LV-2123"},"vecozolu iela 7":{"address":"Vecozolu iela 7","city":"Ķekava","zip":"LV-2123"},"vecozolu iela 8":{"address":"Vecozolu iela 8","city":"Ķekava","zip":"LV-2123"},"vecozolu iela 9":{"address":"Vecozolu iela 9","city":"Ķekava","zip":"LV-2123"},"vecozolu iela 10":{"address":"Vecozolu iela 10","city":"Ķekava","zip":"LV-2123"},"vecozolu iela 11":{"address":"Vecozolu iela 11","city":"Ķekava","zip":"LV-2123"},"vecozolu iela 33":{"address":"Vecozolu iela 33","city":"Tīraine","zip":"LV-2167"},"vecozolu iela 35":{"address":"Vecozolu iela 35","city":"Tīraine","zip":"LV-2167"},"vecozolu iela 37":{"address":"Vecozolu iela 37","city":"Tīraine","zip":"LV-2167"},"vecozolu iela 39":{"address":"Vecozolu iela 39","city":"Tīraine","zip":"LV-2167"},"vecozolu iela 101":{"address":"Vecozolu iela 101","city":"Tīraine","zip":"LV-2167"},"vecozolu iela 12":{"address":"Vecozolu iela 12","city":"Ķekava","zip":"LV-2123"},"vecozolu iela 16":{"address":"Vecozolu iela 16","city":"Mārupe","zip":"LV-2167"},"vecozolu iela 17a":{"address":"Vecozolu iela 17A","city":"Ķekava","zip":"LV-2123"},"vecozolu iela 17b":{"address":"Vecozolu iela 17B","city":"Ķekava","zip":"LV-2123"},"vecozolu iela 19a":{"address":"Vecozolu iela 19A","city":"Ķekava","zip":"LV-2123"},"vecozolu iela 1a":{"address":"Vecozolu iela 1A","city":"Mārupe","zip":"LV-2167"},"vecozolu iela 39a":{"address":"Vecozolu iela 39A","city":"Tīraine","zip":"LV-2167"},"vecozolu iela 20":{"address":"Vecozolu iela 20","city":"Mārupe","zip":"LV-2167"},"vecozolu iela 100":{"address":"Vecozolu iela 100","city":"Tīraine","zip":"LV-2167"}}