{"vecās mājas - 1":{"address":"Vecās mājas - 1","city":"Ezersala","zip":"LV-5752"},"vecās mājas - 2":{"address":"Vecās mājas - 2","city":"Ezersala","zip":"LV-5752"},"vecās mājas - 3":{"address":"Vecās mājas - 3","city":"Ezersala","zip":"LV-5752"},"vecās mājas - 4":{"address":"Vecās mājas - 4","city":"Ezersala","zip":"LV-5752"},"vecās mājas - 5":{"address":"Vecās mājas - 5","city":"Ezersala","zip":"LV-5752"},"vecās kļavas - 1":{"address":"Vecās Kļavas - 1","city":"Ozoliņi","zip":"LV-5674"},"vecās kļavas - 2":{"address":"Vecās Kļavas - 2","city":"Ozoliņi","zip":"LV-5674"},"vecās darbnīcas":{"address":"Vecās darbnīcas","city":"Roceži","zip":"LV-3280"},"vecās zemesbites":{"address":"Vecās Zemesbites","city":"Ozoliņi","zip":"LV-5326"},"vecā sala":{"address":"Vecā sala","city":"Vecāsala","zip":"LV-5327"},"vecās liepas":{"address":"Vecās liepas","city":"Veideri","zip":"LV-4623"},"vecās mehāniskās darbnīcas":{"address":"Vecās mehāniskās darbnīcas","city":"Vaski","zip":"LV-3137"},"vecās mājas":{"address":"Vecās mājas","city":"Višķeri","zip":"LV-4627"},"vecās priedes":{"address":"Vecās Priedes","city":"Mišenskie","zip":"LV-5704"},"vecās kļavas":{"address":"Vecās Kļavas","city":"Akmani","zip":"LV-5443"},"vecās dzirnavas":{"address":"Vecās dzirnavas","city":"Vecpils","zip":"LV-5462"}}