{"korģenes veikals - 1":{"address":"Korģenes veikals - 1","city":"Korģene","zip":"LV-4054"},"korģenes veikals - 2":{"address":"Korģenes veikals - 2","city":"Korģene","zip":"LV-4054"},"krievgaļu veikals - 1":{"address":"Krievgaļu veikals - 1","city":"Krievgaļi","zip":"LV-3931"},"krievgaļu veikals - 2":{"address":"Krievgaļu veikals - 2","city":"Krievgaļi","zip":"LV-3931"},"krievgaļu veikals - 3":{"address":"Krievgaļu veikals - 3","city":"Krievgaļi","zip":"LV-3931"},"krievgaļu veikals - 4":{"address":"Krievgaļu veikals - 4","city":"Krievgaļi","zip":"LV-3931"},"krievgaļu veikals - 5":{"address":"Krievgaļu veikals - 5","city":"Krievgaļi","zip":"LV-3931"},"krievgaļu veikals - 6":{"address":"Krievgaļu veikals - 6","city":"Krievgaļi","zip":"LV-3931"},"krievgaļu veikals - 7":{"address":"Krievgaļu veikals - 7","city":"Krievgaļi","zip":"LV-3931"},"krievgaļu veikals - 1a":{"address":"Krievgaļu veikals - 1A","city":"Krievgaļi","zip":"LV-3931"},"cīruļu veikals - 2":{"address":"Cīruļu veikals - 2","city":"Cīruļi","zip":"LV-3253"},"lībagu veikals - 1":{"address":"Lībagu veikals - 1","city":"Lībagi","zip":"LV-3258"},"lībagu veikals - 2":{"address":"Lībagu veikals - 2","city":"Lībagi","zip":"LV-3258"},"ērģemes veikals - 1":{"address":"Ērģemes veikals - 1","city":"Ērģeme","zip":"LV-4711"},"ērģemes veikals - 2":{"address":"Ērģemes veikals - 2","city":"Ērģeme","zip":"LV-4711"},"veikals rembate - 1":{"address":"Veikals Rembate - 1","city":"Rembate","zip":"LV-5016"},"veikals rembate - 2":{"address":"Veikals Rembate - 2","city":"Rembate","zip":"LV-5016"},"kraukļu veikals - 1":{"address":"Kraukļu veikals - 1","city":"Kraukļi","zip":"LV-4880"},"kraukļu veikals - 2":{"address":"Kraukļu veikals - 2","city":"Kraukļi","zip":"LV-4880"},"kraukļu veikals - 3":{"address":"Kraukļu veikals - 3","city":"Kraukļi","zip":"LV-4880"},"kraukļu veikals - 4":{"address":"Kraukļu veikals - 4","city":"Kraukļi","zip":"LV-4880"},"jaunais veikals - 1":{"address":"Jaunais Veikals - 1","city":"Trikāta","zip":"LV-4731"},"jaunais veikals - 2":{"address":"Jaunais Veikals - 2","city":"Trikāta","zip":"LV-4731"},"jaunais veikals - 3":{"address":"Jaunais Veikals - 3","city":"Trikāta","zip":"LV-4731"},"jaunais veikals - 4":{"address":"Jaunais Veikals - 4","city":"Trikāta","zip":"LV-4731"},"jaunais veikals - 5":{"address":"Jaunais Veikals - 5","city":"Trikāta","zip":"LV-4731"},"veikals":{"address":"Veikals","city":"Maltas Trūpi","zip":"LV-5311"},"druvienas veikals":{"address":"Druvienas veikals","city":"Druviena","zip":"LV-4426"},"veikals troicis un partneri":{"address":"Veikals Troicis un Partneri","city":"Sinole","zip":"LV-4412"},"gaujienas veikals":{"address":"Gaujienas veikals","city":"Gaujiena","zip":"LV-4339"},"alsviķu veikals":{"address":"Alsviķu veikals","city":"Alsviķi","zip":"LV-4333"},"lieplejas veikals nr. 21":{"address":"Lieplejas veikals Nr. 21","city":"Lode","zip":"LV-4248"},"veikals smilgas":{"address":"Veikals Smilgas","city":"Naukšēni","zip":"LV-4244"},"veikals vērsis":{"address":"Veikals Vērsis","city":"Vērsis","zip":"LV-4242"},"veikals straume":{"address":"Veikals Straume","city":"Endzele","zip":"LV-4234"},"veikals ramata":{"address":"Veikals Ramata","city":"Ramata","zip":"LV-4216"},"veikals nr. 10":{"address":"Veikals Nr. 10","city":"Vecate","zip":"LV-4211"},"kaives veikals":{"address":"Kaives veikals","city":"Kaive","zip":"LV-4144"},"veikals centrs":{"address":"Veikals Centrs","city":"Ineši","zip":"LV-4123"},"korģenes veikals":{"address":"Korģenes veikals","city":"Korģene","zip":"LV-4054"},"veikals zemgaļi":{"address":"Veikals Zemgaļi","city":"Mūsa","zip":"LV-3931"},"krievgaļu veikals":{"address":"Krievgaļu veikals","city":"Krievgaļi","zip":"LV-3931"},"veikals jaunauce":{"address":"Veikals Jaunauce","city":"Jaunauce","zip":"LV-3893"},"aizvīķu veikals":{"address":"Aizvīķu veikals","city":"Aizvīķi","zip":"LV-3487"},"bārtas veikals":{"address":"Bārtas veikals","city":"Bārta","zip":"LV-3482"},"kalnišķu veikals":{"address":"Kalnišķu veikals","city":"Kalnišķi","zip":"LV-3476"},"ploces veikals":{"address":"Ploces veikals","city":"Ploce","zip":"LV-3463"},"virgas veikals":{"address":"Virgas veikals","city":"Virga","zip":"LV-3433"},"spāres veikals":{"address":"Spāres veikals","city":"Spāre","zip":"LV-3298"},"melnsila veikals":{"address":"Melnsila veikals","city":"Melnsils","zip":"LV-3264"},"ģipkas veikals":{"address":"Ģipkas veikals","city":"Ģipka","zip":"LV-3264"},"veikals saulkrasti":{"address":"Veikals Saulkrasti","city":"Kolka","zip":"LV-3275"},"veikals mazirbe":{"address":"Veikals Mazirbe","city":"Mazirbe","zip":"LV-3275"},"rojupes veikals":{"address":"Rojupes veikals","city":"Rude","zip":"LV-3264"},"anužu veikals":{"address":"Anužu veikals","city":"Anuži","zip":"LV-3262"},"veikals selekcija":{"address":"Veikals Selekcija","city":"Dižstende","zip":"LV-3258"},"cīruļu veikals":{"address":"Cīruļu veikals","city":"Cīruļi","zip":"LV-3253"},"pastendes veikals":{"address":"Pastendes veikals","city":"Pastende","zip":"LV-3251"},"veikals tiltiņi":{"address":"Veikals Tiltiņi","city":"Klapkalnciems","zip":"LV-3113"},"veikals kafejnīca apsīte":{"address":"Veikals kafejnīca Apsīte","city":"Apšuciems","zip":"LV-3113"},"veikals viļņi":{"address":"Veikals Viļņi","city":"Bērzciems","zip":"LV-3113"},"veikals līči":{"address":"Veikals Līči","city":"Līči","zip":"LV-2118"},"almāles veikals":{"address":"Almāles veikals","city":"Almāle","zip":"LV-3306"},"turnas veikals":{"address":"Turnas veikals","city":"Turna","zip":"LV-4711"},"salenieku veikals":{"address":"Salenieku veikals","city":"Ancveriņi 1","zip":"LV-5304"},"dārzniecības veikals":{"address":"Dārzniecības veikals","city":"Palsmane","zip":"LV-4724"},"klauces veikals":{"address":"Klauces veikals","city":"Klauce","zip":"LV-5237"},"veikals vidaga":{"address":"Veikals Vidaga","city":"Vidaga","zip":"LV-4355"},"suntažu veikals 4":{"address":"Suntažu veikals 4","city":"Suntaži","zip":"LV-5060"},"garozas veikals":{"address":"Garozas veikals","city":"Garoza","zip":"LV-3045"},"velēnas veikals":{"address":"Velēnas veikals","city":"Suntaži","zip":"LV-5060"},"vitkušku veikals":{"address":"Vitkušku veikals","city":"Vitkuški","zip":"LV-5444"},"broku veikals":{"address":"Broku veikals","city":"Jaungaiļi","zip":"LV-5331"},"annenieku veikals":{"address":"Annenieku veikals","city":"Annenieki","zip":"LV-3718"},"veikals nr. 23":{"address":"Veikals Nr. 23","city":"Sunākste","zip":"LV-5130"},"veikals rozalina":{"address":"Veikals Rozalina","city":"Rozalina","zip":"LV-5330"},"lauku veikals":{"address":"Lauku veikals","city":"Lielie Anspoki","zip":"LV-5326"},"randenes veikals":{"address":"Randenes veikals","city":"Randene","zip":"LV-5449"},"pilskalna veikals":{"address":"Pilskalna veikals","city":"Pilskalns","zip":"LV-4409"}}