{"meldermāja - 1":{"address":"Meldermāja - 1","city":"Vidaga","zip":"LV-4355"},"meldermāja - 2":{"address":"Meldermāja - 2","city":"Vidaga","zip":"LV-4355"},"vidaga 6 - 12":{"address":"Vidaga 6 - 12","city":"Vidaga","zip":"LV-4355"},"vidaga 6 - 11":{"address":"Vidaga 6 - 11","city":"Vidaga","zip":"LV-4355"},"vidaga 6 - 10":{"address":"Vidaga 6 - 10","city":"Vidaga","zip":"LV-4355"},"vidaga 6 - 9":{"address":"Vidaga 6 - 9","city":"Vidaga","zip":"LV-4355"},"vidaga 6 - 8":{"address":"Vidaga 6 - 8","city":"Vidaga","zip":"LV-4355"},"vidaga 6 - 7":{"address":"Vidaga 6 - 7","city":"Vidaga","zip":"LV-4355"},"vidaga 6 - 6":{"address":"Vidaga 6 - 6","city":"Vidaga","zip":"LV-4355"},"vidaga 6 - 5":{"address":"Vidaga 6 - 5","city":"Vidaga","zip":"LV-4355"},"vidaga 6 - 4":{"address":"Vidaga 6 - 4","city":"Vidaga","zip":"LV-4355"},"vidaga 6 - 3":{"address":"Vidaga 6 - 3","city":"Vidaga","zip":"LV-4355"},"vidaga 6 - 2":{"address":"Vidaga 6 - 2","city":"Vidaga","zip":"LV-4355"},"vidaga 6 - 1":{"address":"Vidaga 6 - 1","city":"Vidaga","zip":"LV-4355"},"vidaga 2 - 1":{"address":"Vidaga 2 - 1","city":"Vidaga","zip":"LV-4355"},"vidaga 2 - 2":{"address":"Vidaga 2 - 2","city":"Vidaga","zip":"LV-4355"},"vidaga 2 - 3":{"address":"Vidaga 2 - 3","city":"Vidaga","zip":"LV-4355"},"vidagas iela 14 - 1":{"address":"Vidagas iela 14 - 1","city":"Jaunolaine","zip":"LV-2127"},"vidagas iela 14 - 2":{"address":"Vidagas iela 14 - 2","city":"Jaunolaine","zip":"LV-2127"},"vidagas iela 12 - 1":{"address":"Vidagas iela 12 - 1","city":"Jaunolaine","zip":"LV-2127"},"vidagas iela 12 - 2":{"address":"Vidagas iela 12 - 2","city":"Jaunolaine","zip":"LV-2127"},"vidagas iela 3 - 1":{"address":"Vidagas iela 3 - 1","city":"Jaunolaine","zip":"LV-2127"},"vidagas iela 3 - 2":{"address":"Vidagas iela 3 - 2","city":"Jaunolaine","zip":"LV-2127"},"ezerkrasti - 1":{"address":"Ezerkrasti - 1","city":"Vidaga","zip":"LV-4355"},"ezerkrasti - 2":{"address":"Ezerkrasti - 2","city":"Vidaga","zip":"LV-4355"},"ezerkrasti - 3":{"address":"Ezerkrasti - 3","city":"Vidaga","zip":"LV-4355"},"ezerkrasti - 4":{"address":"Ezerkrasti - 4","city":"Vidaga","zip":"LV-4355"},"grāvīši":{"address":"Grāvīši","city":"Vidaga","zip":"LV-4355"},"ieviņas":{"address":"Ieviņas","city":"Vidaga","zip":"LV-4355"},"irbenāji":{"address":"Irbenāji","city":"Vidaga","zip":"LV-4355"},"kalnrozes":{"address":"Kalnrozes","city":"Vidaga","zip":"LV-4355"},"krasti":{"address":"Krasti","city":"Vidaga","zip":"LV-4355"},"krastiņi":{"address":"Krastiņi","city":"Vidaga","zip":"LV-4355"},"kraujas":{"address":"Kraujas","city":"Vidaga","zip":"LV-4355"},"kraukļi":{"address":"Kraukļi","city":"Vidaga","zip":"LV-4355"},"laimas":{"address":"Laimas","city":"Vidaga","zip":"LV-4355"},"lapegles":{"address":"Lapegles","city":"Vidaga","zip":"LV-4355"},"lazdas":{"address":"Lazdas","city":"Vidaga","zip":"LV-4355"},"liepas":{"address":"Liepas","city":"Vidaga","zip":"LV-4355"},"liepavoti":{"address":"Liepavoti","city":"Vidaga","zip":"LV-4355"},"madaras":{"address":"Madaras","city":"Vidaga","zip":"LV-4355"},"mazgrāvji":{"address":"Mazgrāvji","city":"Vidaga","zip":"LV-4355"},"meldermāja":{"address":"Meldermāja","city":"Vidaga","zip":"LV-4355"},"mežsētas":{"address":"Mežsētas","city":"Vidaga","zip":"LV-4355"},"mežsētas 1":{"address":"Mežsētas 1","city":"Vidaga","zip":"LV-4355"},"namdari":{"address":"Namdari","city":"Vidaga","zip":"LV-4355"},"noriņas":{"address":"Noriņas","city":"Vidaga","zip":"LV-4355"},"pīlādži":{"address":"Pīlādži","city":"Vidaga","zip":"LV-4355"},"priedes":{"address":"Priedes","city":"Vidaga","zip":"LV-4355"},"purenes":{"address":"Purenes","city":"Vidaga","zip":"LV-4355"},"rāmnieki":{"address":"Rāmnieki","city":"Vidaga","zip":"LV-4355"},"rotas":{"address":"Rotas","city":"Vidaga","zip":"LV-4355"},"saulgoži":{"address":"Saulgoži","city":"Vidaga","zip":"LV-4355"},"sikšņu skola":{"address":"Sikšņu skola","city":"Vidaga","zip":"LV-4355"},"sildegas":{"address":"Sildegas","city":"Vidaga","zip":"LV-4355"},"sildegas 1":{"address":"Sildegas 1","city":"Vidaga","zip":"LV-4355"},"siliņi":{"address":"Siliņi","city":"Vidaga","zip":"LV-4355"},"teikas":{"address":"Teikas","city":"Vidaga","zip":"LV-4355"},"vairogi":{"address":"Vairogi","city":"Vidaga","zip":"LV-4355"},"vidaga 1":{"address":"Vidaga 1","city":"Vidaga","zip":"LV-4355"},"vidaga 6":{"address":"Vidaga 6","city":"Vidaga","zip":"LV-4355"},"vizbuļi":{"address":"Vizbuļi","city":"Vidaga","zip":"LV-4355"},"žākles":{"address":"Žākles","city":"Vidaga","zip":"LV-4355"},"vidaga 2":{"address":"Vidaga 2","city":"Vidaga","zip":"LV-4355"},"vidaga 5":{"address":"Vidaga 5","city":"Vidaga","zip":"LV-4355"},"gaismas":{"address":"Gaismas","city":"Vidaga","zip":"LV-4355"},"gaujaskrasti":{"address":"Gaujaskrasti","city":"Vidaga","zip":"LV-4355"},"gaujaslīči":{"address":"Gaujaslīči","city":"Vidaga","zip":"LV-4355"},"gaujmalas":{"address":"Gaujmalas","city":"Vidaga","zip":"LV-4355"},"grantiņi":{"address":"Grantiņi","city":"Vidaga","zip":"LV-4355"},"alejas":{"address":"Alejas","city":"Vidaga","zip":"LV-4355"},"alejas 1":{"address":"Alejas 1","city":"Vidaga","zip":"LV-4355"},"atvari":{"address":"Atvari","city":"Vidaga","zip":"LV-4355"},"atvases":{"address":"Atvases","city":"Vidaga","zip":"LV-4355"},"avoti":{"address":"Avoti","city":"Vidaga","zip":"LV-4355"},"avotiņi":{"address":"Avotiņi","city":"Vidaga","zip":"LV-4355"},"bērzkalni":{"address":"Bērzkalni","city":"Vidaga","zip":"LV-4355"},"ceļmalas":{"address":"Ceļmalas","city":"Vidaga","zip":"LV-4355"},"dainas":{"address":"Dainas","city":"Vidaga","zip":"LV-4355"},"dziļumi":{"address":"Dziļumi","city":"Vidaga","zip":"LV-4355"},"vidagas iela 11":{"address":"Vidagas iela 11","city":"Jaunolaine","zip":"LV-2127"},"vidagas iela 9":{"address":"Vidagas iela 9","city":"Jaunolaine","zip":"LV-2127"},"vidagas iela 15":{"address":"Vidagas iela 15","city":"Jaunolaine","zip":"LV-2127"},"vidagas iela 1":{"address":"Vidagas iela 1","city":"Jaunolaine","zip":"LV-2127"},"vidagas iela 2":{"address":"Vidagas iela 2","city":"Jaunolaine","zip":"LV-2127"},"vidagas iela 20":{"address":"Vidagas iela 20","city":"Jaunolaine","zip":"LV-2127"},"vidagas iela 5":{"address":"Vidagas iela 5","city":"Jaunolaine","zip":"LV-2127"},"vidagas iela 17":{"address":"Vidagas iela 17","city":"Jaunolaine","zip":"LV-2127"},"veikals vidaga":{"address":"Veikals Vidaga","city":"Vidaga","zip":"LV-4355"},"vidagas iela 19":{"address":"Vidagas iela 19","city":"Jaunolaine","zip":"LV-2127"},"vidagas iela 24":{"address":"Vidagas iela 24","city":"Jaunolaine","zip":"LV-2127"},"vidagas iela 6":{"address":"Vidagas iela 6","city":"Jaunolaine","zip":"LV-2127"},"vidagas iela 18":{"address":"Vidagas iela 18","city":"Jaunolaine","zip":"LV-2127"},"vidagas iela 16":{"address":"Vidagas iela 16","city":"Jaunolaine","zip":"LV-2127"},"vidagas iela 22":{"address":"Vidagas iela 22","city":"Jaunolaine","zip":"LV-2127"},"vidagas iela 4":{"address":"Vidagas iela 4","city":"Jaunolaine","zip":"LV-2127"},"vidagas iela 21":{"address":"Vidagas iela 21","city":"Jaunolaine","zip":"LV-2127"},"vidagas iela 7":{"address":"Vidagas iela 7","city":"Jaunolaine","zip":"LV-2127"},"vidagas iela 8":{"address":"Vidagas iela 8","city":"Jaunolaine","zip":"LV-2127"},"vidagas iela 13":{"address":"Vidagas iela 13","city":"Jaunolaine","zip":"LV-2127"}}