{"vidiņi - 1":{"address":"Vidiņi - 1","city":"Borski","zip":"LV-5456"},"vidiņi - 2":{"address":"Vidiņi - 2","city":"Borski","zip":"LV-5456"},"vidiņi - 3":{"address":"Vidiņi - 3","city":"Kabile","zip":"LV-3314"},"vidiņi - 4":{"address":"Vidiņi - 4","city":"Pīrāgi","zip":"LV-3931"},"vidiņi - 5":{"address":"Vidiņi - 5","city":"Pīrāgi","zip":"LV-3931"},"vidiņi - 6":{"address":"Vidiņi - 6","city":"Virķēni","zip":"LV-4241"},"vidiņi - 7":{"address":"Vidiņi - 7","city":"Virķēni","zip":"LV-4241"},"vidiņi - 8":{"address":"Vidiņi - 8","city":"Virķēni","zip":"LV-4241"},"vidiņi 1 - 1":{"address":"Vidiņi 1 - 1","city":"Valpene","zip":"LV-3270"},"vidiņi 1 - 2":{"address":"Vidiņi 1 - 2","city":"Valpene","zip":"LV-3270"},"vidiņi 1 - 3":{"address":"Vidiņi 1 - 3","city":"Valpene","zip":"LV-3270"},"vidiņi 1 - 4":{"address":"Vidiņi 1 - 4","city":"Valpene","zip":"LV-3270"},"vidiņi 1 - 5":{"address":"Vidiņi 1 - 5","city":"Valpene","zip":"LV-3270"},"vidiņi 1 - 6":{"address":"Vidiņi 1 - 6","city":"Valpene","zip":"LV-3270"},"vidiņi 1 - 7":{"address":"Vidiņi 1 - 7","city":"Valpene","zip":"LV-3270"},"vidiņi 1 - 8":{"address":"Vidiņi 1 - 8","city":"Valpene","zip":"LV-3270"},"vidiņi 2 - 1":{"address":"Vidiņi 2 - 1","city":"Valpene","zip":"LV-3270"},"vidiņi 2 - 2":{"address":"Vidiņi 2 - 2","city":"Valpene","zip":"LV-3270"},"vidiņi 2 - 5":{"address":"Vidiņi 2 - 5","city":"Valpene","zip":"LV-3270"},"vidiņi 2 - 4":{"address":"Vidiņi 2 - 4","city":"Valpene","zip":"LV-3270"},"vidiņi 2 - 3":{"address":"Vidiņi 2 - 3","city":"Valpene","zip":"LV-3270"},"vidiņi":{"address":"Vidiņi","city":"Krustkalni","zip":"LV-2111"},"vidiņi 1":{"address":"Vidiņi 1","city":"Ķekava","zip":"LV-2123"},"vidiņi 2":{"address":"Vidiņi 2","city":"Valpene","zip":"LV-3270"}}