{"viduči - 1":{"address":"Viduči - 1","city":"Jaunpēternieki","zip":"LV-3018"},"viduči - 2":{"address":"Viduči - 2","city":"Jaunpēternieki","zip":"LV-3018"},"viduči - 3":{"address":"Viduči - 3","city":"Jaunpēternieki","zip":"LV-3018"},"viduči - 4":{"address":"Viduči - 4","city":"Jaunpēternieki","zip":"LV-3018"},"viduči - 5":{"address":"Viduči - 5","city":"Jaunpēternieki","zip":"LV-3018"},"viduči - 6":{"address":"Viduči - 6","city":"Jaunpēternieki","zip":"LV-3018"},"viduči":{"address":"Viduči","city":"Biksēre","zip":"LV-4870"},"rutki":{"address":"Rutki","city":"Viduči","zip":"LV-4586"},"sīgini":{"address":"Sīgini","city":"Viduči","zip":"LV-4586"},"sudmalnieki":{"address":"Sudmalnieki","city":"Viduči","zip":"LV-4586"},"urdziņas":{"address":"Urdziņas","city":"Viduči","zip":"LV-4586"},"vidiņi 1":{"address":"Vidiņi 1","city":"Viduči","zip":"LV-4586"},"zālītes":{"address":"Zālītes","city":"Viduči","zip":"LV-4586"},"ziedugravas":{"address":"Ziedugravas","city":"Viduči","zip":"LV-4586"},"mežmaļi":{"address":"Mežmaļi","city":"Viduči","zip":"LV-4586"},"niedrīši":{"address":"Niedrīši","city":"Viduči","zip":"LV-4586"},"olīši":{"address":"Olīši","city":"Viduči","zip":"LV-4586"},"ozoli 1":{"address":"Ozoli 1","city":"Viduči","zip":"LV-4586"},"pleiški":{"address":"Pleiški","city":"Viduči","zip":"LV-4586"},"gravas":{"address":"Gravas","city":"Viduči","zip":"LV-4586"},"laimiņas":{"address":"Laimiņas","city":"Viduči","zip":"LV-4586"},"lauri":{"address":"Lauri","city":"Viduči","zip":"LV-4586"},"liepas":{"address":"Liepas","city":"Viduči","zip":"LV-4586"},"liepīši":{"address":"Liepīši","city":"Viduči","zip":"LV-4586"},"liepnieši":{"address":"Liepnieši","city":"Viduči","zip":"LV-4586"},"jāņumājas":{"address":"Jāņumājas","city":"Viduči","zip":"LV-4586"},"jaunviduči":{"address":"Jaunviduči","city":"Viduči","zip":"LV-4586"},"kalniņi":{"address":"Kalniņi","city":"Viduči","zip":"LV-4586"},"kapsētnieki":{"address":"Kapsētnieki","city":"Viduči","zip":"LV-4586"},"kirupe":{"address":"Kirupe","city":"Viduči","zip":"LV-4586"},"ērgļi":{"address":"Ērgļi","city":"Viduči","zip":"LV-4586"},"ērkšķi":{"address":"Ērkšķi","city":"Viduči","zip":"LV-4586"},"gaujienas":{"address":"Gaujienas","city":"Viduči","zip":"LV-4586"},"gertmaņi":{"address":"Gertmaņi","city":"Viduči","zip":"LV-4586"},"akmeņdruvas":{"address":"Akmeņdruvas","city":"Viduči","zip":"LV-4586"},"apsītes":{"address":"Apsītes","city":"Viduči","zip":"LV-4586"},"augstkalni":{"address":"Augstkalni","city":"Viduči","zip":"LV-4586"},"avenes":{"address":"Avenes","city":"Viduči","zip":"LV-4586"},"bumbieri":{"address":"Bumbieri","city":"Viduči","zip":"LV-4586"},"eglīši":{"address":"Eglīši","city":"Viduči","zip":"LV-4586"},"jaunpabērzi":{"address":"Jaunpabērzi","city":"Viduči","zip":"LV-4586"}}