{"bioķīmiķis 35":{"address":"Bioķīmiķis 35","city":"Dubnas viensētas","zip":"LV-5316"},"babri":{"address":"Babri","city":"Dubnas viensētas","zip":"LV-5316"},"silāji":{"address":"Silāji","city":"Dubnas viensētas","zip":"LV-5316"},"ielejas":{"address":"Ielejas","city":"Dubnas viensētas","zip":"LV-5316"},"bioķīmiķis 64":{"address":"Bioķīmiķis 64","city":"Dubnas viensētas","zip":"LV-5316"},"tūjas":{"address":"Tūjas","city":"Dubnas viensētas","zip":"LV-5316"},"saulīte":{"address":"Saulīte","city":"Dubnas viensētas","zip":"LV-5316"},"bioķīmiķis 25":{"address":"Bioķīmiķis 25","city":"Dubnas viensētas","zip":"LV-5316"},"zemenīte":{"address":"Zemenīte","city":"Dubnas viensētas","zip":"LV-5316"},"rota":{"address":"Rota","city":"Dubnas viensētas","zip":"LV-5316"},"pūpoli":{"address":"Pūpoli","city":"Dubnas viensētas","zip":"LV-5316"},"vīnogas":{"address":"Vīnogas","city":"Dubnas viensētas","zip":"LV-5316"},"bioķīmiķis 26":{"address":"Bioķīmiķis 26","city":"Dubnas viensētas","zip":"LV-5316"},"bioķīmiķis 44":{"address":"Bioķīmiķis 44","city":"Dubnas viensētas","zip":"LV-5316"},"bioķīmiķis 43":{"address":"Bioķīmiķis 43","city":"Dubnas viensētas","zip":"LV-5316"},"bioķīmiķis 67":{"address":"Bioķīmiķis 67","city":"Dubnas viensētas","zip":"LV-5316"},"skaistlejas":{"address":"Skaistlejas","city":"Dubnas viensētas","zip":"LV-5316"},"ķirsis":{"address":"Ķirsis","city":"Dubnas viensētas","zip":"LV-5316"},"irbēni":{"address":"Irbēni","city":"Dubnas viensētas","zip":"LV-5316"},"centība 53":{"address":"Centība 53","city":"Dubnas viensētas","zip":"LV-5316"},"celmi":{"address":"Celmi","city":"Dubnas viensētas","zip":"LV-5316"},"bioķīmiķis 61":{"address":"Bioķīmiķis 61","city":"Dubnas viensētas","zip":"LV-5316"},"bioķīmiķis 65":{"address":"Bioķīmiķis 65","city":"Dubnas viensētas","zip":"LV-5316"},"bioķīmiķis 66":{"address":"Bioķīmiķis 66","city":"Dubnas viensētas","zip":"LV-5316"},"ludmila":{"address":"Ludmila","city":"Dubnas viensētas","zip":"LV-5316"},"štifaniči":{"address":"Štifaniči","city":"Dubnas viensētas","zip":"LV-5316"},"mežrozīte":{"address":"Mežrozīte","city":"Dubnas viensētas","zip":"LV-5316"},"bioķīmiķis 74":{"address":"Bioķīmiķis 74","city":"Dubnas viensētas","zip":"LV-5316"},"laiks":{"address":"Laiks","city":"Dubnas viensētas","zip":"LV-5316"},"vikars":{"address":"Vikars","city":"Dubnas viensētas","zip":"LV-5316"},"sēnītes":{"address":"Sēnītes","city":"Dubnas viensētas","zip":"LV-5316"},"jasmīni":{"address":"Jasmīni","city":"Dubnas viensētas","zip":"LV-5316"},"bioķīmiķis 72":{"address":"Bioķīmiķis 72","city":"Dubnas viensētas","zip":"LV-5316"},"bioķīmiķis 111":{"address":"Bioķīmiķis 111","city":"Dubnas viensētas","zip":"LV-5316"},"krasta muiža":{"address":"Krasta muiža","city":"Dubnas viensētas","zip":"LV-5316"},"mūrnieki":{"address":"Mūrnieki","city":"Dubnas viensētas","zip":"LV-5316"},"dzeņi":{"address":"Dzeņi","city":"Dubnas viensētas","zip":"LV-5316"},"plūmītes":{"address":"Plūmītes","city":"Dubnas viensētas","zip":"LV-5316"},"auglība":{"address":"Auglība","city":"Dubnas viensētas","zip":"LV-5316"},"pakaviņi":{"address":"Pakaviņi","city":"Dubnas viensētas","zip":"LV-5316"},"zilgmes":{"address":"Zilgmes","city":"Dubnas viensētas","zip":"LV-5316"},"aina":{"address":"Aina","city":"Dubnas viensētas","zip":"LV-5316"},"annas mājas":{"address":"Annas mājas","city":"Dubnas viensētas","zip":"LV-5316"},"aurinko":{"address":"Aurinko","city":"Dubnas viensētas","zip":"LV-5316"},"baloži":{"address":"Baloži","city":"Dubnas viensētas","zip":"LV-5316"},"ceļmalas":{"address":"Ceļmalas","city":"Dubnas viensētas","zip":"LV-5316"},"centība 32":{"address":"Centība 32","city":"Dubnas viensētas","zip":"LV-5316"},"centība 42":{"address":"Centība 42","city":"Dubnas viensētas","zip":"LV-5316"},"cīrulīši 54":{"address":"Cīrulīši 54","city":"Dubnas viensētas","zip":"LV-5316"},"daniels":{"address":"Daniels","city":"Dubnas viensētas","zip":"LV-5316"},"eglaine":{"address":"Eglaine","city":"Dubnas viensētas","zip":"LV-5316"},"eldorado":{"address":"Eldorado","city":"Dubnas viensētas","zip":"LV-5316"},"eriņi":{"address":"Eriņi","city":"Dubnas viensētas","zip":"LV-5316"},"sprīdīši":{"address":"Sprīdīši","city":"Dubnas viensētas","zip":"LV-5316"},"stepanovi":{"address":"Stepanovi","city":"Dubnas viensētas","zip":"LV-5316"},"vasara":{"address":"Vasara","city":"Dubnas viensētas","zip":"LV-5316"},"veronika":{"address":"Veronika","city":"Dubnas viensētas","zip":"LV-5316"},"vija":{"address":"Vija","city":"Dubnas viensētas","zip":"LV-5316"},"vijolīte":{"address":"Vijolīte","city":"Dubnas viensētas","zip":"LV-5316"},"virši":{"address":"Virši","city":"Dubnas viensētas","zip":"LV-5316"},"zemene":{"address":"Zemene","city":"Dubnas viensētas","zip":"LV-5316"},"filimonija":{"address":"Filimonija","city":"Dubnas viensētas","zip":"LV-5316"},"idrica":{"address":"Idrica","city":"Dubnas viensētas","zip":"LV-5316"},"kadiķi":{"address":"Kadiķi","city":"Dubnas viensētas","zip":"LV-5316"},"kaktiņi":{"address":"Kaktiņi","city":"Dubnas viensētas","zip":"LV-5316"},"kūmas":{"address":"Kūmas","city":"Dubnas viensētas","zip":"LV-5316"},"kurmīši":{"address":"Kurmīši","city":"Dubnas viensētas","zip":"LV-5316"},"lāse":{"address":"Lāse","city":"Dubnas viensētas","zip":"LV-5316"},"ligzdiņa":{"address":"Ligzdiņa","city":"Dubnas viensētas","zip":"LV-5316"},"magones":{"address":"Magones","city":"Dubnas viensētas","zip":"LV-5316"},"marta":{"address":"Marta","city":"Dubnas viensētas","zip":"LV-5316"},"nataša":{"address":"Nataša","city":"Dubnas viensētas","zip":"LV-5316"},"nora":{"address":"Nora","city":"Dubnas viensētas","zip":"LV-5316"},"odziņa":{"address":"Odziņa","city":"Dubnas viensētas","zip":"LV-5316"},"pabērzi":{"address":"Pabērzi","city":"Dubnas viensētas","zip":"LV-5316"},"regīna":{"address":"Regīna","city":"Dubnas viensētas","zip":"LV-5316"},"riebiņi":{"address":"Riebiņi","city":"Dubnas viensētas","zip":"LV-5316"},"rietumi":{"address":"Rietumi","city":"Dubnas viensētas","zip":"LV-5316"},"rožu dārzs":{"address":"Rožu dārzs","city":"Dubnas viensētas","zip":"LV-5316"},"saulespuķe":{"address":"Saulespuķe","city":"Dubnas viensētas","zip":"LV-5316"},"saulīši":{"address":"Saulīši","city":"Dubnas viensētas","zip":"LV-5316"},"nadježda":{"address":"Nadježda","city":"Dubnas viensētas","zip":"LV-5316"},"vidiņi":{"address":"Vidiņi","city":"Dubnas viensētas","zip":"LV-5316"},"tiltiņi":{"address":"Tiltiņi","city":"Dubnas viensētas","zip":"LV-5316"},"silmalas":{"address":"Silmalas","city":"Dubnas viensētas","zip":"LV-5316"},"garās madaras":{"address":"Garās madaras","city":"Dubnas viensētas","zip":"LV-5316"},"reiņi":{"address":"Reiņi","city":"Dubnas viensētas","zip":"LV-5316"},"bitītes":{"address":"Bitītes","city":"Dubnas viensētas","zip":"LV-5316"},"jaujas":{"address":"Jaujas","city":"Dubnas viensētas","zip":"LV-5316"},"laimiņi":{"address":"Laimiņi","city":"Dubnas viensētas","zip":"LV-5316"},"rudzīši":{"address":"Rudzīši","city":"Dubnas viensētas","zip":"LV-5316"},"pie bumbieres":{"address":"Pie bumbieres","city":"Dubnas viensētas","zip":"LV-5316"},"teresijas":{"address":"Teresijas","city":"Dubnas viensētas","zip":"LV-5316"},"aronijas":{"address":"Aronijas","city":"Dubnas viensētas","zip":"LV-5316"},"dubnas viensētas 1":{"address":"Dubnas viensētas 1","city":"Dubnas viensētas","zip":"LV-5316"},"papardes":{"address":"Papardes","city":"Dubnas viensētas","zip":"LV-5316"},"sapnis":{"address":"Sapnis","city":"Dubnas viensētas","zip":"LV-5316"}}