{"vienības iela 8 - 1":{"address":"Vienības iela 8 - 1","city":"Druva","zip":"LV-3862"},"vienības iela 8 - 2":{"address":"Vienības iela 8 - 2","city":"Druva","zip":"LV-3862"},"vienības iela 8 - 3":{"address":"Vienības iela 8 - 3","city":"Druva","zip":"LV-3862"},"vienības iela 8 - 4":{"address":"Vienības iela 8 - 4","city":"Druva","zip":"LV-3862"},"vienības iela 8 - 5":{"address":"Vienības iela 8 - 5","city":"Druva","zip":"LV-3862"},"vienības iela 8 - 6":{"address":"Vienības iela 8 - 6","city":"Druva","zip":"LV-3862"},"vienības iela 8 - 7":{"address":"Vienības iela 8 - 7","city":"Druva","zip":"LV-3862"},"vienības iela 8 - 8":{"address":"Vienības iela 8 - 8","city":"Druva","zip":"LV-3862"},"vienības iela 4 - 1":{"address":"Vienības iela 4 - 1","city":"Druva","zip":"LV-3862"},"vienības iela 4 - 2":{"address":"Vienības iela 4 - 2","city":"Druva","zip":"LV-3862"},"vienības iela 4 - 3":{"address":"Vienības iela 4 - 3","city":"Druva","zip":"LV-3862"},"vienības iela 4 - 4":{"address":"Vienības iela 4 - 4","city":"Beļava","zip":"LV-4409"},"vienības iela 4 - 5":{"address":"Vienības iela 4 - 5","city":"Beļava","zip":"LV-4409"},"vienības iela 4 - 6":{"address":"Vienības iela 4 - 6","city":"Beļava","zip":"LV-4409"},"vienības iela 4 - 7":{"address":"Vienības iela 4 - 7","city":"Beļava","zip":"LV-4409"},"vienības iela 4 - 8":{"address":"Vienības iela 4 - 8","city":"Beļava","zip":"LV-4409"},"vienības iela 5 - 1":{"address":"Vienības iela 5 - 1","city":"Beļava","zip":"LV-4409"},"vienības iela 5 - 2":{"address":"Vienības iela 5 - 2","city":"Beļava","zip":"LV-4409"},"vienības iela 5 - 3":{"address":"Vienības iela 5 - 3","city":"Beļava","zip":"LV-4409"},"vienības iela 5 - 4":{"address":"Vienības iela 5 - 4","city":"Beļava","zip":"LV-4409"},"vienības iela 5 - 5":{"address":"Vienības iela 5 - 5","city":"Beļava","zip":"LV-4409"},"vienības iela 5 - 6":{"address":"Vienības iela 5 - 6","city":"Beļava","zip":"LV-4409"},"vienības iela 5 - 7":{"address":"Vienības iela 5 - 7","city":"Beļava","zip":"LV-4409"},"vienības iela 5 - 8":{"address":"Vienības iela 5 - 8","city":"Beļava","zip":"LV-4409"},"vienības iela 5 - 9":{"address":"Vienības iela 5 - 9","city":"Beļava","zip":"LV-4409"},"vienības iela 5 - 10":{"address":"Vienības iela 5 - 10","city":"Beļava","zip":"LV-4409"},"vienības iela 5 - 11":{"address":"Vienības iela 5 - 11","city":"Beļava","zip":"LV-4409"},"vienības iela 5 - 12":{"address":"Vienības iela 5 - 12","city":"Beļava","zip":"LV-4409"},"vienības iela 5 - 13":{"address":"Vienības iela 5 - 13","city":"Beļava","zip":"LV-4409"},"vienības iela 5 - 14":{"address":"Vienības iela 5 - 14","city":"Beļava","zip":"LV-4409"},"vienības iela 5 - 15":{"address":"Vienības iela 5 - 15","city":"Beļava","zip":"LV-4409"},"vienības iela 5 - 16":{"address":"Vienības iela 5 - 16","city":"Beļava","zip":"LV-4409"},"vienības iela 5 - 17":{"address":"Vienības iela 5 - 17","city":"Beļava","zip":"LV-4409"},"vienības iela 5 - 18":{"address":"Vienības iela 5 - 18","city":"Beļava","zip":"LV-4409"},"vienības - 1":{"address":"Vienības - 1","city":"Biksti","zip":"LV-3713"},"vienības - 2":{"address":"Vienības - 2","city":"Biksti","zip":"LV-3713"},"vienības - 3":{"address":"Vienības - 3","city":"Lēdurga","zip":"LV-4012"},"vienības - 4":{"address":"Vienības - 4","city":"Lēdurga","zip":"LV-4012"},"vienības iela 10 - 1":{"address":"Vienības iela 10 - 1","city":"Druva","zip":"LV-3862"},"vienības iela 10 - 2":{"address":"Vienības iela 10 - 2","city":"Druva","zip":"LV-3862"},"vienības iela 10 - 3":{"address":"Vienības iela 10 - 3","city":"Druva","zip":"LV-3862"},"vienības iela 10 - 4":{"address":"Vienības iela 10 - 4","city":"Druva","zip":"LV-3862"},"vienības iela 10 - 5":{"address":"Vienības iela 10 - 5","city":"Druva","zip":"LV-3862"},"vienības iela 10 - 6":{"address":"Vienības iela 10 - 6","city":"Druva","zip":"LV-3862"},"vienības iela 10 - 7":{"address":"Vienības iela 10 - 7","city":"Druva","zip":"LV-3862"},"vienības iela 10 - 8":{"address":"Vienības iela 10 - 8","city":"Druva","zip":"LV-3862"},"vienības iela 12 - 1":{"address":"Vienības iela 12 - 1","city":"Druva","zip":"LV-3862"},"vienības iela 12 - 2":{"address":"Vienības iela 12 - 2","city":"Druva","zip":"LV-3862"},"vienības iela 12 - 3":{"address":"Vienības iela 12 - 3","city":"Druva","zip":"LV-3862"},"vienības iela 12 - 4":{"address":"Vienības iela 12 - 4","city":"Druva","zip":"LV-3862"},"vienības iela 12 - 5":{"address":"Vienības iela 12 - 5","city":"Druva","zip":"LV-3862"},"vienības iela 12 - 6":{"address":"Vienības iela 12 - 6","city":"Druva","zip":"LV-3862"},"vienības iela 12 - 7":{"address":"Vienības iela 12 - 7","city":"Druva","zip":"LV-3862"},"vienības iela 12 - 8":{"address":"Vienības iela 12 - 8","city":"Druva","zip":"LV-3862"},"vienības iela 12 - 9":{"address":"Vienības iela 12 - 9","city":"Druva","zip":"LV-3862"},"vienības iela 12 - 10":{"address":"Vienības iela 12 - 10","city":"Druva","zip":"LV-3862"},"vienības iela 12 - 11":{"address":"Vienības iela 12 - 11","city":"Druva","zip":"LV-3862"},"vienības iela 12 - 12":{"address":"Vienības iela 12 - 12","city":"Druva","zip":"LV-3862"},"vienības iela 6 - 1":{"address":"Vienības iela 6 - 1","city":"Druva","zip":"LV-3862"},"vienības iela 6 - 2":{"address":"Vienības iela 6 - 2","city":"Druva","zip":"LV-3862"},"vienības iela 6 - 3":{"address":"Vienības iela 6 - 3","city":"Druva","zip":"LV-3862"},"vienības iela 6 - 4":{"address":"Vienības iela 6 - 4","city":"Druva","zip":"LV-3862"},"vienības iela 6 - 5":{"address":"Vienības iela 6 - 5","city":"Druva","zip":"LV-3862"},"vienības iela 6 - 6":{"address":"Vienības iela 6 - 6","city":"Druva","zip":"LV-3862"},"vienības iela 6 - 7":{"address":"Vienības iela 6 - 7","city":"Druva","zip":"LV-3862"},"vienības iela 6 - 8":{"address":"Vienības iela 6 - 8","city":"Druva","zip":"LV-3862"}}