{"bortnieki viens - 1":{"address":"Bortnieki Viens - 1","city":"Lomi-Bortnieki","zip":"LV-5311"},"bortnieki viens - 2":{"address":"Bortnieki Viens - 2","city":"Lomi-Bortnieki","zip":"LV-5311"},"bortnieki viens - 3":{"address":"Bortnieki Viens - 3","city":"Lomi-Bortnieki","zip":"LV-5311"},"bortnieki viens - 4":{"address":"Bortnieki Viens - 4","city":"Lomi-Bortnieki","zip":"LV-5311"},"bortnieki viens - 5":{"address":"Bortnieki Viens - 5","city":"Lomi-Bortnieki","zip":"LV-5311"},"bioķīmiķis 35":{"address":"Bioķīmiķis 35","city":"Dubnas viensētas","zip":"LV-5316"},"babri":{"address":"Babri","city":"Dubnas viensētas","zip":"LV-5316"},"silāji":{"address":"Silāji","city":"Dubnas viensētas","zip":"LV-5316"},"ielejas":{"address":"Ielejas","city":"Dubnas viensētas","zip":"LV-5316"},"bioķīmiķis 64":{"address":"Bioķīmiķis 64","city":"Dubnas viensētas","zip":"LV-5316"},"piekalni viens":{"address":"Piekalni Viens","city":"Gaiļmuiža","zip":"LV-5329"},"tisa viens":{"address":"Tisa viens","city":"Gumertgrāveri","zip":"LV-5315"},"tūjas":{"address":"Tūjas","city":"Dubnas viensētas","zip":"LV-5316"},"saulīte":{"address":"Saulīte","city":"Dubnas viensētas","zip":"LV-5316"},"bioķīmiķis 25":{"address":"Bioķīmiķis 25","city":"Dubnas viensētas","zip":"LV-5316"},"zemenīte":{"address":"Zemenīte","city":"Dubnas viensētas","zip":"LV-5316"},"rota":{"address":"Rota","city":"Dubnas viensētas","zip":"LV-5316"},"pūpoli":{"address":"Pūpoli","city":"Dubnas viensētas","zip":"LV-5316"},"vīnogas":{"address":"Vīnogas","city":"Dubnas viensētas","zip":"LV-5316"},"bioķīmiķis 26":{"address":"Bioķīmiķis 26","city":"Dubnas viensētas","zip":"LV-5316"},"bioķīmiķis 44":{"address":"Bioķīmiķis 44","city":"Dubnas viensētas","zip":"LV-5316"},"bioķīmiķis 43":{"address":"Bioķīmiķis 43","city":"Dubnas viensētas","zip":"LV-5316"},"bioķīmiķis 67":{"address":"Bioķīmiķis 67","city":"Dubnas viensētas","zip":"LV-5316"},"skaistlejas":{"address":"Skaistlejas","city":"Dubnas viensētas","zip":"LV-5316"},"ķirsis":{"address":"Ķirsis","city":"Dubnas viensētas","zip":"LV-5316"},"irbēni":{"address":"Irbēni","city":"Dubnas viensētas","zip":"LV-5316"},"centība 53":{"address":"Centība 53","city":"Dubnas viensētas","zip":"LV-5316"},"celmi":{"address":"Celmi","city":"Dubnas viensētas","zip":"LV-5316"},"bioķīmiķis 61":{"address":"Bioķīmiķis 61","city":"Dubnas viensētas","zip":"LV-5316"},"bioķīmiķis 65":{"address":"Bioķīmiķis 65","city":"Dubnas viensētas","zip":"LV-5316"},"bioķīmiķis 66":{"address":"Bioķīmiķis 66","city":"Dubnas viensētas","zip":"LV-5316"},"ludmila":{"address":"Ludmila","city":"Dubnas viensētas","zip":"LV-5316"},"štifaniči":{"address":"Štifaniči","city":"Dubnas viensētas","zip":"LV-5316"},"mežrozīte":{"address":"Mežrozīte","city":"Dubnas viensētas","zip":"LV-5316"},"bioķīmiķis 74":{"address":"Bioķīmiķis 74","city":"Dubnas viensētas","zip":"LV-5316"},"fenikss viens":{"address":"Fenikss Viens","city":"Vilciņi","zip":"LV-5333"},"pīlādzīši viens":{"address":"Pīlādzīši Viens","city":"Polkorona","zip":"LV-5333"},"laiks":{"address":"Laiks","city":"Dubnas viensētas","zip":"LV-5316"},"vikars":{"address":"Vikars","city":"Dubnas viensētas","zip":"LV-5316"},"voveri viens":{"address":"Voveri Viens","city":"Krištobi","zip":"LV-5333"},"reči viens":{"address":"Reči Viens","city":"Šļomovka","zip":"LV-5301"},"sēnītes":{"address":"Sēnītes","city":"Dubnas viensētas","zip":"LV-5316"},"jasmīni":{"address":"Jasmīni","city":"Dubnas viensētas","zip":"LV-5316"},"irbenāji viens":{"address":"Irbenāji viens","city":"Rožupe","zip":"LV-5327"},"ķīšupe viens 120":{"address":"Ķīšupe viens 120","city":"Ķīšupe 1","zip":"LV-2160"},"ķīšupe viens 113a":{"address":"Ķīšupe viens 113A","city":"Ķīšupe 1","zip":"LV-2160"},"ķīšupe viens 115":{"address":"Ķīšupe viens 115","city":"Ķīšupe 1","zip":"LV-2160"},"ķīšupe viens 116":{"address":"Ķīšupe viens 116","city":"Ķīšupe 1","zip":"LV-2160"},"ķīšupe viens 117":{"address":"Ķīšupe viens 117","city":"Ķīšupe 1","zip":"LV-2160"},"ķīšupe viens 15":{"address":"Ķīšupe viens 15","city":"Ķīšupe 1","zip":"LV-2160"},"ķīšupe viens 118":{"address":"Ķīšupe viens 118","city":"Ķīšupe 1","zip":"LV-2160"},"ķīšupe viens 14":{"address":"Ķīšupe viens 14","city":"Ķīšupe 1","zip":"LV-2160"},"ķīšupe viens 13":{"address":"Ķīšupe viens 13","city":"Ķīšupe 1","zip":"LV-2160"},"ķīšupe viens 12":{"address":"Ķīšupe viens 12","city":"Ķīšupe 1","zip":"LV-2160"},"ķīšupe viens 121":{"address":"Ķīšupe viens 121","city":"Ķīšupe 1","zip":"LV-2160"},"ķīšupe viens 122":{"address":"Ķīšupe viens 122","city":"Ķīšupe 1","zip":"LV-2160"},"ķīšupe viens 113":{"address":"Ķīšupe viens 113","city":"Ķīšupe 1","zip":"LV-2160"},"ķīšupe viens 105":{"address":"Ķīšupe viens 105","city":"Ķīšupe 1","zip":"LV-2160"},"ķīšupe viens 119":{"address":"Ķīšupe viens 119","city":"Ķīšupe 1","zip":"LV-2160"},"ķīšupe viens 104":{"address":"Ķīšupe viens 104","city":"Ķīšupe 1","zip":"LV-2160"},"ķīšupe viens 17":{"address":"Ķīšupe viens 17","city":"Ķīšupe 1","zip":"LV-2160"},"ķīšupe viens 29":{"address":"Ķīšupe viens 29","city":"Ķīšupe 1","zip":"LV-2160"},"ķīšupe viens 10":{"address":"Ķīšupe viens 10","city":"Ķīšupe 1","zip":"LV-2160"},"ķīšupe viens 100":{"address":"Ķīšupe viens 100","city":"Ķīšupe 1","zip":"LV-2160"},"ķīšupe viens 101":{"address":"Ķīšupe viens 101","city":"Ķīšupe 1","zip":"LV-2160"},"ķīšupe viens 101a":{"address":"Ķīšupe viens 101A","city":"Ķīšupe 1","zip":"LV-2160"},"ķīšupe viens 107":{"address":"Ķīšupe viens 107","city":"Ķīšupe 1","zip":"LV-2160"},"ķīšupe viens 103":{"address":"Ķīšupe viens 103","city":"Ķīšupe 1","zip":"LV-2160"},"ķīšupe viens 112":{"address":"Ķīšupe viens 112","city":"Ķīšupe 1","zip":"LV-2160"},"ķīšupe viens 106":{"address":"Ķīšupe viens 106","city":"Ķīšupe 1","zip":"LV-2160"},"ķīšupe viens 1":{"address":"Ķīšupe viens 1","city":"Ķīšupe 1","zip":"LV-2160"},"ķīšupe viens 108":{"address":"Ķīšupe viens 108","city":"Ķīšupe 1","zip":"LV-2160"},"ķīšupe viens 109":{"address":"Ķīšupe viens 109","city":"Ķīšupe 1","zip":"LV-2160"},"ķīšupe viens 11":{"address":"Ķīšupe viens 11","city":"Ķīšupe 1","zip":"LV-2160"},"ķīšupe viens 110":{"address":"Ķīšupe viens 110","city":"Ķīšupe 1","zip":"LV-2160"},"ķīšupe viens 111":{"address":"Ķīšupe viens 111","city":"Ķīšupe 1","zip":"LV-2160"},"ķīšupe viens 102":{"address":"Ķīšupe viens 102","city":"Ķīšupe 1","zip":"LV-2160"},"ķīšupe viens 7":{"address":"Ķīšupe viens 7","city":"Ķīšupe 1","zip":"LV-2160"},"ķīšupe viens 8":{"address":"Ķīšupe viens 8","city":"Ķīšupe 1","zip":"LV-2160"},"ķīšupe viens 79":{"address":"Ķīšupe viens 79","city":"Ķīšupe 1","zip":"LV-2160"},"ķīšupe viens 78":{"address":"Ķīšupe viens 78","city":"Ķīšupe 1","zip":"LV-2160"},"ķīšupe viens 77":{"address":"Ķīšupe viens 77","city":"Ķīšupe 1","zip":"LV-2160"},"ķīšupe viens 76a":{"address":"Ķīšupe viens 76A","city":"Ķīšupe 1","zip":"LV-2160"},"ķīšupe viens 76":{"address":"Ķīšupe viens 76","city":"Ķīšupe 1","zip":"LV-2160"},"ķīšupe viens 74":{"address":"Ķīšupe viens 74","city":"Ķīšupe 1","zip":"LV-2160"},"ķīšupe viens 27":{"address":"Ķīšupe viens 27","city":"Ķīšupe 1","zip":"LV-2160"},"ķīšupe viens 72":{"address":"Ķīšupe viens 72","city":"Ķīšupe 1","zip":"LV-2160"},"ķīšupe viens 82":{"address":"Ķīšupe viens 82","city":"Ķīšupe 1","zip":"LV-2160"},"ķīšupe viens 69":{"address":"Ķīšupe viens 69","city":"Ķīšupe 1","zip":"LV-2160"},"ķīšupe viens 68":{"address":"Ķīšupe viens 68","city":"Ķīšupe 1","zip":"LV-2160"},"ķīšupe viens 67":{"address":"Ķīšupe viens 67","city":"Ķīšupe 1","zip":"LV-2160"},"ķīšupe viens 66":{"address":"Ķīšupe viens 66","city":"Ķīšupe 1","zip":"LV-2160"},"ķīšupe viens 65":{"address":"Ķīšupe viens 65","city":"Ķīšupe 1","zip":"LV-2160"}}