{"viesturi - 1":{"address":"Viesturi - 1","city":"Kārķi","zip":"LV-4716"},"viesturi - 2":{"address":"Viesturi - 2","city":"Kārķi","zip":"LV-4716"},"viesturi - 3":{"address":"Viesturi - 3","city":"Kārķi","zip":"LV-4716"},"viesturi - 4":{"address":"Viesturi - 4","city":"Vecstāmeriena","zip":"LV-4406"},"medpunkts - 1":{"address":"Medpunkts - 1","city":"Viesturi","zip":"LV-3921"},"medpunkts - 2":{"address":"Medpunkts - 2","city":"Viesturi","zip":"LV-3921"},"jaunburtnieki - 1":{"address":"Jaunburtnieki - 1","city":"Viesturi","zip":"LV-3921"},"jaunburtnieki - 2":{"address":"Jaunburtnieki - 2","city":"Viesturi","zip":"LV-3921"},"jaunburtnieki - 3":{"address":"Jaunburtnieki - 3","city":"Viesturi","zip":"LV-3921"},"jaunburtnieki - 5":{"address":"Jaunburtnieki - 5","city":"Viesturi","zip":"LV-3921"},"jaunburtnieki - 6":{"address":"Jaunburtnieki - 6","city":"Viesturi","zip":"LV-3921"},"jaunburtnieki - 7":{"address":"Jaunburtnieki - 7","city":"Viesturi","zip":"LV-3921"},"jaunburtnieki - 8":{"address":"Jaunburtnieki - 8","city":"Viesturi","zip":"LV-3921"},"jaunburtnieki - 4":{"address":"Jaunburtnieki - 4","city":"Viesturi","zip":"LV-3921"},"burtnieku iela 3 - 1":{"address":"Burtnieku iela 3 - 1","city":"Viesturi","zip":"LV-3921"},"burtnieku iela 3 - 2":{"address":"Burtnieku iela 3 - 2","city":"Viesturi","zip":"LV-3921"},"burtnieku iela 3 - 3":{"address":"Burtnieku iela 3 - 3","city":"Viesturi","zip":"LV-3921"},"burtnieku iela 3 - 4":{"address":"Burtnieku iela 3 - 4","city":"Viesturi","zip":"LV-3921"},"burtnieku iela 3 - 5":{"address":"Burtnieku iela 3 - 5","city":"Viesturi","zip":"LV-3921"},"burtnieku iela 3 - 6":{"address":"Burtnieku iela 3 - 6","city":"Viesturi","zip":"LV-3921"},"burtnieku iela 3 - 7":{"address":"Burtnieku iela 3 - 7","city":"Viesturi","zip":"LV-3921"},"burtnieku iela 3 - 8":{"address":"Burtnieku iela 3 - 8","city":"Viesturi","zip":"LV-3921"},"burtnieku iela 3 - 9":{"address":"Burtnieku iela 3 - 9","city":"Viesturi","zip":"LV-3921"},"burtnieku iela 3 - 10":{"address":"Burtnieku iela 3 - 10","city":"Viesturi","zip":"LV-3921"},"burtnieku iela 3 - 11":{"address":"Burtnieku iela 3 - 11","city":"Viesturi","zip":"LV-3921"},"burtnieku iela 3 - 12":{"address":"Burtnieku iela 3 - 12","city":"Viesturi","zip":"LV-3921"},"burtnieku iela 12 - 1":{"address":"Burtnieku iela 12 - 1","city":"Viesturi","zip":"LV-3921"},"burtnieku iela 12 - 2":{"address":"Burtnieku iela 12 - 2","city":"Viesturi","zip":"LV-3921"},"burtnieku iela 12 - 3":{"address":"Burtnieku iela 12 - 3","city":"Viesturi","zip":"LV-3921"},"burtnieku iela 12 - 4":{"address":"Burtnieku iela 12 - 4","city":"Viesturi","zip":"LV-3921"},"burtnieku iela 1 - 1":{"address":"Burtnieku iela 1 - 1","city":"Viesturi","zip":"LV-3921"},"burtnieku iela 1 - 2":{"address":"Burtnieku iela 1 - 2","city":"Viesturi","zip":"LV-3921"},"burtnieku iela 1 - 3":{"address":"Burtnieku iela 1 - 3","city":"Viesturi","zip":"LV-3921"},"burtnieku iela 1 - 4":{"address":"Burtnieku iela 1 - 4","city":"Viesturi","zip":"LV-3921"},"burtnieku iela 1 - 5":{"address":"Burtnieku iela 1 - 5","city":"Viesturi","zip":"LV-3921"},"burtnieku iela 1 - 6":{"address":"Burtnieku iela 1 - 6","city":"Viesturi","zip":"LV-3921"},"burtnieku iela 1 - 7":{"address":"Burtnieku iela 1 - 7","city":"Viesturi","zip":"LV-3921"},"burtnieku iela 1 - 8":{"address":"Burtnieku iela 1 - 8","city":"Viesturi","zip":"LV-3921"},"burtnieku iela 1 - 9":{"address":"Burtnieku iela 1 - 9","city":"Viesturi","zip":"LV-3921"},"burtnieku iela 1 - 10":{"address":"Burtnieku iela 1 - 10","city":"Viesturi","zip":"LV-3921"},"burtnieku iela 1 - 11":{"address":"Burtnieku iela 1 - 11","city":"Viesturi","zip":"LV-3921"},"burtnieku iela 1 - 12":{"address":"Burtnieku iela 1 - 12","city":"Viesturi","zip":"LV-3921"},"burtnieku iela 1 - 13":{"address":"Burtnieku iela 1 - 13","city":"Viesturi","zip":"LV-3921"},"burtnieku iela 1 - 14":{"address":"Burtnieku iela 1 - 14","city":"Viesturi","zip":"LV-3921"},"burtnieku iela 1 - 15":{"address":"Burtnieku iela 1 - 15","city":"Viesturi","zip":"LV-3921"},"burtnieku iela 1 - 16":{"address":"Burtnieku iela 1 - 16","city":"Viesturi","zip":"LV-3921"},"burtnieku iela 1 - 17":{"address":"Burtnieku iela 1 - 17","city":"Viesturi","zip":"LV-3921"},"burtnieku iela 1 - 18":{"address":"Burtnieku iela 1 - 18","city":"Viesturi","zip":"LV-3921"},"burtnieku iela 1 - 19":{"address":"Burtnieku iela 1 - 19","city":"Viesturi","zip":"LV-3921"},"burtnieku iela 1 - 20":{"address":"Burtnieku iela 1 - 20","city":"Viesturi","zip":"LV-3921"},"burtnieku iela 1 - 21":{"address":"Burtnieku iela 1 - 21","city":"Viesturi","zip":"LV-3921"},"burtnieku iela 1 - 22":{"address":"Burtnieku iela 1 - 22","city":"Viesturi","zip":"LV-3921"},"burtnieku iela 1 - 23":{"address":"Burtnieku iela 1 - 23","city":"Viesturi","zip":"LV-3921"},"burtnieku iela 1 - 24":{"address":"Burtnieku iela 1 - 24","city":"Viesturi","zip":"LV-3921"},"lejnieki 1 - 1":{"address":"Lejnieki 1 - 1","city":"Viesturi","zip":"LV-3921"},"lejnieki 1 - 2":{"address":"Lejnieki 1 - 2","city":"Viesturi","zip":"LV-3921"},"lejnieki 1 - 3":{"address":"Lejnieki 1 - 3","city":"Viesturi","zip":"LV-3921"},"lejnieki 1 - 4":{"address":"Lejnieki 1 - 4","city":"Viesturi","zip":"LV-3921"},"viesturi":{"address":"Viesturi","city":"Vecstāmeriena","zip":"LV-4406"}}