{"viesuļi - 1":{"address":"Viesuļi - 1","city":"Bārta","zip":"LV-3482"},"viesuļi - 2":{"address":"Viesuļi - 2","city":"Bārta","zip":"LV-3482"},"viesuļi - 3":{"address":"Viesuļi - 3","city":"Bārta","zip":"LV-3482"},"viesuļi - 4":{"address":"Viesuļi - 4","city":"Bārta","zip":"LV-3482"},"viesuļi - 5":{"address":"Viesuļi - 5","city":"Bārta","zip":"LV-3482"},"viesuļi - 6":{"address":"Viesuļi - 6","city":"Bārta","zip":"LV-3482"},"viesuļi - 7":{"address":"Viesuļi - 7","city":"Bārta","zip":"LV-3482"},"viesuļi - 8":{"address":"Viesuļi - 8","city":"Bārta","zip":"LV-3482"},"viesuļi - 9":{"address":"Viesuļi - 9","city":"Bārta","zip":"LV-3482"},"viesuļi - 10":{"address":"Viesuļi - 10","city":"Bārta","zip":"LV-3482"},"viesuļi - 11":{"address":"Viesuļi - 11","city":"Bārta","zip":"LV-3482"},"viesuļi - 12":{"address":"Viesuļi - 12","city":"Bārta","zip":"LV-3482"},"viesuļi - 13":{"address":"Viesuļi - 13","city":"Bārta","zip":"LV-3482"},"viesuļi - 14":{"address":"Viesuļi - 14","city":"Bārta","zip":"LV-3482"},"viesuļi - 15":{"address":"Viesuļi - 15","city":"Bārta","zip":"LV-3482"},"viesuļi - 16":{"address":"Viesuļi - 16","city":"Bārta","zip":"LV-3482"},"viesuļi - 17":{"address":"Viesuļi - 17","city":"Bārta","zip":"LV-3482"},"viesuļi - 18":{"address":"Viesuļi - 18","city":"Bārta","zip":"LV-3482"},"viesuļi":{"address":"Viesuļi","city":"Zaļmuiža","zip":"LV-4652"},"viesu māja":{"address":"Viesu māja","city":"Osinovka","zip":"LV-4617"},"viesu māja dekšņi":{"address":"Viesu māja Dekšņi","city":"Topciems","zip":"LV-3614"},"viesulēni":{"address":"Viesulēni","city":"Gauja","zip":"LV-2140"},"ilzezera viesu nams":{"address":"Ilzezera viesu nams","city":"Brūveri","zip":"LV-5304"},"viesūnes":{"address":"Viesūnes","city":"Dudišķi","zip":"LV-5304"},"viesuļi 1":{"address":"Viesuļi 1","city":"Mucenieki","zip":"LV-2137"},"viesuļi 2":{"address":"Viesuļi 2","city":"Mucenieki","zip":"LV-2137"},"viesu mājas":{"address":"Viesu mājas","city":"Tiskādi","zip":"LV-4636"}}