{"jāņa vintēna iela 4 - 1":{"address":"Jāņa Vintēna iela 4 - 1","city":"Burtnieki","zip":"LV-4206"},"jāņa vintēna iela 4 - 2":{"address":"Jāņa Vintēna iela 4 - 2","city":"Burtnieki","zip":"LV-4206"},"jāņa vintēna iela 4 - 3":{"address":"Jāņa Vintēna iela 4 - 3","city":"Burtnieki","zip":"LV-4206"},"jāņa vintēna iela 4 - 4":{"address":"Jāņa Vintēna iela 4 - 4","city":"Burtnieki","zip":"LV-4206"},"jāņa vintēna iela 4 - 5":{"address":"Jāņa Vintēna iela 4 - 5","city":"Burtnieki","zip":"LV-4206"},"jāņa vintēna iela 4 - 6":{"address":"Jāņa Vintēna iela 4 - 6","city":"Burtnieki","zip":"LV-4206"},"jāņa vintēna iela 4 - 7":{"address":"Jāņa Vintēna iela 4 - 7","city":"Burtnieki","zip":"LV-4206"},"jāņa vintēna iela 4 - 8":{"address":"Jāņa Vintēna iela 4 - 8","city":"Burtnieki","zip":"LV-4206"},"jāņa vintēna iela 4 - 9":{"address":"Jāņa Vintēna iela 4 - 9","city":"Burtnieki","zip":"LV-4206"},"jāņa vintēna iela 4 - 10":{"address":"Jāņa Vintēna iela 4 - 10","city":"Burtnieki","zip":"LV-4206"},"jāņa vintēna iela 3 - 1":{"address":"Jāņa Vintēna iela 3 - 1","city":"Burtnieki","zip":"LV-4206"},"jāņa vintēna iela 3 - 2":{"address":"Jāņa Vintēna iela 3 - 2","city":"Burtnieki","zip":"LV-4206"},"jāņa vintēna iela 3 - 3":{"address":"Jāņa Vintēna iela 3 - 3","city":"Burtnieki","zip":"LV-4206"},"jāņa vintēna iela 3 - 4":{"address":"Jāņa Vintēna iela 3 - 4","city":"Burtnieki","zip":"LV-4206"},"jāņa vintēna iela 3 - 5":{"address":"Jāņa Vintēna iela 3 - 5","city":"Burtnieki","zip":"LV-4206"},"jāņa vintēna iela 3 - 6":{"address":"Jāņa Vintēna iela 3 - 6","city":"Burtnieki","zip":"LV-4206"},"jāņa vintēna iela 3 - 7":{"address":"Jāņa Vintēna iela 3 - 7","city":"Burtnieki","zip":"LV-4206"},"jāņa vintēna iela 3 - 8":{"address":"Jāņa Vintēna iela 3 - 8","city":"Burtnieki","zip":"LV-4206"},"jāņa vintēna iela 3 - 9":{"address":"Jāņa Vintēna iela 3 - 9","city":"Burtnieki","zip":"LV-4206"},"jāņa vintēna iela 3 - 10":{"address":"Jāņa Vintēna iela 3 - 10","city":"Burtnieki","zip":"LV-4206"},"jāņa vintēna iela 3 - 11":{"address":"Jāņa Vintēna iela 3 - 11","city":"Burtnieki","zip":"LV-4206"},"jāņa vintēna iela 3 - 12":{"address":"Jāņa Vintēna iela 3 - 12","city":"Burtnieki","zip":"LV-4206"},"jāņa vintēna iela 3 - 13":{"address":"Jāņa Vintēna iela 3 - 13","city":"Burtnieki","zip":"LV-4206"},"jāņa vintēna iela 3 - 14":{"address":"Jāņa Vintēna iela 3 - 14","city":"Burtnieki","zip":"LV-4206"},"jāņa vintēna iela 3 - 15":{"address":"Jāņa Vintēna iela 3 - 15","city":"Burtnieki","zip":"LV-4206"},"jāņa vintēna iela 3 - 17":{"address":"Jāņa Vintēna iela 3 - 17","city":"Burtnieki","zip":"LV-4206"},"jāņa vintēna iela 3 - 18":{"address":"Jāņa Vintēna iela 3 - 18","city":"Burtnieki","zip":"LV-4206"},"jāņa vintēna iela 5 - 1":{"address":"Jāņa Vintēna iela 5 - 1","city":"Burtnieki","zip":"LV-4206"},"jāņa vintēna iela 5 - 2":{"address":"Jāņa Vintēna iela 5 - 2","city":"Burtnieki","zip":"LV-4206"},"jāņa vintēna iela 5 - 3":{"address":"Jāņa Vintēna iela 5 - 3","city":"Burtnieki","zip":"LV-4206"},"jāņa vintēna iela 5 - 4":{"address":"Jāņa Vintēna iela 5 - 4","city":"Burtnieki","zip":"LV-4206"},"jāņa vintēna iela 5 - 5":{"address":"Jāņa Vintēna iela 5 - 5","city":"Burtnieki","zip":"LV-4206"},"jāņa vintēna iela 5 - 6":{"address":"Jāņa Vintēna iela 5 - 6","city":"Burtnieki","zip":"LV-4206"},"jāņa vintēna iela 5 - 7":{"address":"Jāņa Vintēna iela 5 - 7","city":"Burtnieki","zip":"LV-4206"},"jāņa vintēna iela 5 - 8":{"address":"Jāņa Vintēna iela 5 - 8","city":"Burtnieki","zip":"LV-4206"},"jāņa vintēna iela 5 - 9":{"address":"Jāņa Vintēna iela 5 - 9","city":"Burtnieki","zip":"LV-4206"},"jāņa vintēna iela 5 - 10":{"address":"Jāņa Vintēna iela 5 - 10","city":"Burtnieki","zip":"LV-4206"},"jāņa vintēna iela 5 - 11":{"address":"Jāņa Vintēna iela 5 - 11","city":"Burtnieki","zip":"LV-4206"},"jāņa vintēna iela 5 - 12":{"address":"Jāņa Vintēna iela 5 - 12","city":"Burtnieki","zip":"LV-4206"},"jāņa vintēna iela 5 - 13":{"address":"Jāņa Vintēna iela 5 - 13","city":"Burtnieki","zip":"LV-4206"},"jāņa vintēna iela 5 - 14":{"address":"Jāņa Vintēna iela 5 - 14","city":"Burtnieki","zip":"LV-4206"},"jāņa vintēna iela 5 - 15":{"address":"Jāņa Vintēna iela 5 - 15","city":"Burtnieki","zip":"LV-4206"},"jāņa vintēna iela 5 - 16":{"address":"Jāņa Vintēna iela 5 - 16","city":"Burtnieki","zip":"LV-4206"},"jāņa vintēna iela 5 - 17":{"address":"Jāņa Vintēna iela 5 - 17","city":"Burtnieki","zip":"LV-4206"},"jāņa vintēna iela 5 - 18":{"address":"Jāņa Vintēna iela 5 - 18","city":"Burtnieki","zip":"LV-4206"},"jāņa vintēna iela 6 - 1":{"address":"Jāņa Vintēna iela 6 - 1","city":"Burtnieki","zip":"LV-4206"},"jāņa vintēna iela 6 - 2":{"address":"Jāņa Vintēna iela 6 - 2","city":"Burtnieki","zip":"LV-4206"},"jāņa vintēna iela 6 - 3":{"address":"Jāņa Vintēna iela 6 - 3","city":"Burtnieki","zip":"LV-4206"},"jāņa vintēna iela 6 - 4":{"address":"Jāņa Vintēna iela 6 - 4","city":"Burtnieki","zip":"LV-4206"},"jāņa vintēna iela 6 - 5":{"address":"Jāņa Vintēna iela 6 - 5","city":"Burtnieki","zip":"LV-4206"},"jāņa vintēna iela 6 - 6":{"address":"Jāņa Vintēna iela 6 - 6","city":"Burtnieki","zip":"LV-4206"},"jāņa vintēna iela 8":{"address":"Jāņa Vintēna iela 8","city":"Burtnieki","zip":"LV-4206"},"jāņa vintēna iela 10":{"address":"Jāņa Vintēna iela 10","city":"Burtnieki","zip":"LV-4206"},"jāņa vintēna iela 1":{"address":"Jāņa Vintēna iela 1","city":"Burtnieki","zip":"LV-4206"},"jāņa vintēna iela 2":{"address":"Jāņa Vintēna iela 2","city":"Burtnieki","zip":"LV-4206"},"jāņa vintēna iela 4":{"address":"Jāņa Vintēna iela 4","city":"Burtnieki","zip":"LV-4206"},"jāņa vintēna iela 6":{"address":"Jāņa Vintēna iela 6","city":"Burtnieki","zip":"LV-4206"},"jāņa vintēna iela 7":{"address":"Jāņa Vintēna iela 7","city":"Burtnieki","zip":"LV-4206"},"jāņa vintēna iela 5":{"address":"Jāņa Vintēna iela 5","city":"Burtnieki","zip":"LV-4206"},"jāņa vintēna iela 3":{"address":"Jāņa Vintēna iela 3","city":"Burtnieki","zip":"LV-4206"},"jāņa vintēna iela 12a":{"address":"Jāņa Vintēna iela 12A","city":"Burtnieki","zip":"LV-4206"},"jāņa vintēna iela 13":{"address":"Jāņa Vintēna iela 13","city":"Burtnieki","zip":"LV-4206"}}