{"palejas - 1":{"address":"Palejas - 1","city":"Purmsāti","zip":"LV-3485"},"palejas - 2":{"address":"Palejas - 2","city":"Purmsāti","zip":"LV-3485"},"jauncīruļi - 1":{"address":"Jauncīruļi - 1","city":"Purmsāti","zip":"LV-3485"},"jauncīruļi - 2":{"address":"Jauncīruļi - 2","city":"Purmsāti","zip":"LV-3485"},"kurši - 1":{"address":"Kurši - 1","city":"Purmsāti","zip":"LV-3485"},"kurši - 2":{"address":"Kurši - 2","city":"Purmsāti","zip":"LV-3485"},"kurši - 3":{"address":"Kurši - 3","city":"Purmsāti","zip":"LV-3485"},"kurši - 4":{"address":"Kurši - 4","city":"Purmsāti","zip":"LV-3485"},"kurši - 5":{"address":"Kurši - 5","city":"Purmsāti","zip":"LV-3485"},"kurši - 6":{"address":"Kurši - 6","city":"Purmsāti","zip":"LV-3485"},"kurši - 7":{"address":"Kurši - 7","city":"Purmsāti","zip":"LV-3485"},"kurši - 8":{"address":"Kurši - 8","city":"Purmsāti","zip":"LV-3485"},"kurši - 9":{"address":"Kurši - 9","city":"Purmsāti","zip":"LV-3485"},"kurši - 10":{"address":"Kurši - 10","city":"Purmsāti","zip":"LV-3485"},"kurši - 11":{"address":"Kurši - 11","city":"Purmsāti","zip":"LV-3485"},"kurši - 12":{"address":"Kurši - 12","city":"Purmsāti","zip":"LV-3485"},"kurši - 13":{"address":"Kurši - 13","city":"Purmsāti","zip":"LV-3485"},"kurši - 14":{"address":"Kurši - 14","city":"Purmsāti","zip":"LV-3485"},"kurši - 15":{"address":"Kurši - 15","city":"Purmsāti","zip":"LV-3485"},"kurši - 16":{"address":"Kurši - 16","city":"Purmsāti","zip":"LV-3485"},"kurši - 17":{"address":"Kurši - 17","city":"Purmsāti","zip":"LV-3485"},"kurši - 18":{"address":"Kurši - 18","city":"Purmsāti","zip":"LV-3485"},"kurši - 14a":{"address":"Kurši - 14A","city":"Purmsāti","zip":"LV-3485"},"dārza iela 9 - 1":{"address":"Dārza iela 9 - 1","city":"Purmsāti","zip":"LV-3485"},"dārza iela 9 - 2":{"address":"Dārza iela 9 - 2","city":"Purmsāti","zip":"LV-3485"},"dārza iela 9 - 3":{"address":"Dārza iela 9 - 3","city":"Purmsāti","zip":"LV-3485"},"dārza iela 9 - 4":{"address":"Dārza iela 9 - 4","city":"Purmsāti","zip":"LV-3485"},"dārza iela 9 - 5":{"address":"Dārza iela 9 - 5","city":"Purmsāti","zip":"LV-3485"},"dārza iela 9 - 6":{"address":"Dārza iela 9 - 6","city":"Purmsāti","zip":"LV-3485"},"dārza iela 9 - 7":{"address":"Dārza iela 9 - 7","city":"Purmsāti","zip":"LV-3485"},"dārza iela 9 - 8":{"address":"Dārza iela 9 - 8","city":"Purmsāti","zip":"LV-3485"},"dārza iela 9 - 9":{"address":"Dārza iela 9 - 9","city":"Purmsāti","zip":"LV-3485"},"dārza iela 9 - 10":{"address":"Dārza iela 9 - 10","city":"Purmsāti","zip":"LV-3485"},"dārza iela 9 - 11":{"address":"Dārza iela 9 - 11","city":"Purmsāti","zip":"LV-3485"},"dārza iela 9 - 12":{"address":"Dārza iela 9 - 12","city":"Purmsāti","zip":"LV-3485"},"dārza iela 9 - 13":{"address":"Dārza iela 9 - 13","city":"Purmsāti","zip":"LV-3485"},"rasas - 1":{"address":"Rasas - 1","city":"Virga","zip":"LV-3433"},"rasas - 2":{"address":"Rasas - 2","city":"Virga","zip":"LV-3433"},"rasas - 3":{"address":"Rasas - 3","city":"Virga","zip":"LV-3433"},"rožlejas kalniņi - 1":{"address":"Rožlejas Kalniņi - 1","city":"Virga","zip":"LV-3433"},"rožlejas kalniņi - 2":{"address":"Rožlejas Kalniņi - 2","city":"Virga","zip":"LV-3433"},"rožlejas kalniņi - 3":{"address":"Rožlejas Kalniņi - 3","city":"Virga","zip":"LV-3433"},"rožlejas kalniņi - 4":{"address":"Rožlejas Kalniņi - 4","city":"Virga","zip":"LV-3433"},"rožlejas kalniņi - 5":{"address":"Rožlejas Kalniņi - 5","city":"Virga","zip":"LV-3433"},"rožlejas kalniņi - 6":{"address":"Rožlejas Kalniņi - 6","city":"Virga","zip":"LV-3433"},"blāzmas - 1":{"address":"Blāzmas - 1","city":"Paplaka","zip":"LV-3433"},"blāzmas - 2":{"address":"Blāzmas - 2","city":"Paplaka","zip":"LV-3433"},"blāzmas - 3":{"address":"Blāzmas - 3","city":"Paplaka","zip":"LV-3433"},"blāzmas - 4":{"address":"Blāzmas - 4","city":"Paplaka","zip":"LV-3433"},"blāzmas - 5":{"address":"Blāzmas - 5","city":"Paplaka","zip":"LV-3433"},"blāzmas - 6":{"address":"Blāzmas - 6","city":"Paplaka","zip":"LV-3433"},"blāzmas - 7":{"address":"Blāzmas - 7","city":"Paplaka","zip":"LV-3433"},"blāzmas - 8":{"address":"Blāzmas - 8","city":"Paplaka","zip":"LV-3433"},"sarmas - 1":{"address":"Sarmas - 1","city":"Paplaka","zip":"LV-3433"},"sarmas - 2":{"address":"Sarmas - 2","city":"Paplaka","zip":"LV-3433"},"sarmas - 3":{"address":"Sarmas - 3","city":"Paplaka","zip":"LV-3433"},"sarmas - 4":{"address":"Sarmas - 4","city":"Paplaka","zip":"LV-3433"},"sarmas - 5":{"address":"Sarmas - 5","city":"Paplaka","zip":"LV-3433"},"sarmas - 6":{"address":"Sarmas - 6","city":"Paplaka","zip":"LV-3433"},"sarmas - 7":{"address":"Sarmas - 7","city":"Paplaka","zip":"LV-3433"},"sarmas - 8":{"address":"Sarmas - 8","city":"Paplaka","zip":"LV-3433"},"sarmas - 9":{"address":"Sarmas - 9","city":"Paplaka","zip":"LV-3433"},"sarmas - 10":{"address":"Sarmas - 10","city":"Paplaka","zip":"LV-3433"},"sarmas - 11":{"address":"Sarmas - 11","city":"Paplaka","zip":"LV-3433"},"sarmas - 12":{"address":"Sarmas - 12","city":"Paplaka","zip":"LV-3433"},"zīlītes - 4":{"address":"Zīlītes - 4","city":"Purmsāti","zip":"LV-3485"},"zīlītes - 5":{"address":"Zīlītes - 5","city":"Purmsāti","zip":"LV-3485"},"zīlītes - 1":{"address":"Zīlītes - 1","city":"Purmsāti","zip":"LV-3485"}}