{"virši - 1":{"address":"Virši - 1","city":"Laidi","zip":"LV-3317"},"virši - 2":{"address":"Virši - 2","city":"Laidi","zip":"LV-3317"},"virši - 3":{"address":"Virši - 3","city":"Laidi","zip":"LV-3317"},"virši - 4":{"address":"Virši - 4","city":"Laidi","zip":"LV-3317"},"virši - 5":{"address":"Virši - 5","city":"Laidi","zip":"LV-3317"},"virši - 6":{"address":"Virši - 6","city":"Laidi","zip":"LV-3317"},"virši - 7":{"address":"Virši - 7","city":"Laidi","zip":"LV-3317"},"virši - 8":{"address":"Virši - 8","city":"Laidi","zip":"LV-3317"},"virši - 9":{"address":"Virši - 9","city":"Laidi","zip":"LV-3317"},"virši - 10":{"address":"Virši - 10","city":"Laidi","zip":"LV-3317"},"virši - 11":{"address":"Virši - 11","city":"Laidi","zip":"LV-3317"},"virši - 12":{"address":"Virši - 12","city":"Jaunpēternieki","zip":"LV-3018"},"virši - 13":{"address":"Virši - 13","city":"Biksti","zip":"LV-3713"},"virši - 14":{"address":"Virši - 14","city":"Biksti","zip":"LV-3713"},"virši - 15":{"address":"Virši - 15","city":"Biksti","zip":"LV-3713"},"virši - 16":{"address":"Virši - 16","city":"Biksti","zip":"LV-3713"},"virši - 17":{"address":"Virši - 17","city":"Biksti","zip":"LV-3713"},"virši - 18":{"address":"Virši - 18","city":"Biksti","zip":"LV-3713"}}