{"viļņi - 1":{"address":"Viļņi - 1","city":"Ķeipene","zip":"LV-5062"},"viļņi - 2":{"address":"Viļņi - 2","city":"Ķeipene","zip":"LV-5062"},"viļņi - 3":{"address":"Viļņi - 3","city":"Ķeipene","zip":"LV-5062"},"viļņi - 4":{"address":"Viļņi - 4","city":"Priedaine","zip":"LV-3301"},"viļņi - 5":{"address":"Viļņi - 5","city":"Ķeipene","zip":"LV-5062"},"viļņi - 6":{"address":"Viļņi - 6","city":"Ķeipene","zip":"LV-5062"},"viļņi - 7":{"address":"Viļņi - 7","city":"Ķeipene","zip":"LV-5062"},"viļņi - 8":{"address":"Viļņi - 8","city":"Strautiņi","zip":"LV-4333"},"viļņi - 9":{"address":"Viļņi - 9","city":"Ķeipene","zip":"LV-5062"},"viļņi - 10":{"address":"Viļņi - 10","city":"Strautiņi","zip":"LV-4333"},"viļņi - 11":{"address":"Viļņi - 11","city":"Strautiņi","zip":"LV-4333"},"viļņi - 12":{"address":"Viļņi - 12","city":"Strautiņi","zip":"LV-4333"},"viļņi - 13":{"address":"Viļņi - 13","city":"Strautiņi","zip":"LV-4333"},"viļņi - 14":{"address":"Viļņi - 14","city":"Strautiņi","zip":"LV-4333"},"viļņi - 15":{"address":"Viļņi - 15","city":"Strautiņi","zip":"LV-4333"},"viļņi - 16":{"address":"Viļņi - 16","city":"Strautiņi","zip":"LV-4333"},"viļņi - 17":{"address":"Viļņi - 17","city":"Strautiņi","zip":"LV-4333"},"viļņi - 18":{"address":"Viļņi - 18","city":"Strautiņi","zip":"LV-4333"},"vilnīši - 1":{"address":"Vilnīši - 1","city":"Piziči","zip":"LV-4650"},"vilnīši - 2":{"address":"Vilnīši - 2","city":"Piziči","zip":"LV-4650"},"vilnīšu iela 2 - 1":{"address":"Vilnīšu iela 2 - 1","city":"Dzidriņas","zip":"LV-2130"},"vilnīšu iela 2 - 2":{"address":"Vilnīšu iela 2 - 2","city":"Dzidriņas","zip":"LV-2130"},"vilnīši - 3":{"address":"Vilnīši - 3","city":"Piziči","zip":"LV-4650"},"vilnīši - 4":{"address":"Vilnīši - 4","city":"Piziči","zip":"LV-4650"},"viļņi":{"address":"Viļņi","city":"Valmiermuiža","zip":"LV-4219"},"vilnīši":{"address":"Vilnīši","city":"Dzērbene","zip":"LV-4118"}}