{"vārpu iela 3 - 1":{"address":"Vārpu iela 3 - 1","city":"Emburga","zip":"LV-3851"},"vārpu iela 3 - 2":{"address":"Vārpu iela 3 - 2","city":"Emburga","zip":"LV-3851"},"vārpu iela 3 - 3":{"address":"Vārpu iela 3 - 3","city":"Emburga","zip":"LV-3851"},"vārpu iela 3 - 4":{"address":"Vārpu iela 3 - 4","city":"Emburga","zip":"LV-3851"},"vārpu iela 3 - 5":{"address":"Vārpu iela 3 - 5","city":"Emburga","zip":"LV-3851"},"vārpu iela 3 - 6":{"address":"Vārpu iela 3 - 6","city":"Emburga","zip":"LV-3851"},"vārpu iela 3 - 7":{"address":"Vārpu iela 3 - 7","city":"Emburga","zip":"LV-3851"},"vārpu iela 3 - 8":{"address":"Vārpu iela 3 - 8","city":"Emburga","zip":"LV-3851"},"vārpu iela 3 - 9":{"address":"Vārpu iela 3 - 9","city":"Emburga","zip":"LV-3851"},"vārpu iela 3 - 10":{"address":"Vārpu iela 3 - 10","city":"Emburga","zip":"LV-3851"},"vārpu iela 3 - 11":{"address":"Vārpu iela 3 - 11","city":"Emburga","zip":"LV-3851"},"vārpu iela 3 - 12":{"address":"Vārpu iela 3 - 12","city":"Emburga","zip":"LV-3851"},"vārpu iela 3 - 13":{"address":"Vārpu iela 3 - 13","city":"Emburga","zip":"LV-3851"},"vārpu iela 3 - 14":{"address":"Vārpu iela 3 - 14","city":"Emburga","zip":"LV-3851"},"vārpu iela 3 - 15":{"address":"Vārpu iela 3 - 15","city":"Emburga","zip":"LV-3851"},"vārpu iela 3 - 16":{"address":"Vārpu iela 3 - 16","city":"Emburga","zip":"LV-3851"},"vārpu iela 3 - 17":{"address":"Vārpu iela 3 - 17","city":"Emburga","zip":"LV-3851"},"vārpu iela 3 - 18":{"address":"Vārpu iela 3 - 18","city":"Emburga","zip":"LV-3851"},"vārpu iela 8 - 1":{"address":"Vārpu iela 8 - 1","city":"Mārupe","zip":"LV-2167"},"vārpu iela 8 - 2":{"address":"Vārpu iela 8 - 2","city":"Mārupe","zip":"LV-2167"},"vārpu iela 8 - 3":{"address":"Vārpu iela 8 - 3","city":"Mārupe","zip":"LV-2167"},"vārpu iela 11 - 1":{"address":"Vārpu iela 11 - 1","city":"Mārupe","zip":"LV-2167"},"vārpu iela 11 - 2":{"address":"Vārpu iela 11 - 2","city":"Mārupe","zip":"LV-2167"},"vārpu iela 11 - 3":{"address":"Vārpu iela 11 - 3","city":"Mārupe","zip":"LV-2167"},"vārpu iela 11 - 4":{"address":"Vārpu iela 11 - 4","city":"Mārupe","zip":"LV-2167"},"vārpu iela 11 - 5":{"address":"Vārpu iela 11 - 5","city":"Mārupe","zip":"LV-2167"},"vārpu iela 48 - 1":{"address":"Vārpu iela 48 - 1","city":"Mārupe","zip":"LV-2167"},"vārpu iela 48 - 2":{"address":"Vārpu iela 48 - 2","city":"Mārupe","zip":"LV-2167"},"vārpu muiža - 1":{"address":"Vārpu Muiža - 1","city":"Vārpas","zip":"LV-2125"},"vārpu muiža - 2":{"address":"Vārpu Muiža - 2","city":"Vārpas","zip":"LV-2125"},"vārpu muiža - 3":{"address":"Vārpu Muiža - 3","city":"Vārpas","zip":"LV-2125"},"vārpu muiža - 4":{"address":"Vārpu Muiža - 4","city":"Vārpas","zip":"LV-2125"},"vārpu iela 3":{"address":"Vārpu iela 3","city":"Emburga","zip":"LV-3851"},"vārpu iela 17a":{"address":"Vārpu iela 17A","city":"Mārupe","zip":"LV-2167"},"vārpu iela 41a":{"address":"Vārpu iela 41A","city":"Mārupe","zip":"LV-2167"},"vārpu iela 2":{"address":"Vārpu iela 2","city":"Mārupe","zip":"LV-2167"},"vārpu iela 2a":{"address":"Vārpu iela 2A","city":"Mārupe","zip":"LV-2167"},"vārpu iela 4":{"address":"Vārpu iela 4","city":"Mārupe","zip":"LV-2167"},"vārpu iela 5":{"address":"Vārpu iela 5","city":"Mārupe","zip":"LV-2167"},"vārpu iela 6":{"address":"Vārpu iela 6","city":"Mārupe","zip":"LV-2167"},"vārpu iela 7":{"address":"Vārpu iela 7","city":"Mārupe","zip":"LV-2167"},"vārpu iela 8":{"address":"Vārpu iela 8","city":"Mārupe","zip":"LV-2167"},"vārpu iela 9":{"address":"Vārpu iela 9","city":"Mārupe","zip":"LV-2167"},"vārpu iela 10":{"address":"Vārpu iela 10","city":"Mārupe","zip":"LV-2167"},"vārpu iela 11":{"address":"Vārpu iela 11","city":"Mārupe","zip":"LV-2167"}}