{"vārpas - 1":{"address":"Vārpas - 1","city":"Satiķi","zip":"LV-3873"},"vārpas - 2":{"address":"Vārpas - 2","city":"Satiķi","zip":"LV-3873"},"vārpas - 3":{"address":"Vārpas - 3","city":"Satiķi","zip":"LV-3873"},"vārpas - 4":{"address":"Vārpas - 4","city":"Satiķi","zip":"LV-3873"},"vārpas - 5":{"address":"Vārpas - 5","city":"Satiķi","zip":"LV-3873"},"vārpas - 6":{"address":"Vārpas - 6","city":"Satiķi","zip":"LV-3873"},"vārpas - 7":{"address":"Vārpas - 7","city":"Satiķi","zip":"LV-3873"},"vārpas - 8":{"address":"Vārpas - 8","city":"Satiķi","zip":"LV-3873"},"vārpas - 9":{"address":"Vārpas - 9","city":"Satiķi","zip":"LV-3873"},"vārpas - 10":{"address":"Vārpas - 10","city":"Bērzkrogs","zip":"LV-4116"},"vārpas - 11":{"address":"Vārpas - 11","city":"Bērzkrogs","zip":"LV-4116"},"vārpas - 12":{"address":"Vārpas - 12","city":"Bērzkrogs","zip":"LV-4116"},"vārpas - 13":{"address":"Vārpas - 13","city":"Bērzkrogs","zip":"LV-4116"},"vārpas - 14":{"address":"Vārpas - 14","city":"Bērzkrogs","zip":"LV-4116"},"vārpas - 15":{"address":"Vārpas - 15","city":"Bērzkrogs","zip":"LV-4116"},"vārpas - 16":{"address":"Vārpas - 16","city":"Bērzkrogs","zip":"LV-4116"},"vārpas - 17":{"address":"Vārpas - 17","city":"Bērzkrogs","zip":"LV-4116"},"vārpas - 18":{"address":"Vārpas - 18","city":"Bērzkrogs","zip":"LV-4116"},"vārpas - 19":{"address":"Vārpas - 19","city":"Bērzkrogs","zip":"LV-4116"},"vārpas - 20":{"address":"Vārpas - 20","city":"Bērzkrogs","zip":"LV-4116"},"vārpas - 21":{"address":"Vārpas - 21","city":"Bērzkrogs","zip":"LV-4116"},"vārpas - 22":{"address":"Vārpas - 22","city":"Bērzkrogs","zip":"LV-4116"},"vārpas - 23":{"address":"Vārpas - 23","city":"Bērzkrogs","zip":"LV-4116"},"vārpas - 24":{"address":"Vārpas - 24","city":"Bērzkrogs","zip":"LV-4116"}}