{"arāji - 1":{"address":"Arāji - 1","city":"Vērsis","zip":"LV-4242"},"arāji - 2":{"address":"Arāji - 2","city":"Vērsis","zip":"LV-4242"},"arāji - 3":{"address":"Arāji - 3","city":"Vērsis","zip":"LV-4242"},"arāji - 4":{"address":"Arāji - 4","city":"Vērsis","zip":"LV-4242"},"arāji - 5":{"address":"Arāji - 5","city":"Vērsis","zip":"LV-4242"},"arāji - 6":{"address":"Arāji - 6","city":"Vērsis","zip":"LV-4242"},"arāji - 7":{"address":"Arāji - 7","city":"Vērsis","zip":"LV-4242"},"arāji - 8":{"address":"Arāji - 8","city":"Vērsis","zip":"LV-4242"},"gubeņi":{"address":"Gubeņi","city":"Vērsis","zip":"LV-4242"},"arāji":{"address":"Arāji","city":"Vērsis","zip":"LV-4242"},"bāliņi":{"address":"Bāliņi","city":"Vērsis","zip":"LV-4242"},"birzītes":{"address":"Birzītes","city":"Vērsis","zip":"LV-4242"},"caunas":{"address":"Caunas","city":"Vērsis","zip":"LV-4242"},"fazāni":{"address":"Fazāni","city":"Vērsis","zip":"LV-4242"},"ilgas":{"address":"Ilgas","city":"Vērsis","zip":"LV-4242"},"kārkliņi":{"address":"Kārkliņi","city":"Vērsis","zip":"LV-4242"},"kastaņi":{"address":"Kastaņi","city":"Vērsis","zip":"LV-4242"},"kraujēni":{"address":"Kraujēni","city":"Vērsis","zip":"LV-4242"},"lāses":{"address":"Lāses","city":"Vērsis","zip":"LV-4242"},"lazdas":{"address":"Lazdas","city":"Vērsis","zip":"LV-4242"},"rūķīši":{"address":"Rūķīši","city":"Vērsis","zip":"LV-4242"},"salnas":{"address":"Salnas","city":"Vērsis","zip":"LV-4242"},"tulpes":{"address":"Tulpes","city":"Vērsis","zip":"LV-4242"},"veikals vērsis":{"address":"Veikals Vērsis","city":"Vērsis","zip":"LV-4242"},"vērši":{"address":"Vērši","city":"Vērsis","zip":"LV-4242"},"zemturi":{"address":"Zemturi","city":"Vērsis","zip":"LV-4242"},"ābelītes":{"address":"Ābelītes","city":"Vērsis","zip":"LV-4242"},"versīši":{"address":"Versīši","city":"Ričiki","zip":"LV-5701"}}