{"vēsmas - 1":{"address":"Vēsmas - 1","city":"Dubulti","zip":"LV-5220"},"vēsmas - 2":{"address":"Vēsmas - 2","city":"Dubulti","zip":"LV-5220"},"vēsmas - 3":{"address":"Vēsmas - 3","city":"Dubulti","zip":"LV-5220"},"vēsmas - 4":{"address":"Vēsmas - 4","city":"Dubulti","zip":"LV-5220"},"vēsmas - 5":{"address":"Vēsmas - 5","city":"Dubulti","zip":"LV-5220"},"vēsmas - 6":{"address":"Vēsmas - 6","city":"Dubulti","zip":"LV-5220"},"vēsmas - 7":{"address":"Vēsmas - 7","city":"Dubulti","zip":"LV-5220"},"vēsmas - 8":{"address":"Vēsmas - 8","city":"Dubulti","zip":"LV-5220"},"vēsmas - 9":{"address":"Vēsmas - 9","city":"Slampe","zip":"LV-3119"},"vēsmas - 10":{"address":"Vēsmas - 10","city":"Slampe","zip":"LV-3119"},"vēsmas - 11":{"address":"Vēsmas - 11","city":"Slampe","zip":"LV-3119"},"vēsmas - 12":{"address":"Vēsmas - 12","city":"Slampe","zip":"LV-3119"},"vēsmas - 13":{"address":"Vēsmas - 13","city":"Slampe","zip":"LV-3119"},"vēsmas - 14":{"address":"Vēsmas - 14","city":"Slampe","zip":"LV-3119"},"vēsmas - 15":{"address":"Vēsmas - 15","city":"Slampe","zip":"LV-3119"},"vēsmas - 16":{"address":"Vēsmas - 16","city":"Slampe","zip":"LV-3119"},"vēsmas - 17":{"address":"Vēsmas - 17","city":"Slampe","zip":"LV-3119"},"vēsmas - 18":{"address":"Vēsmas - 18","city":"Slampe","zip":"LV-3119"},"vēsmas":{"address":"Vēsmas","city":"Atpūta","zip":"LV-3008"},"ezera iela vēsmas":{"address":"Ezera iela Vēsmas","city":"Svitene","zip":"LV-3917"}}