{"vītoliņi - 1":{"address":"Vītoliņi - 1","city":"Ance","zip":"LV-3612"},"vītoliņi - 2":{"address":"Vītoliņi - 2","city":"Ance","zip":"LV-3612"},"vītoliņi - 3":{"address":"Vītoliņi - 3","city":"Ance","zip":"LV-3612"},"vītoliņi - 4":{"address":"Vītoliņi - 4","city":"Ance","zip":"LV-3612"},"vītoliņi - 5":{"address":"Vītoliņi - 5","city":"Ance","zip":"LV-3612"},"vītoliņi - 6":{"address":"Vītoliņi - 6","city":"Ance","zip":"LV-3612"},"melnezeri - 1":{"address":"Melnezeri - 1","city":"Vītoliņi","zip":"LV-3017"},"melnezeri - 2":{"address":"Melnezeri - 2","city":"Vītoliņi","zip":"LV-3017"},"melnezeri - 3":{"address":"Melnezeri - 3","city":"Vītoliņi","zip":"LV-3017"},"melnezeri - 4":{"address":"Melnezeri - 4","city":"Vītoliņi","zip":"LV-3017"},"vērpju iela 3 - 1":{"address":"Vērpju iela 3 - 1","city":"Vītoliņi","zip":"LV-3017"},"vērpju iela 3 - 2":{"address":"Vērpju iela 3 - 2","city":"Vītoliņi","zip":"LV-3017"},"vērpju iela 3 - 3":{"address":"Vērpju iela 3 - 3","city":"Vītoliņi","zip":"LV-3017"},"vērpju iela 3 - 4":{"address":"Vērpju iela 3 - 4","city":"Vītoliņi","zip":"LV-3017"},"paegļu iela 8 - 1":{"address":"Paegļu iela 8 - 1","city":"Vītoliņi","zip":"LV-3017"},"paegļu iela 8 - 2":{"address":"Paegļu iela 8 - 2","city":"Vītoliņi","zip":"LV-3017"},"paegļu iela 8 - 3":{"address":"Paegļu iela 8 - 3","city":"Vītoliņi","zip":"LV-3017"},"paegļu iela 8 - 4":{"address":"Paegļu iela 8 - 4","city":"Vītoliņi","zip":"LV-3017"},"paegļu iela 8 - 5":{"address":"Paegļu iela 8 - 5","city":"Vītoliņi","zip":"LV-3017"},"paegļu iela 8 - 6":{"address":"Paegļu iela 8 - 6","city":"Vītoliņi","zip":"LV-3017"},"paegļu iela 8 - 7":{"address":"Paegļu iela 8 - 7","city":"Vītoliņi","zip":"LV-3017"},"paegļu iela 8 - 8":{"address":"Paegļu iela 8 - 8","city":"Vītoliņi","zip":"LV-3017"},"ērgļu iela 4 - 1":{"address":"Ērgļu iela 4 - 1","city":"Vītoliņi","zip":"LV-3017"},"ērgļu iela 4 - 2":{"address":"Ērgļu iela 4 - 2","city":"Vītoliņi","zip":"LV-3017"},"ērgļu iela 4 - 3":{"address":"Ērgļu iela 4 - 3","city":"Vītoliņi","zip":"LV-3017"},"ērgļu iela 4 - 4":{"address":"Ērgļu iela 4 - 4","city":"Vītoliņi","zip":"LV-3017"},"ērgļu iela 4 - 5":{"address":"Ērgļu iela 4 - 5","city":"Vītoliņi","zip":"LV-3017"},"ērgļu iela 4 - 6":{"address":"Ērgļu iela 4 - 6","city":"Vītoliņi","zip":"LV-3017"},"mehanizatoru iela 3 - 1":{"address":"Mehanizatoru iela 3 - 1","city":"Vītoliņi","zip":"LV-3017"},"mehanizatoru iela 3 - 2":{"address":"Mehanizatoru iela 3 - 2","city":"Vītoliņi","zip":"LV-3017"},"mehanizatoru iela 3 - 3":{"address":"Mehanizatoru iela 3 - 3","city":"Vītoliņi","zip":"LV-3017"},"mehanizatoru iela 3 - 4":{"address":"Mehanizatoru iela 3 - 4","city":"Vītoliņi","zip":"LV-3017"},"mehanizatoru iela 3 - 5":{"address":"Mehanizatoru iela 3 - 5","city":"Vītoliņi","zip":"LV-3017"},"mehanizatoru iela 3 - 6":{"address":"Mehanizatoru iela 3 - 6","city":"Vītoliņi","zip":"LV-3017"},"paegļu iela 4 - 1":{"address":"Paegļu iela 4 - 1","city":"Vītoliņi","zip":"LV-3017"},"paegļu iela 4 - 2":{"address":"Paegļu iela 4 - 2","city":"Vītoliņi","zip":"LV-3017"},"paegļu iela 4 - 3":{"address":"Paegļu iela 4 - 3","city":"Vītoliņi","zip":"LV-3017"},"paegļu iela 4 - 4":{"address":"Paegļu iela 4 - 4","city":"Vītoliņi","zip":"LV-3017"},"paegļu iela 4 - 5":{"address":"Paegļu iela 4 - 5","city":"Vītoliņi","zip":"LV-3017"},"paegļu iela 4 - 6":{"address":"Paegļu iela 4 - 6","city":"Vītoliņi","zip":"LV-3017"},"paegļu iela 4 - 7":{"address":"Paegļu iela 4 - 7","city":"Vītoliņi","zip":"LV-3017"},"paegļu iela 4 - 8":{"address":"Paegļu iela 4 - 8","city":"Vītoliņi","zip":"LV-3017"},"paegļu iela 4 - 9":{"address":"Paegļu iela 4 - 9","city":"Vītoliņi","zip":"LV-3017"},"paegļu iela 4 - 10":{"address":"Paegļu iela 4 - 10","city":"Vītoliņi","zip":"LV-3017"},"paegļu iela 4 - 11":{"address":"Paegļu iela 4 - 11","city":"Vītoliņi","zip":"LV-3017"},"paegļu iela 4 - 12":{"address":"Paegļu iela 4 - 12","city":"Vītoliņi","zip":"LV-3017"},"paegļu iela 6 - 1":{"address":"Paegļu iela 6 - 1","city":"Vītoliņi","zip":"LV-3017"},"paegļu iela 6 - 2":{"address":"Paegļu iela 6 - 2","city":"Vītoliņi","zip":"LV-3017"},"paegļu iela 6 - 3":{"address":"Paegļu iela 6 - 3","city":"Vītoliņi","zip":"LV-3017"},"paegļu iela 6 - 4":{"address":"Paegļu iela 6 - 4","city":"Vītoliņi","zip":"LV-3017"},"paegļu iela 6 - 5":{"address":"Paegļu iela 6 - 5","city":"Vītoliņi","zip":"LV-3017"},"paegļu iela 6 - 6":{"address":"Paegļu iela 6 - 6","city":"Vītoliņi","zip":"LV-3017"},"paegļu iela 6 - 7":{"address":"Paegļu iela 6 - 7","city":"Vītoliņi","zip":"LV-3017"},"paegļu iela 6 - 8":{"address":"Paegļu iela 6 - 8","city":"Vītoliņi","zip":"LV-3017"},"vītolu iela 1 - 1":{"address":"Vītolu iela 1 - 1","city":"Vītoliņi","zip":"LV-3017"},"vītolu iela 1 - 2":{"address":"Vītolu iela 1 - 2","city":"Vītoliņi","zip":"LV-3017"},"vītolu iela 1 - 3":{"address":"Vītolu iela 1 - 3","city":"Vītoliņi","zip":"LV-3017"},"vītolu iela 1 - 4":{"address":"Vītolu iela 1 - 4","city":"Vītoliņi","zip":"LV-3017"},"vītolu iela 1 - 5":{"address":"Vītolu iela 1 - 5","city":"Vītoliņi","zip":"LV-3017"},"vītolu iela 1 - 6":{"address":"Vītolu iela 1 - 6","city":"Vītoliņi","zip":"LV-3017"},"vītolu iela 1 - 7":{"address":"Vītolu iela 1 - 7","city":"Vītoliņi","zip":"LV-3017"},"vītolu iela 1 - 8":{"address":"Vītolu iela 1 - 8","city":"Vītoliņi","zip":"LV-3017"},"vītolu iela 1 - 9":{"address":"Vītolu iela 1 - 9","city":"Vītoliņi","zip":"LV-3017"},"vītolu iela 1 - 10":{"address":"Vītolu iela 1 - 10","city":"Vītoliņi","zip":"LV-3017"},"vītolu iela 1 - 11":{"address":"Vītolu iela 1 - 11","city":"Vītoliņi","zip":"LV-3017"},"vītolu iela 1 - 12":{"address":"Vītolu iela 1 - 12","city":"Vītoliņi","zip":"LV-3017"},"vītolu iela 1 - 13":{"address":"Vītolu iela 1 - 13","city":"Vītoliņi","zip":"LV-3017"},"vītolu iela 1 - 14":{"address":"Vītolu iela 1 - 14","city":"Vītoliņi","zip":"LV-3017"},"vītolu iela 1 - 15":{"address":"Vītolu iela 1 - 15","city":"Vītoliņi","zip":"LV-3017"},"vītolu iela 1 - 16":{"address":"Vītolu iela 1 - 16","city":"Vītoliņi","zip":"LV-3017"},"vītolu iela 1 - 17":{"address":"Vītolu iela 1 - 17","city":"Vītoliņi","zip":"LV-3017"},"vītolu iela 1 - 18":{"address":"Vītolu iela 1 - 18","city":"Vītoliņi","zip":"LV-3017"},"vītolu iela 3 - 1":{"address":"Vītolu iela 3 - 1","city":"Vītoliņi","zip":"LV-3017"},"vītolu iela 3 - 2":{"address":"Vītolu iela 3 - 2","city":"Vītoliņi","zip":"LV-3017"},"vītolu iela 3 - 3":{"address":"Vītolu iela 3 - 3","city":"Vītoliņi","zip":"LV-3017"},"vītolu iela 3 - 4":{"address":"Vītolu iela 3 - 4","city":"Vītoliņi","zip":"LV-3017"},"vītolu iela 3 - 5":{"address":"Vītolu iela 3 - 5","city":"Vītoliņi","zip":"LV-3017"},"vītolu iela 3 - 6":{"address":"Vītolu iela 3 - 6","city":"Vītoliņi","zip":"LV-3017"},"vītolu iela 3 - 7":{"address":"Vītolu iela 3 - 7","city":"Vītoliņi","zip":"LV-3017"},"vītolu iela 3 - 8":{"address":"Vītolu iela 3 - 8","city":"Vītoliņi","zip":"LV-3017"},"vītolu iela 3 - 9":{"address":"Vītolu iela 3 - 9","city":"Vītoliņi","zip":"LV-3017"},"vītolu iela 3 - 10":{"address":"Vītolu iela 3 - 10","city":"Vītoliņi","zip":"LV-3017"},"vītolu iela 3 - 11":{"address":"Vītolu iela 3 - 11","city":"Vītoliņi","zip":"LV-3017"},"vītolu iela 3 - 12":{"address":"Vītolu iela 3 - 12","city":"Vītoliņi","zip":"LV-3017"},"vītolu iela 3 - 13":{"address":"Vītolu iela 3 - 13","city":"Vītoliņi","zip":"LV-3017"},"vītolu iela 3 - 14":{"address":"Vītolu iela 3 - 14","city":"Vītoliņi","zip":"LV-3017"},"vītolu iela 3 - 15":{"address":"Vītolu iela 3 - 15","city":"Vītoliņi","zip":"LV-3017"},"vītolu iela 3 - 16":{"address":"Vītolu iela 3 - 16","city":"Vītoliņi","zip":"LV-3017"},"vītolu iela 3 - 17":{"address":"Vītolu iela 3 - 17","city":"Vītoliņi","zip":"LV-3017"},"vītolu iela 3 - 18":{"address":"Vītolu iela 3 - 18","city":"Vītoliņi","zip":"LV-3017"}}