{"vītoli - 1":{"address":"Vītoli - 1","city":"Ance","zip":"LV-3612"},"vītoli - 2":{"address":"Vītoli - 2","city":"Ance","zip":"LV-3612"},"vītoli - 3":{"address":"Vītoli - 3","city":"Ance","zip":"LV-3612"},"vītoli - 4":{"address":"Vītoli - 4","city":"Ance","zip":"LV-3612"},"vītoli - 5":{"address":"Vītoli - 5","city":"Ance","zip":"LV-3612"},"vītoli - 6":{"address":"Vītoli - 6","city":"Ruba","zip":"LV-3894"},"vītoli - 7":{"address":"Vītoli - 7","city":"Ruba","zip":"LV-3894"},"vītoli - 8":{"address":"Vītoli - 8","city":"Ruba","zip":"LV-3894"},"vītoli - 9":{"address":"Vītoli - 9","city":"Ruba","zip":"LV-3894"},"vītoli - 10":{"address":"Vītoli - 10","city":"Ruba","zip":"LV-3894"},"vītoli - 11":{"address":"Vītoli - 11","city":"Ruba","zip":"LV-3894"},"vītoli - 12":{"address":"Vītoli - 12","city":"Ruba","zip":"LV-3894"},"vītoli - 13":{"address":"Vītoli - 13","city":"Nītaure","zip":"LV-4112"},"vītoli - 14":{"address":"Vītoli - 14","city":"Nītaure","zip":"LV-4112"},"vītoli - 15":{"address":"Vītoli - 15","city":"Nītaure","zip":"LV-4112"},"vītoli - 16":{"address":"Vītoli - 16","city":"Nītaure","zip":"LV-4112"},"vītoli - 17":{"address":"Vītoli - 17","city":"Nītaure","zip":"LV-4112"},"vītoli - 18":{"address":"Vītoli - 18","city":"Nītaure","zip":"LV-4112"},"vītoli - 19":{"address":"Vītoli - 19","city":"Nītaure","zip":"LV-4112"},"vītoli - 20":{"address":"Vītoli - 20","city":"Nītaure","zip":"LV-4112"},"vītoli - 21":{"address":"Vītoli - 21","city":"Nītaure","zip":"LV-4112"},"vītoli - 22":{"address":"Vītoli - 22","city":"Nītaure","zip":"LV-4112"},"vītoli - 23":{"address":"Vītoli - 23","city":"Nītaure","zip":"LV-4112"},"vītoli - 24":{"address":"Vītoli - 24","city":"Nītaure","zip":"LV-4112"},"līgas vītoli - 1":{"address":"Līgas Vītoli - 1","city":"Augšlīgatne","zip":"LV-4108"},"līgas vītoli - 2":{"address":"Līgas Vītoli - 2","city":"Augšlīgatne","zip":"LV-4108"},"līgas vītoli - 4":{"address":"Līgas Vītoli - 4","city":"Augšlīgatne","zip":"LV-4108"},"līgas vītoli - 5":{"address":"Līgas Vītoli - 5","city":"Augšlīgatne","zip":"LV-4108"},"līgas vītoli - 6":{"address":"Līgas Vītoli - 6","city":"Augšlīgatne","zip":"LV-4108"},"līgas vītoli - 7":{"address":"Līgas Vītoli - 7","city":"Augšlīgatne","zip":"LV-4108"},"līgas vītoli - 8":{"address":"Līgas Vītoli - 8","city":"Augšlīgatne","zip":"LV-4108"},"lādes vītoli - 1":{"address":"Lādes Vītoli - 1","city":"Lāde","zip":"LV-4020"},"lādes vītoli - 2":{"address":"Lādes Vītoli - 2","city":"Lāde","zip":"LV-4020"},"lādes vītoli - 3":{"address":"Lādes Vītoli - 3","city":"Lāde","zip":"LV-4020"},"lādes vītoli - 4":{"address":"Lādes Vītoli - 4","city":"Lāde","zip":"LV-4020"},"lādes vītoli - 5":{"address":"Lādes Vītoli - 5","city":"Lāde","zip":"LV-4020"}}