{"1":{"address":"1","city":"Zaļais sils","zip":"LV-5465"},"2":{"address":"2","city":"Zaļais sils","zip":"LV-5465"},"3":{"address":"3","city":"Zaļais sils","zip":"LV-5465"},"4":{"address":"4","city":"Zaļais sils","zip":"LV-5465"},"5":{"address":"5","city":"Zaļais sils","zip":"LV-5465"},"6":{"address":"6","city":"Zaļais sils","zip":"LV-5465"},"7":{"address":"7","city":"Zaļais sils","zip":"LV-5465"},"8":{"address":"8","city":"Zaļais sils","zip":"LV-5465"},"9":{"address":"9","city":"Zaļais sils","zip":"LV-5465"},"10":{"address":"10","city":"Zaļais sils","zip":"LV-5465"},"11":{"address":"11","city":"Zaļais sils","zip":"LV-5465"},"12":{"address":"12","city":"Zaļais sils","zip":"LV-5465"},"13":{"address":"13","city":"Zaļais sils","zip":"LV-5465"},"14":{"address":"14","city":"Zaļais sils","zip":"LV-5465"},"15":{"address":"15","city":"Zaļais sils","zip":"LV-5465"},"16":{"address":"16","city":"Zaļais sils","zip":"LV-5465"},"17":{"address":"17","city":"Zaļais sils","zip":"LV-5465"},"18":{"address":"18","city":"Zaļais sils","zip":"LV-5465"},"19":{"address":"19","city":"Zaļais sils","zip":"LV-5465"},"20":{"address":"20","city":"Zaļais sils","zip":"LV-5465"},"21":{"address":"21","city":"Zaļais sils","zip":"LV-5465"},"22":{"address":"22","city":"Zaļais sils","zip":"LV-5465"},"23":{"address":"23","city":"Zaļais sils","zip":"LV-5465"},"24":{"address":"24","city":"Zaļais sils","zip":"LV-5465"},"25":{"address":"25","city":"Zaļais sils","zip":"LV-5465"},"26":{"address":"26","city":"Zaļais sils","zip":"LV-5465"},"27":{"address":"27","city":"Zaļais sils","zip":"LV-5465"},"28":{"address":"28","city":"Zaļais sils","zip":"LV-5465"},"29":{"address":"29","city":"Zaļais sils","zip":"LV-5465"},"30":{"address":"30","city":"Zaļais sils","zip":"LV-5465"},"31":{"address":"31","city":"Zaļais sils","zip":"LV-5465"},"32":{"address":"32","city":"Zaļais sils","zip":"LV-5465"},"33":{"address":"33","city":"Zaļais sils","zip":"LV-5465"},"34":{"address":"34","city":"Zaļais sils","zip":"LV-5465"},"35":{"address":"35","city":"Zaļais sils","zip":"LV-5465"},"36":{"address":"36","city":"Zaļais sils","zip":"LV-5465"},"37":{"address":"37","city":"Zaļais sils","zip":"LV-5465"},"38":{"address":"38","city":"Zaļais sils","zip":"LV-5465"},"39":{"address":"39","city":"Zaļais sils","zip":"LV-5465"},"40":{"address":"40","city":"Zaļais sils","zip":"LV-5465"},"41":{"address":"41","city":"Zaļais sils","zip":"LV-5465"},"42":{"address":"42","city":"Zaļais sils","zip":"LV-5465"},"43":{"address":"43","city":"Zaļais sils","zip":"LV-5465"},"44":{"address":"44","city":"Zaļais sils","zip":"LV-5465"},"45":{"address":"45","city":"Zaļais sils","zip":"LV-5465"},"46":{"address":"46","city":"Zaļais sils","zip":"LV-5465"},"47":{"address":"47","city":"Zaļais sils","zip":"LV-5465"},"48":{"address":"48","city":"Zaļais sils","zip":"LV-5465"},"49":{"address":"49","city":"Zaļais sils","zip":"LV-5465"},"50":{"address":"50","city":"Zaļais sils","zip":"LV-5465"},"51":{"address":"51","city":"Zaļais sils","zip":"LV-5465"},"52":{"address":"52","city":"Zaļais sils","zip":"LV-5465"},"53":{"address":"53","city":"Zaļais sils","zip":"LV-5465"},"54":{"address":"54","city":"Zaļais sils","zip":"LV-5465"},"55":{"address":"55","city":"Zaļais sils","zip":"LV-5465"},"56":{"address":"56","city":"Zaļais sils","zip":"LV-5465"},"57":{"address":"57","city":"Zaļais sils","zip":"LV-5465"},"58":{"address":"58","city":"Zaļais sils","zip":"LV-5465"},"59":{"address":"59","city":"Zaļais sils","zip":"LV-5465"},"60":{"address":"60","city":"Zaļais sils","zip":"LV-5465"},"61":{"address":"61","city":"Zaļais sils","zip":"LV-5465"},"62":{"address":"62","city":"Zaļais sils","zip":"LV-5465"},"63":{"address":"63","city":"Zaļais sils","zip":"LV-5465"},"64":{"address":"64","city":"Zaļais sils","zip":"LV-5465"},"65":{"address":"65","city":"Zaļais sils","zip":"LV-5465"},"66":{"address":"66","city":"Zaļais sils","zip":"LV-5465"},"67":{"address":"67","city":"Zaļais sils","zip":"LV-5465"},"68":{"address":"68","city":"Zaļais sils","zip":"LV-5465"},"69":{"address":"69","city":"Zaļais sils","zip":"LV-5465"},"70":{"address":"70","city":"Zaļais sils","zip":"LV-5465"},"71":{"address":"71","city":"Zaļais sils","zip":"LV-5465"},"72":{"address":"72","city":"Zaļais sils","zip":"LV-5465"},"73":{"address":"73","city":"Zaļais sils","zip":"LV-5465"},"74":{"address":"74","city":"Zaļais sils","zip":"LV-5465"},"75":{"address":"75","city":"Zaļais sils","zip":"LV-5465"},"76":{"address":"76","city":"Zaļais sils","zip":"LV-5465"},"77":{"address":"77","city":"Zaļais sils","zip":"LV-5465"},"78":{"address":"78","city":"Zaļais sils","zip":"LV-5465"},"79":{"address":"79","city":"Zaļais sils","zip":"LV-5465"},"80":{"address":"80","city":"Zaļais sils","zip":"LV-5465"},"zaļais krogs - 1":{"address":"Zaļais Krogs - 1","city":"Cīruļi","zip":"LV-3253"},"zaļais krogs - 2":{"address":"Zaļais Krogs - 2","city":"Cīruļi","zip":"LV-3253"},"zaļais sils":{"address":"Zaļais sils","city":"Solomenka","zip":"LV-4630"},"zaļais celiņš":{"address":"Zaļais Celiņš","city":"Zūsāni","zip":"LV-5481"},"zaļais kalns":{"address":"Zaļais kalns","city":"Ramaniški","zip":"LV-5681"},"zaļais krogs":{"address":"Zaļais Krogs","city":"Cīruļi","zip":"LV-3253"},"zaļaislauks r":{"address":"Zaļaislauks R","city":"Desetnīki","zip":"LV-4652"},"lauri 3":{"address":"Lauri 3","city":"Zaļais sils","zip":"LV-5465"},"zaļais":{"address":"Zaļais","city":"Sudari","zip":"LV-5330"},"zaļaislauks":{"address":"Zaļaislauks","city":"Desetnīki","zip":"LV-4652"},"zaļais parks":{"address":"Zaļais parks","city":"Šķaune","zip":"LV-5695"},"lāči":{"address":"Lāči","city":"Zaļais sils","zip":"LV-5465"}}