{"zālāji - 1":{"address":"Zālāji - 1","city":"Jaunzemi","zip":"LV-4344"},"zālāji - 2":{"address":"Zālāji - 2","city":"Jaunzemi","zip":"LV-4344"},"zālāji - 3":{"address":"Zālāji - 3","city":"Jaunzemi","zip":"LV-4344"},"zālāji - 4":{"address":"Zālāji - 4","city":"Jaunzemi","zip":"LV-4344"},"zālāji - 5":{"address":"Zālāji - 5","city":"Jaunzemi","zip":"LV-4344"},"zālāji - 6":{"address":"Zālāji - 6","city":"Jaunzemi","zip":"LV-4344"},"zālāji - 7":{"address":"Zālāji - 7","city":"Jaunzemi","zip":"LV-4344"},"zālāji - 8":{"address":"Zālāji - 8","city":"Jaunzemi","zip":"LV-4344"},"zālāji - 9":{"address":"Zālāji - 9","city":"Jaunzemi","zip":"LV-4344"},"zālāji - 10":{"address":"Zālāji - 10","city":"Jaunzemi","zip":"LV-4344"},"zālāji - 11":{"address":"Zālāji - 11","city":"Jaunzemi","zip":"LV-4344"},"zālāji - 12":{"address":"Zālāji - 12","city":"Jaunzemi","zip":"LV-4344"},"zālāji - 13":{"address":"Zālāji - 13","city":"Jaunzemi","zip":"LV-4344"},"zālāji - 14":{"address":"Zālāji - 14","city":"Jaunzemi","zip":"LV-4344"},"zālāji - 15":{"address":"Zālāji - 15","city":"Jaunzemi","zip":"LV-4344"},"zālāji - 16":{"address":"Zālāji - 16","city":"Jaunzemi","zip":"LV-4344"},"zālāji - 17":{"address":"Zālāji - 17","city":"Jaunzemi","zip":"LV-4344"},"zālāji - 18":{"address":"Zālāji - 18","city":"Jaunzemi","zip":"LV-4344"},"zālāji - 19":{"address":"Zālāji - 19","city":"Jaunzemi","zip":"LV-4344"},"zālāji - 20":{"address":"Zālāji - 20","city":"Jaunzemi","zip":"LV-4344"},"zālāji - 21":{"address":"Zālāji - 21","city":"Jaunzemi","zip":"LV-4344"},"zālāji - 22":{"address":"Zālāji - 22","city":"Jaunzemi","zip":"LV-4344"},"zālāji - 23":{"address":"Zālāji - 23","city":"Jaunzemi","zip":"LV-4344"},"zālāji - 24":{"address":"Zālāji - 24","city":"Jaunzemi","zip":"LV-4344"},"zaļā iela 2 - 1":{"address":"Zaļā iela 2 - 1","city":"Viļķene","zip":"LV-4050"},"zaļā iela 2 - 2":{"address":"Zaļā iela 2 - 2","city":"Viļķene","zip":"LV-4050"},"zaļā iela 2 - 3":{"address":"Zaļā iela 2 - 3","city":"Viļķene","zip":"LV-4050"}}