{"ozolītes - 1":{"address":"Ozolītes - 1","city":"Zeltiņi","zip":"LV-4611"},"ozolītes - 2":{"address":"Ozolītes - 2","city":"Zeltiņi","zip":"LV-4611"},"tērces - 1":{"address":"Tērces - 1","city":"Zeltiņi","zip":"LV-4345"},"tērces - 2":{"address":"Tērces - 2","city":"Zeltiņi","zip":"LV-4345"},"tērces - 3":{"address":"Tērces - 3","city":"Zeltiņi","zip":"LV-4345"},"tērces - 4":{"address":"Tērces - 4","city":"Zeltiņi","zip":"LV-4345"},"tērces - 5":{"address":"Tērces - 5","city":"Zeltiņi","zip":"LV-4345"},"tērces - 6":{"address":"Tērces - 6","city":"Zeltiņi","zip":"LV-4345"},"tērces - 7":{"address":"Tērces - 7","city":"Zeltiņi","zip":"LV-4345"},"tērces - 8":{"address":"Tērces - 8","city":"Zeltiņi","zip":"LV-4345"},"tērces - 9":{"address":"Tērces - 9","city":"Zeltiņi","zip":"LV-4345"},"tērces - 10":{"address":"Tērces - 10","city":"Zeltiņi","zip":"LV-4345"},"tērces - 11":{"address":"Tērces - 11","city":"Zeltiņi","zip":"LV-4345"},"tērces - 12":{"address":"Tērces - 12","city":"Zeltiņi","zip":"LV-4345"},"tērces - 13":{"address":"Tērces - 13","city":"Zeltiņi","zip":"LV-4345"},"tērces - 14":{"address":"Tērces - 14","city":"Zeltiņi","zip":"LV-4345"},"tērces - 15":{"address":"Tērces - 15","city":"Zeltiņi","zip":"LV-4345"},"tērces - 16":{"address":"Tērces - 16","city":"Zeltiņi","zip":"LV-4345"},"tērces - 17":{"address":"Tērces - 17","city":"Zeltiņi","zip":"LV-4345"},"tērces - 18":{"address":"Tērces - 18","city":"Zeltiņi","zip":"LV-4345"},"tērces - 19":{"address":"Tērces - 19","city":"Zeltiņi","zip":"LV-4345"},"tērces - 20":{"address":"Tērces - 20","city":"Zeltiņi","zip":"LV-4345"},"tērces - 21":{"address":"Tērces - 21","city":"Zeltiņi","zip":"LV-4345"},"tērces - 22":{"address":"Tērces - 22","city":"Zeltiņi","zip":"LV-4345"},"tērces - 23":{"address":"Tērces - 23","city":"Zeltiņi","zip":"LV-4345"},"tērces - 24":{"address":"Tērces - 24","city":"Zeltiņi","zip":"LV-4345"},"straumes - 1":{"address":"Straumes - 1","city":"Zeltiņi","zip":"LV-4345"},"straumes - 2":{"address":"Straumes - 2","city":"Zeltiņi","zip":"LV-4345"},"straumes - 3":{"address":"Straumes - 3","city":"Zeltiņi","zip":"LV-4345"},"straumes - 4":{"address":"Straumes - 4","city":"Zeltiņi","zip":"LV-4345"},"melnupes - 1":{"address":"Melnupes - 1","city":"Zeltiņi","zip":"LV-4345"},"melnupes - 2":{"address":"Melnupes - 2","city":"Zeltiņi","zip":"LV-4345"},"melnupes - 3":{"address":"Melnupes - 3","city":"Zeltiņi","zip":"LV-4345"},"melnupes - 4":{"address":"Melnupes - 4","city":"Zeltiņi","zip":"LV-4345"},"melnupes - 5":{"address":"Melnupes - 5","city":"Zeltiņi","zip":"LV-4345"},"melnupes - 6":{"address":"Melnupes - 6","city":"Zeltiņi","zip":"LV-4345"},"melnupes - 7":{"address":"Melnupes - 7","city":"Zeltiņi","zip":"LV-4345"},"melnupes - 8":{"address":"Melnupes - 8","city":"Zeltiņi","zip":"LV-4345"},"melnupes - 9":{"address":"Melnupes - 9","city":"Zeltiņi","zip":"LV-4345"},"melnupes - 10":{"address":"Melnupes - 10","city":"Zeltiņi","zip":"LV-4345"},"melnupes - 11":{"address":"Melnupes - 11","city":"Zeltiņi","zip":"LV-4345"},"melnupes - 12":{"address":"Melnupes - 12","city":"Zeltiņi","zip":"LV-4345"},"pagastmāja - 1":{"address":"Pagastmāja - 1","city":"Zeltiņi","zip":"LV-4345"},"pagastmāja - 2":{"address":"Pagastmāja - 2","city":"Zeltiņi","zip":"LV-4345"},"pagastmāja - 3":{"address":"Pagastmāja - 3","city":"Zeltiņi","zip":"LV-4345"},"aptieka - 1":{"address":"Aptieka - 1","city":"Zeltiņi","zip":"LV-4345"},"aptieka - 2":{"address":"Aptieka - 2","city":"Zeltiņi","zip":"LV-4345"},"aptieka - 3":{"address":"Aptieka - 3","city":"Zeltiņi","zip":"LV-4345"},"aptieka - 4":{"address":"Aptieka - 4","city":"Zeltiņi","zip":"LV-4345"},"zeltiņi - 1":{"address":"Zeltiņi - 1","city":"Loja","zip":"LV-2142"},"zeltiņi - 2":{"address":"Zeltiņi - 2","city":"Loja","zip":"LV-2142"},"zeltiņi - 3":{"address":"Zeltiņi - 3","city":"Loja","zip":"LV-2142"},"zeltiņi - 4":{"address":"Zeltiņi - 4","city":"Loja","zip":"LV-2142"},"zeltiņi - 5":{"address":"Zeltiņi - 5","city":"Loja","zip":"LV-2142"},"zeltiņi - 6":{"address":"Zeltiņi - 6","city":"Loja","zip":"LV-2142"},"zeltiņi - 7":{"address":"Zeltiņi - 7","city":"Loja","zip":"LV-2142"},"zeltiņi - 8":{"address":"Zeltiņi - 8","city":"Loja","zip":"LV-2142"},"zeltiņi - 9":{"address":"Zeltiņi - 9","city":"Loja","zip":"LV-2142"},"zeltiņi - 10":{"address":"Zeltiņi - 10","city":"Loja","zip":"LV-2142"},"zeltiņi - 11":{"address":"Zeltiņi - 11","city":"Loja","zip":"LV-2142"},"zeltiņi - 12":{"address":"Zeltiņi - 12","city":"Loja","zip":"LV-2142"},"zeltiņi - 13":{"address":"Zeltiņi - 13","city":"Loja","zip":"LV-2142"},"zeltiņi - 14":{"address":"Zeltiņi - 14","city":"Loja","zip":"LV-2142"},"zeltiņi - 15":{"address":"Zeltiņi - 15","city":"Loja","zip":"LV-2142"},"zeltiņi - 16":{"address":"Zeltiņi - 16","city":"Loja","zip":"LV-2142"},"zeltiņi - 17":{"address":"Zeltiņi - 17","city":"Loja","zip":"LV-2142"},"zeltiņi - 18":{"address":"Zeltiņi - 18","city":"Loja","zip":"LV-2142"},"zeltiņi - 19":{"address":"Zeltiņi - 19","city":"Loja","zip":"LV-2142"}}