{"1":{"address":"1","city":"Zelta kalns","zip":"LV-5460"},"2":{"address":"2","city":"Zelta kalns","zip":"LV-5460"},"3":{"address":"3","city":"Zelta kalns","zip":"LV-5460"},"4":{"address":"4","city":"Zelta kalns","zip":"LV-5460"},"5":{"address":"5","city":"Zelta kalns","zip":"LV-5460"},"8":{"address":"8","city":"Zelta kalns","zip":"LV-5460"},"9":{"address":"9","city":"Zelta kalns","zip":"LV-5460"},"10":{"address":"10","city":"Zelta kalns","zip":"LV-5460"},"11":{"address":"11","city":"Zelta kalns","zip":"LV-5460"},"16":{"address":"16","city":"Zelta kalns","zip":"LV-5460"},"zeltas - 1":{"address":"Zeltas - 1","city":"Mazpiltene","zip":"LV-3270"},"zeltas - 2":{"address":"Zeltas - 2","city":"Mazpiltene","zip":"LV-3270"},"zeltas - 3":{"address":"Zeltas - 3","city":"Mazpiltene","zip":"LV-3270"},"zeltas - 4":{"address":"Zeltas - 4","city":"Mazpiltene","zip":"LV-3270"},"zeltas - 5":{"address":"Zeltas - 5","city":"Mazpiltene","zip":"LV-3270"},"zeltas - 6":{"address":"Zeltas - 6","city":"Mazpiltene","zip":"LV-3270"},"zeltas - 8":{"address":"Zeltas - 8","city":"Mazpiltene","zip":"LV-3270"},"zelta iela 9 - 1":{"address":"Zelta iela 9 - 1","city":"Stapriņi","zip":"LV-2164"},"zelta iela 9 - 2":{"address":"Zelta iela 9 - 2","city":"Stapriņi","zip":"LV-2164"},"zeltakalni":{"address":"Zeltakalni","city":"Ūdrīši","zip":"LV-5601"},"zelta pļaviņas":{"address":"Zelta pļaviņas","city":"Pugači","zip":"LV-4576"},"zeltalejas":{"address":"Zeltalejas","city":"Zeltiņi","zip":"LV-4345"},"zelta laimas":{"address":"Zelta Laimas","city":"Dimzukalns","zip":"LV-3913"},"zelta druva":{"address":"Zelta Druva","city":"Miltiņi","zip":"LV-3732"},"zeltarāji":{"address":"Zeltarāji","city":"Saraiķi","zip":"LV-3463"},"zeltas":{"address":"Zeltas","city":"Paugurciems","zip":"LV-3201"},"zelta iela 3":{"address":"Zelta iela 3","city":"Ziemeļblāzma","zip":"LV-4025"},"zelta rudens":{"address":"Zelta rudens","city":"Lielie Dreizi","zip":"LV-4641"},"zelta iela 6":{"address":"Zelta iela 6","city":"Ziemeļblāzma","zip":"LV-4025"},"zelta iela 11":{"address":"Zelta iela 11","city":"Ziemeļblāzma","zip":"LV-4025"},"zelta iela 9":{"address":"Zelta iela 9","city":"Stapriņi","zip":"LV-2164"},"zelta iela 7":{"address":"Zelta iela 7","city":"Stapriņi","zip":"LV-2164"},"zelta iela 5":{"address":"Zelta iela 5","city":"Stapriņi","zip":"LV-2164"},"zelta iela 2":{"address":"Zelta iela 2","city":"Ziemeļblāzma","zip":"LV-4025"},"zelta iela 1":{"address":"Zelta iela 1","city":"Ziemeļblāzma","zip":"LV-4025"},"zelta iela 4":{"address":"Zelta iela 4","city":"Ziemeļblāzma","zip":"LV-4025"},"zelta mājas":{"address":"Zelta mājas","city":"Zeļtovka","zip":"LV-5325"},"zelta zivtiņa":{"address":"Zelta zivtiņa","city":"Gasuļi","zip":"LV-4636"},"zelta zīles":{"address":"Zelta zīles","city":"Sprinda","zip":"LV-4636"},"zelta lapsas":{"address":"Zelta lapsas","city":"Zeļčeva","zip":"LV-5735"},"zelta auns":{"address":"Zelta Auns","city":"Trikāta","zip":"LV-4731"},"zeltaiņi":{"address":"Zeltaiņi","city":"Amatciems","zip":"LV-4101"},"zelta priede":{"address":"Zelta Priede","city":"Meļņova","zip":"LV-4604"},"zeltadruvas":{"address":"Zeltadruvas","city":"Arendole","zip":"LV-5325"},"zelta kadiķi":{"address":"Zelta kadiķi","city":"Ūdrīši","zip":"LV-5601"},"zelta zirgi":{"address":"Zelta zirgi","city":"Ludvikova","zip":"LV-5601"},"zelta bumbieri":{"address":"Zelta bumbieri","city":"Adamova","zip":"LV-5601"},"zelta āboli":{"address":"Zelta āboli","city":"Zapoļniki","zip":"LV-5651"},"zelta stari":{"address":"Zelta stari","city":"Rakuti","zip":"LV-5601"},"zelta kļava":{"address":"Zelta Kļava","city":"Maskovskaja","zip":"LV-5481"},"ainavas 1":{"address":"Ainavas 1","city":"Zeltapurvs","zip":"LV-5456"},"aizkalni":{"address":"Aizkalni","city":"Zeltapurvs","zip":"LV-5456"},"zelta skaida":{"address":"Zelta Skaida","city":"Trikāta","zip":"LV-4731"},"zelta graudi":{"address":"Zelta graudi","city":"Gruzdeļi","zip":"LV-4636"},"zeltaleja":{"address":"Zeltaleja","city":"Lauderi","zip":"LV-5722"},"zelta kalns":{"address":"Zelta Kalns","city":"Ļamoni","zip":"LV-5704"},"mežvidi":{"address":"Mežvidi","city":"Zeltapurvs","zip":"LV-5456"},"zelta sietiņš":{"address":"Zelta Sietiņš","city":"Rubeņi","zip":"LV-5229"},"zelta enkurs":{"address":"Zelta Enkurs","city":"Kurma","zip":"LV-5733"},"zelta vārpa":{"address":"Zelta vārpa","city":"Plotupi","zip":"LV-5481"},"zelta druvas":{"address":"Zelta druvas","city":"Šusti","zip":"LV-5692"},"zelta bites":{"address":"Zelta bites","city":"Novomisļi","zip":"LV-5692"},"zelta dīķi":{"address":"Zelta dīķi","city":"Karklinova","zip":"LV-5664"},"zelta takas":{"address":"Zelta takas","city":"Lielie Muļķi","zip":"LV-5651"},"zelta purvs":{"address":"Zelta Purvs","city":"Motivāni","zip":"LV-5477"}}