{"zemgaļi - 1":{"address":"Zemgaļi - 1","city":"Slampe","zip":"LV-3119"},"zemgaļi - 2":{"address":"Zemgaļi - 2","city":"Slampe","zip":"LV-3119"},"zemgaļi - 3":{"address":"Zemgaļi - 3","city":"Slampe","zip":"LV-3119"},"zemgaļi - 4":{"address":"Zemgaļi - 4","city":"Slampe","zip":"LV-3119"},"zemgaļi - 5":{"address":"Zemgaļi - 5","city":"Slampe","zip":"LV-3119"},"zemgaļi - 6":{"address":"Zemgaļi - 6","city":"Slampe","zip":"LV-3119"},"zemgaļi - 7":{"address":"Zemgaļi - 7","city":"Slampe","zip":"LV-3119"},"zemgaļi - 8":{"address":"Zemgaļi - 8","city":"Slampe","zip":"LV-3119"},"zemgaļi - 9":{"address":"Zemgaļi - 9","city":"Slampe","zip":"LV-3119"},"zemgaļi - 10":{"address":"Zemgaļi - 10","city":"Slampe","zip":"LV-3119"},"zemgaļi - 11":{"address":"Zemgaļi - 11","city":"Slampe","zip":"LV-3119"},"zemgaļi - 12":{"address":"Zemgaļi - 12","city":"Slampe","zip":"LV-3119"},"zemgaļi - 13":{"address":"Zemgaļi - 13","city":"Slampe","zip":"LV-3119"},"zemgaļi - 14":{"address":"Zemgaļi - 14","city":"Slampe","zip":"LV-3119"},"zemgaļi - 15":{"address":"Zemgaļi - 15","city":"Slampe","zip":"LV-3119"},"zemgaļi - 16":{"address":"Zemgaļi - 16","city":"Slampe","zip":"LV-3119"},"zemgaļi - 17":{"address":"Zemgaļi - 17","city":"Slampe","zip":"LV-3119"},"zemgaļi - 18":{"address":"Zemgaļi - 18","city":"Slampe","zip":"LV-3119"},"levestes zemgaļi - 1":{"address":"Levestes Zemgaļi - 1","city":"Leveste","zip":"LV-3145"},"levestes zemgaļi - 2":{"address":"Levestes Zemgaļi - 2","city":"Leveste","zip":"LV-3145"},"levestes zemgaļi - 3":{"address":"Levestes Zemgaļi - 3","city":"Leveste","zip":"LV-3145"},"levestes zemgaļi - 4":{"address":"Levestes Zemgaļi - 4","city":"Leveste","zip":"LV-3145"},"levestes zemgaļi - 5":{"address":"Levestes Zemgaļi - 5","city":"Leveste","zip":"LV-3145"},"zemgalieši - 1":{"address":"Zemgalieši - 1","city":"Jaunsaule","zip":"LV-3915"},"zemgalieši - 2":{"address":"Zemgalieši - 2","city":"Jaunsaule","zip":"LV-3915"},"zemgalieši - 3":{"address":"Zemgalieši - 3","city":"Jaunsaule","zip":"LV-3915"},"zemgalieši - 4":{"address":"Zemgalieši - 4","city":"Jaunsaule","zip":"LV-3915"},"zemgalieši - 5":{"address":"Zemgalieši - 5","city":"Jaunsaule","zip":"LV-3915"},"zemgalieši - 6":{"address":"Zemgalieši - 6","city":"Jaunsaule","zip":"LV-3915"},"zemgalieši - 7":{"address":"Zemgalieši - 7","city":"Jaunsaule","zip":"LV-3915"},"zemgalieši - 8":{"address":"Zemgalieši - 8","city":"Jaunsaule","zip":"LV-3915"},"zemgaļi 2 - 1":{"address":"Zemgaļi 2 - 1","city":"Palsmane","zip":"LV-4724"},"zemgaļi 2 - 2":{"address":"Zemgaļi 2 - 2","city":"Palsmane","zip":"LV-4724"},"zemgaļi 1 - 1":{"address":"Zemgaļi 1 - 1","city":"Palsmane","zip":"LV-4724"},"zemgaļi 1 - 2":{"address":"Zemgaļi 1 - 2","city":"Palsmane","zip":"LV-4724"},"zemgaļi 1 - 3":{"address":"Zemgaļi 1 - 3","city":"Palsmane","zip":"LV-4724"},"zemgaļi 1 - 4":{"address":"Zemgaļi 1 - 4","city":"Palsmane","zip":"LV-4724"},"zemgaļi":{"address":"Zemgaļi","city":"Pilsrundāle","zip":"LV-3921"},"veikals zemgaļi":{"address":"Veikals Zemgaļi","city":"Mūsa","zip":"LV-3931"}}