{"kalniņi - 1":{"address":"Kalniņi - 1","city":"Grenči","zip":"LV-3135"},"kalniņi - 2":{"address":"Kalniņi - 2","city":"Grenči","zip":"LV-3135"},"kalniņi - 3":{"address":"Kalniņi - 3","city":"Grenči","zip":"LV-3135"},"kalniņi - 4":{"address":"Kalniņi - 4","city":"Grenči","zip":"LV-3135"},"skaistkalni - 1":{"address":"Skaistkalni - 1","city":"Grenči","zip":"LV-3135"},"skaistkalni - 2":{"address":"Skaistkalni - 2","city":"Grenči","zip":"LV-3135"},"skaistkalni - 3":{"address":"Skaistkalni - 3","city":"Grenči","zip":"LV-3135"},"skaistkalni - 4":{"address":"Skaistkalni - 4","city":"Grenči","zip":"LV-3135"},"skaistkalni - 5":{"address":"Skaistkalni - 5","city":"Grenči","zip":"LV-3135"},"skaistkalni - 6":{"address":"Skaistkalni - 6","city":"Grenči","zip":"LV-3135"},"skaistkalni - 7":{"address":"Skaistkalni - 7","city":"Grenči","zip":"LV-3135"},"skaistkalni - 8":{"address":"Skaistkalni - 8","city":"Grenči","zip":"LV-3135"},"ziedkalni - 1":{"address":"Ziedkalni - 1","city":"Grenči","zip":"LV-3135"},"ziedkalni - 2":{"address":"Ziedkalni - 2","city":"Grenči","zip":"LV-3135"},"ziedkalni - 3":{"address":"Ziedkalni - 3","city":"Grenči","zip":"LV-3135"},"ziedkalni - 4":{"address":"Ziedkalni - 4","city":"Grenči","zip":"LV-3135"},"ziedkalni - 5":{"address":"Ziedkalni - 5","city":"Grenči","zip":"LV-3135"},"ziedkalni - 6":{"address":"Ziedkalni - 6","city":"Grenči","zip":"LV-3135"},"ziedkalni - 7":{"address":"Ziedkalni - 7","city":"Grenči","zip":"LV-3135"},"ziedkalni - 8":{"address":"Ziedkalni - 8","city":"Grenči","zip":"LV-3135"},"liepu iela 10 - 1":{"address":"Liepu iela 10 - 1","city":"Zemīte","zip":"LV-3135"},"liepu iela 10 - 2":{"address":"Liepu iela 10 - 2","city":"Zemīte","zip":"LV-3135"},"ieviņu iela 6 - 1":{"address":"Ieviņu iela 6 - 1","city":"Zemīte","zip":"LV-3135"},"ieviņu iela 6 - 2":{"address":"Ieviņu iela 6 - 2","city":"Zemīte","zip":"LV-3135"},"podiņi - 19":{"address":"Podiņi - 19","city":"Zemīte","zip":"LV-3135"},"podiņi - 20":{"address":"Podiņi - 20","city":"Zemīte","zip":"LV-3135"},"podiņi - 21":{"address":"Podiņi - 21","city":"Zemīte","zip":"LV-3135"},"podiņi - 22":{"address":"Podiņi - 22","city":"Zemīte","zip":"LV-3135"},"podiņi - 23":{"address":"Podiņi - 23","city":"Zemīte","zip":"LV-3135"},"podiņi - 1":{"address":"Podiņi - 1","city":"Zemīte","zip":"LV-3135"},"podiņi - 2":{"address":"Podiņi - 2","city":"Zemīte","zip":"LV-3135"},"podiņi - 3":{"address":"Podiņi - 3","city":"Zemīte","zip":"LV-3135"},"podiņi - 4":{"address":"Podiņi - 4","city":"Zemīte","zip":"LV-3135"},"podiņi - 5":{"address":"Podiņi - 5","city":"Zemīte","zip":"LV-3135"},"podiņi - 6":{"address":"Podiņi - 6","city":"Zemīte","zip":"LV-3135"},"podiņi - 7":{"address":"Podiņi - 7","city":"Zemīte","zip":"LV-3135"},"podiņi - 8":{"address":"Podiņi - 8","city":"Zemīte","zip":"LV-3135"},"podiņi - 9":{"address":"Podiņi - 9","city":"Zemīte","zip":"LV-3135"},"podiņi - 10":{"address":"Podiņi - 10","city":"Zemīte","zip":"LV-3135"},"podiņi - 11":{"address":"Podiņi - 11","city":"Zemīte","zip":"LV-3135"},"podiņi - 12":{"address":"Podiņi - 12","city":"Zemīte","zip":"LV-3135"},"podiņi - 13":{"address":"Podiņi - 13","city":"Zemīte","zip":"LV-3135"},"podiņi - 14":{"address":"Podiņi - 14","city":"Zemīte","zip":"LV-3135"},"podiņi - 15":{"address":"Podiņi - 15","city":"Zemīte","zip":"LV-3135"},"podiņi - 16":{"address":"Podiņi - 16","city":"Zemīte","zip":"LV-3135"},"podiņi - 17":{"address":"Podiņi - 17","city":"Zemīte","zip":"LV-3135"},"upes iela 5 - 1":{"address":"Upes iela 5 - 1","city":"Zemīte","zip":"LV-3135"}}