{"ziedu māja - 1":{"address":"Ziedu māja - 1","city":"Borisova","zip":"LV-4585"},"ziedu māja - 2":{"address":"Ziedu māja - 2","city":"Borisova","zip":"LV-4585"},"ziedu māja - 3":{"address":"Ziedu māja - 3","city":"Borisova","zip":"LV-4585"},"ziedu māja - 4":{"address":"Ziedu māja - 4","city":"Borisova","zip":"LV-4585"},"ziedu māja - 5":{"address":"Ziedu māja - 5","city":"Borisova","zip":"LV-4585"},"ziedu māja - 6":{"address":"Ziedu māja - 6","city":"Borisova","zip":"LV-4585"},"ziedu māja - 7":{"address":"Ziedu māja - 7","city":"Borisova","zip":"LV-4585"},"ziedu māja - 8":{"address":"Ziedu māja - 8","city":"Borisova","zip":"LV-4585"},"ziedulejas 1 - 1":{"address":"Ziedulejas 1 - 1","city":"Pilskalns","zip":"LV-4409"},"ziedulejas 1 - 2":{"address":"Ziedulejas 1 - 2","city":"Pilskalns","zip":"LV-4409"},"ziedulejas 1 - 3":{"address":"Ziedulejas 1 - 3","city":"Pilskalns","zip":"LV-4409"},"ziedu iela 4 - 1":{"address":"Ziedu iela 4 - 1","city":"Priekuļi","zip":"LV-4126"},"ziedu iela 4 - 2":{"address":"Ziedu iela 4 - 2","city":"Priekuļi","zip":"LV-4126"},"ziedu iela 4 - 3":{"address":"Ziedu iela 4 - 3","city":"Priekuļi","zip":"LV-4126"},"ziedu iela 6 - 1":{"address":"Ziedu iela 6 - 1","city":"Priekuļi","zip":"LV-4126"},"ziedu iela 6 - 2":{"address":"Ziedu iela 6 - 2","city":"Priekuļi","zip":"LV-4126"},"ziedu iela 6 - 3":{"address":"Ziedu iela 6 - 3","city":"Priekuļi","zip":"LV-4126"},"ziedu iela 6 - 4":{"address":"Ziedu iela 6 - 4","city":"Priekuļi","zip":"LV-4126"},"ziedu iela 6 - 5":{"address":"Ziedu iela 6 - 5","city":"Priekuļi","zip":"LV-4126"},"ziedu iela 6 - 6":{"address":"Ziedu iela 6 - 6","city":"Priekuļi","zip":"LV-4126"},"ziedu iela 2b - 1":{"address":"Ziedu iela 2B - 1","city":"Augšlīgatne","zip":"LV-4108"},"ziedu iela 2b - 2":{"address":"Ziedu iela 2B - 2","city":"Augšlīgatne","zip":"LV-4108"},"ziedu iela 2b - 3":{"address":"Ziedu iela 2B - 3","city":"Augšlīgatne","zip":"LV-4108"},"ziedu iela 2b - 4":{"address":"Ziedu iela 2B - 4","city":"Augšlīgatne","zip":"LV-4108"},"ziedu iela 2b - 5":{"address":"Ziedu iela 2B - 5","city":"Augšlīgatne","zip":"LV-4108"},"ziedugravas 1 - 1":{"address":"Ziedugravas 1 - 1","city":"Naudīte","zip":"LV-3724"},"ziedugravas 1 - 2":{"address":"Ziedugravas 1 - 2","city":"Naudīte","zip":"LV-3724"},"ziedugravas 1 - 3":{"address":"Ziedugravas 1 - 3","city":"Naudīte","zip":"LV-3724"},"ziedugravas 1 - 4":{"address":"Ziedugravas 1 - 4","city":"Naudīte","zip":"LV-3724"},"ziedugravas 1 - 5":{"address":"Ziedugravas 1 - 5","city":"Naudīte","zip":"LV-3724"},"ziedugravas 1 - 6":{"address":"Ziedugravas 1 - 6","city":"Naudīte","zip":"LV-3724"},"ziedugravas 1 - 7":{"address":"Ziedugravas 1 - 7","city":"Naudīte","zip":"LV-3724"},"ziedugravas 1 - 8":{"address":"Ziedugravas 1 - 8","city":"Naudīte","zip":"LV-3724"},"ziedugravas 1 - 9":{"address":"Ziedugravas 1 - 9","city":"Naudīte","zip":"LV-3724"},"ziedugravas 1 - 10":{"address":"Ziedugravas 1 - 10","city":"Naudīte","zip":"LV-3724"},"ziedugravas 1 - 11":{"address":"Ziedugravas 1 - 11","city":"Naudīte","zip":"LV-3724"},"ziedugravas 1 - 12":{"address":"Ziedugravas 1 - 12","city":"Naudīte","zip":"LV-3724"},"ziedugravas 6 - 1":{"address":"Ziedugravas 6 - 1","city":"Naudīte","zip":"LV-3724"},"ziedugravas 6 - 2":{"address":"Ziedugravas 6 - 2","city":"Naudīte","zip":"LV-3724"},"ziedugravas 6 - 3":{"address":"Ziedugravas 6 - 3","city":"Naudīte","zip":"LV-3724"},"ziedugravas 6 - 4":{"address":"Ziedugravas 6 - 4","city":"Naudīte","zip":"LV-3724"},"ziedugravas 6 - 5":{"address":"Ziedugravas 6 - 5","city":"Naudīte","zip":"LV-3724"}}