{"ziedulejas 1 - 1":{"address":"Ziedulejas 1 - 1","city":"Pilskalns","zip":"LV-4409"},"ziedulejas 1 - 2":{"address":"Ziedulejas 1 - 2","city":"Pilskalns","zip":"LV-4409"},"ziedulejas 1 - 3":{"address":"Ziedulejas 1 - 3","city":"Pilskalns","zip":"LV-4409"},"ziedulejas iela 5 - 1":{"address":"Ziedulejas iela 5 - 1","city":"Alsunga","zip":"LV-3306"},"ziedulejas iela 5 - 2":{"address":"Ziedulejas iela 5 - 2","city":"Alsunga","zip":"LV-3306"},"ziedulejas iela 5 - 3":{"address":"Ziedulejas iela 5 - 3","city":"Alsunga","zip":"LV-3306"},"ziedulejas iela 5 - 4":{"address":"Ziedulejas iela 5 - 4","city":"Alsunga","zip":"LV-3306"},"ziedulejas iela 5 - 5":{"address":"Ziedulejas iela 5 - 5","city":"Alsunga","zip":"LV-3306"},"ziedulejas iela 5 - 6":{"address":"Ziedulejas iela 5 - 6","city":"Alsunga","zip":"LV-3306"},"ziedulejas":{"address":"Ziedulejas","city":"Kārķi","zip":"LV-4716"},"ziedulejas 1":{"address":"Ziedulejas 1","city":"Rukoniški","zip":"LV-5477"},"ziedulejas iela 5":{"address":"Ziedulejas iela 5","city":"Alsunga","zip":"LV-3306"},"ziedulejas iela 1":{"address":"Ziedulejas iela 1","city":"Alsunga","zip":"LV-3306"},"ziedulejas iela 3":{"address":"Ziedulejas iela 3","city":"Alsunga","zip":"LV-3306"},"ziedulejās":{"address":"Ziedulejās","city":"Buras","zip":"LV-5473"},"ziedulejas iela 4":{"address":"Ziedulejas iela 4","city":"Alsunga","zip":"LV-3306"}}