{"ziediņi - 1":{"address":"Ziediņi - 1","city":"Raņķi","zip":"LV-3323"},"ziediņi - 2":{"address":"Ziediņi - 2","city":"Raņķi","zip":"LV-3323"},"ziediņi - 3":{"address":"Ziediņi - 3","city":"Ķempji","zip":"LV-4108"},"ziediņi - 4":{"address":"Ziediņi - 4","city":"Ķempji","zip":"LV-4108"},"ziediņi - 5":{"address":"Ziediņi - 5","city":"Ķempji","zip":"LV-4108"},"ziedi - 1":{"address":"Ziedi - 1","city":"Mežciems","zip":"LV-3001"},"ziedi - 2":{"address":"Ziedi - 2","city":"Mežciems","zip":"LV-3001"},"ziedi - 3":{"address":"Ziedi - 3","city":"Mežciems","zip":"LV-3001"},"ziedi - 4":{"address":"Ziedi - 4","city":"Mežciems","zip":"LV-3001"},"ziedi - 5":{"address":"Ziedi - 5","city":"Mežciems","zip":"LV-3001"},"ziedi - 6":{"address":"Ziedi - 6","city":"Mežciems","zip":"LV-3001"},"ziedi - 7":{"address":"Ziedi - 7","city":"Mežciems","zip":"LV-3001"},"ziedi - 8":{"address":"Ziedi - 8","city":"Mežciems","zip":"LV-3001"},"ziedi - 9":{"address":"Ziedi - 9","city":"Mežciems","zip":"LV-3001"},"ziedi - 10":{"address":"Ziedi - 10","city":"Mežciems","zip":"LV-3001"},"ziedi - 11":{"address":"Ziedi - 11","city":"Mežciems","zip":"LV-3001"},"ziediņu māja - 1":{"address":"Ziediņu māja - 1","city":"Poļvarka","zip":"LV-4870"},"ziediņu māja - 2":{"address":"Ziediņu māja - 2","city":"Poļvarka","zip":"LV-4870"}}