{"ziediņi - 1":{"address":"Ziediņi - 1","city":"Vidzeme","zip":"LV-4729"},"ziediņi - 2":{"address":"Ziediņi - 2","city":"Vidzeme","zip":"LV-4729"},"ziediņi - 3":{"address":"Ziediņi - 3","city":"Vidzeme","zip":"LV-4729"},"ziediņi - 4":{"address":"Ziediņi - 4","city":"Vidzeme","zip":"LV-4729"},"ziediņi - 5":{"address":"Ziediņi - 5","city":"Vidzeme","zip":"LV-4729"},"ziediņi 55 - 1":{"address":"Ziediņi 55 - 1","city":"Jāņupe","zip":"LV-2127"},"ziediņi - 6":{"address":"Ziediņi - 6","city":"Vidzeme","zip":"LV-4729"},"ziediņi - 7":{"address":"Ziediņi - 7","city":"Vidzeme","zip":"LV-4729"},"ziediņi - 8":{"address":"Ziediņi - 8","city":"Vidzeme","zip":"LV-4729"},"ziediņi - 9":{"address":"Ziediņi - 9","city":"Sproģi","zip":"LV-5112"},"ziediņi - 10":{"address":"Ziediņi - 10","city":"Sproģi","zip":"LV-5112"},"ziediņi - 11":{"address":"Ziediņi - 11","city":"Sproģi","zip":"LV-5112"},"ziediņi - 12":{"address":"Ziediņi - 12","city":"Sproģi","zip":"LV-5112"},"ziediņi - 13":{"address":"Ziediņi - 13","city":"Sproģi","zip":"LV-5112"},"ziediņi - 14":{"address":"Ziediņi - 14","city":"Sproģi","zip":"LV-5112"},"ziediņi - 15":{"address":"Ziediņi - 15","city":"Sproģi","zip":"LV-5112"},"ziediņi - 16":{"address":"Ziediņi - 16","city":"Sproģi","zip":"LV-5112"},"ziediņi - 17":{"address":"Ziediņi - 17","city":"Sproģi","zip":"LV-5112"},"ziediņi - 18":{"address":"Ziediņi - 18","city":"Sproģi","zip":"LV-5112"},"ziediņi 1 - 1":{"address":"Ziediņi 1 - 1","city":"Kleperova","zip":"LV-4604"},"ziediņi 1 - 2":{"address":"Ziediņi 1 - 2","city":"Kleperova","zip":"LV-4604"},"ziediņi 1 - 3":{"address":"Ziediņi 1 - 3","city":"Kleperova","zip":"LV-4604"},"ziediņi 1 - 4":{"address":"Ziediņi 1 - 4","city":"Kleperova","zip":"LV-4604"},"ziediņi 1 - 5":{"address":"Ziediņi 1 - 5","city":"Kleperova","zip":"LV-4604"},"ziediņi 1 - 6":{"address":"Ziediņi 1 - 6","city":"Kleperova","zip":"LV-4604"},"ziediņi":{"address":"Ziediņi","city":"Vireši","zip":"LV-4355"}}