{"zvaigznītes a - 1a":{"address":"Zvaigznītes A - 1A","city":"Meņģele","zip":"LV-5047"},"zvaigznītes a - 2a":{"address":"Zvaigznītes A - 2A","city":"Meņģele","zip":"LV-5047"},"zvaigznītes a - 3a":{"address":"Zvaigznītes A - 3A","city":"Meņģele","zip":"LV-5047"},"zvaigznītes a - 4a":{"address":"Zvaigznītes A - 4A","city":"Meņģele","zip":"LV-5047"},"zvaigznītes a - 5a":{"address":"Zvaigznītes A - 5A","city":"Meņģele","zip":"LV-5047"},"zvaigznītes - 1":{"address":"Zvaigznītes - 1","city":"Palsmane","zip":"LV-4724"},"zvaigznītes - 2":{"address":"Zvaigznītes - 2","city":"Palsmane","zip":"LV-4724"},"zvaigznītes - 3":{"address":"Zvaigznītes - 3","city":"Palsmane","zip":"LV-4724"},"zvaigznītes - 4":{"address":"Zvaigznītes - 4","city":"Palsmane","zip":"LV-4724"},"zvaigznītes - 5":{"address":"Zvaigznītes - 5","city":"Palsmane","zip":"LV-4724"},"zvaigznītes - 6":{"address":"Zvaigznītes - 6","city":"Palsmane","zip":"LV-4724"},"zvaigznītes - 7":{"address":"Zvaigznītes - 7","city":"Palsmane","zip":"LV-4724"},"zvaigznītes - 8":{"address":"Zvaigznītes - 8","city":"Palsmane","zip":"LV-4724"},"zvaigznītes - 9":{"address":"Zvaigznītes - 9","city":"Jumprava","zip":"LV-5022"},"zvaigznītes - 10":{"address":"Zvaigznītes - 10","city":"Jumprava","zip":"LV-5022"},"zvaigznītes - 11":{"address":"Zvaigznītes - 11","city":"Jumprava","zip":"LV-5022"},"zvaigznītes - 12":{"address":"Zvaigznītes - 12","city":"Jumprava","zip":"LV-5022"},"zvaigznītes":{"address":"Zvaigznītes","city":"Dimanti","zip":"LV-5315"},"kalna zvaigznītes":{"address":"Kalna Zvaigznītes","city":"Lizums","zip":"LV-4425"}}