{"zvirbuļi - 1":{"address":"Zvirbuļi - 1","city":"Pasiene","zip":"LV-5732"},"zvirbuļi - 2":{"address":"Zvirbuļi - 2","city":"Pasiene","zip":"LV-5732"},"zvirbuļi - 3":{"address":"Zvirbuļi - 3","city":"Pasiene","zip":"LV-5732"},"zvirbuļi - 4":{"address":"Zvirbuļi - 4","city":"Pasiene","zip":"LV-5732"},"zvirbuļi - 5":{"address":"Zvirbuļi - 5","city":"Pasiene","zip":"LV-5732"},"zvirbuļi - 6":{"address":"Zvirbuļi - 6","city":"Pasiene","zip":"LV-5732"},"zvirbuļi - 7":{"address":"Zvirbuļi - 7","city":"Pasiene","zip":"LV-5732"},"zvirbuļi - 8":{"address":"Zvirbuļi - 8","city":"Pasiene","zip":"LV-5732"},"zvirbulīši - 1":{"address":"Zvirbulīši - 1","city":"Vecdome","zip":"LV-5674"},"zvirbulīši - 2":{"address":"Zvirbulīši - 2","city":"Vecdome","zip":"LV-5674"},"zvirbulīši - 3":{"address":"Zvirbulīši - 3","city":"Vecdome","zip":"LV-5674"},"zvirbulīši - 4":{"address":"Zvirbulīši - 4","city":"Vecdome","zip":"LV-5674"},"zvirbulīši - 5":{"address":"Zvirbulīši - 5","city":"Vecdome","zip":"LV-5674"},"zvirbulīši - 6":{"address":"Zvirbulīši - 6","city":"Vecdome","zip":"LV-5674"},"zvirbulīši - 7":{"address":"Zvirbulīši - 7","city":"Vecdome","zip":"LV-5674"},"zvirbulīši - 8":{"address":"Zvirbulīši - 8","city":"Vecdome","zip":"LV-5674"},"zvirbulīši - 9":{"address":"Zvirbulīši - 9","city":"Vecdome","zip":"LV-5674"},"zvirbulīši - 10":{"address":"Zvirbulīši - 10","city":"Vecdome","zip":"LV-5674"},"zvirbulīši - 11":{"address":"Zvirbulīši - 11","city":"Vecdome","zip":"LV-5674"},"zvirbulīši - 12":{"address":"Zvirbulīši - 12","city":"Vecdome","zip":"LV-5674"},"zvirbulīši - 13":{"address":"Zvirbulīši - 13","city":"Vecdome","zip":"LV-5674"},"zvirbulīši - 14":{"address":"Zvirbulīši - 14","city":"Vecdome","zip":"LV-5674"},"zvirbulīši - 15":{"address":"Zvirbulīši - 15","city":"Vecdome","zip":"LV-5674"},"zvirbulīši - 16":{"address":"Zvirbulīši - 16","city":"Vecdome","zip":"LV-5674"},"zvirbulīši - 17":{"address":"Zvirbulīši - 17","city":"Vecdome","zip":"LV-5674"},"zvirbulīši - 18":{"address":"Zvirbulīši - 18","city":"Vecdome","zip":"LV-5674"},"zvirbulis":{"address":"Zvirbulis","city":"Zabolotje","zip":"LV-4636"},"zvirbuļi":{"address":"Zvirbuļi","city":"Līpusola","zip":"LV-5740"},"zvirbulīši":{"address":"Zvirbulīši","city":"Vecpiebalga","zip":"LV-4122"},"strauta zvirbuļi":{"address":"Strauta Zvirbuļi","city":"Nīca","zip":"LV-3473"}}