{"zālītes iela 60 - 1":{"address":"Zālītes iela 60 - 1","city":"Krustkalni","zip":"LV-2111"},"zālītes iela 60 - 2":{"address":"Zālītes iela 60 - 2","city":"Krustkalni","zip":"LV-2111"},"zālītes - 1":{"address":"Zālītes - 1","city":"Vecbebri","zip":"LV-5135"},"zālītes - 2":{"address":"Zālītes - 2","city":"Vecbebri","zip":"LV-5135"},"zālītes - 3":{"address":"Zālītes - 3","city":"Vecbebri","zip":"LV-5135"},"zālītes - 4":{"address":"Zālītes - 4","city":"Vecbebri","zip":"LV-5135"},"zālītes - 5":{"address":"Zālītes - 5","city":"Vecbebri","zip":"LV-5135"},"zālītes - 6":{"address":"Zālītes - 6","city":"Vecbebri","zip":"LV-5135"},"zālītes - 7":{"address":"Zālītes - 7","city":"Vecbebri","zip":"LV-5135"},"zālītes - 8":{"address":"Zālītes - 8","city":"Vecbebri","zip":"LV-5135"},"zālītes":{"address":"Zālītes","city":"Mazie Leiči","zip":"LV-5301"},"zālītes iela 19":{"address":"Zālītes iela 19","city":"Krustkalni","zip":"LV-2111"},"zālītes iela 29":{"address":"Zālītes iela 29","city":"Krustkalni","zip":"LV-2111"},"zālītes iela 27":{"address":"Zālītes iela 27","city":"Krustkalni","zip":"LV-2111"},"zālītes iela 14":{"address":"Zālītes iela 14","city":"Krustkalni","zip":"LV-2111"},"zālītes iela 26":{"address":"Zālītes iela 26","city":"Krustkalni","zip":"LV-2111"},"zālītes iela 22":{"address":"Zālītes iela 22","city":"Krustkalni","zip":"LV-2111"},"zālītes iela 10":{"address":"Zālītes iela 10","city":"Krustkalni","zip":"LV-2111"},"zālītes iela 5":{"address":"Zālītes iela 5","city":"Krustkalni","zip":"LV-2111"},"zālītes iela 35":{"address":"Zālītes iela 35","city":"Krustkalni","zip":"LV-2111"},"zālītes iela 54":{"address":"Zālītes iela 54","city":"Krustkalni","zip":"LV-2111"},"zālītes iela 52":{"address":"Zālītes iela 52","city":"Krustkalni","zip":"LV-2111"},"zālītes iela 20":{"address":"Zālītes iela 20","city":"Krustkalni","zip":"LV-2111"},"zālītes iela 36":{"address":"Zālītes iela 36","city":"Krustkalni","zip":"LV-2111"},"zālītes iela 16":{"address":"Zālītes iela 16","city":"Krustkalni","zip":"LV-2111"},"zālītes iela 60":{"address":"Zālītes iela 60","city":"Krustkalni","zip":"LV-2111"},"zālītes iela 58":{"address":"Zālītes iela 58","city":"Krustkalni","zip":"LV-2111"},"zālītes iela 44":{"address":"Zālītes iela 44","city":"Krustkalni","zip":"LV-2111"},"zālītes iela 42":{"address":"Zālītes iela 42","city":"Krustkalni","zip":"LV-2111"},"zālītes iela 32":{"address":"Zālītes iela 32","city":"Krustkalni","zip":"LV-2111"},"zālītes iela 34":{"address":"Zālītes iela 34","city":"Krustkalni","zip":"LV-2111"}}