{"zīles - 1":{"address":"Zīles - 1","city":"Brūzis","zip":"LV-3292"},"zīles - 2":{"address":"Zīles - 2","city":"Brūzis","zip":"LV-3292"},"zīles - 3":{"address":"Zīles - 3","city":"Brūzis","zip":"LV-3292"},"zīles - 4":{"address":"Zīles - 4","city":"Brūzis","zip":"LV-3292"},"zīles - 5":{"address":"Zīles - 5","city":"Ungurpils","zip":"LV-4064"},"zīles - 6":{"address":"Zīles - 6","city":"Ungurpils","zip":"LV-4064"},"zīles - 7":{"address":"Zīles - 7","city":"Ungurpils","zip":"LV-4064"},"zīles - 8":{"address":"Zīles - 8","city":"Ungurpils","zip":"LV-4064"},"zīles - 9":{"address":"Zīles - 9","city":"Ungurpils","zip":"LV-4064"},"zīles - 10":{"address":"Zīles - 10","city":"Ungurpils","zip":"LV-4064"},"zīles - 11":{"address":"Zīles - 11","city":"Ungurpils","zip":"LV-4064"},"zīles - 12":{"address":"Zīles - 12","city":"Ungurpils","zip":"LV-4064"},"zīles - 13":{"address":"Zīles - 13","city":"Zaube","zip":"LV-4113"},"zīles - 14":{"address":"Zīles - 14","city":"Zaube","zip":"LV-4113"},"zīles - 15":{"address":"Zīles - 15","city":"Zaube","zip":"LV-4113"},"zīles - 16":{"address":"Zīles - 16","city":"Zaube","zip":"LV-4113"},"zīles - 17":{"address":"Zīles - 17","city":"Zaube","zip":"LV-4113"},"zīles - 18":{"address":"Zīles - 18","city":"Zaube","zip":"LV-4113"},"zīles - 19":{"address":"Zīles - 19","city":"Jaunzemi","zip":"LV-4344"},"zīles - 20":{"address":"Zīles - 20","city":"Jaunzemi","zip":"LV-4344"},"zīles - 21":{"address":"Zīles - 21","city":"Jaunzemi","zip":"LV-4344"},"zīles - 22":{"address":"Zīles - 22","city":"Jaunzemi","zip":"LV-4344"},"zīles - 23":{"address":"Zīles - 23","city":"Jaunzemi","zip":"LV-4344"},"zīles - 24":{"address":"Zīles - 24","city":"Jaunzemi","zip":"LV-4344"}}