{"zītari - 1":{"address":"Zītari - 1","city":"Jaunpils","zip":"LV-3145"},"zītari - 2":{"address":"Zītari - 2","city":"Jaunpils","zip":"LV-3145"},"zītari - 3":{"address":"Zītari - 3","city":"Jaunpils","zip":"LV-3145"},"zītari - 4":{"address":"Zītari - 4","city":"Jaunpils","zip":"LV-3145"},"zītari - 5":{"address":"Zītari - 5","city":"Pienava","zip":"LV-3147"},"zītari - 6":{"address":"Zītari - 6","city":"Pienava","zip":"LV-3147"},"zītari - 7":{"address":"Zītari - 7","city":"Pienava","zip":"LV-3147"},"zītari - 8":{"address":"Zītari - 8","city":"Pienava","zip":"LV-3147"},"zītari - 9":{"address":"Zītari - 9","city":"Pienava","zip":"LV-3147"},"zītari - 10":{"address":"Zītari - 10","city":"Pienava","zip":"LV-3147"},"zītari - 11":{"address":"Zītari - 11","city":"Pienava","zip":"LV-3147"},"zītari - 12":{"address":"Zītari - 12","city":"Pienava","zip":"LV-3147"},"zītari 3 - 10":{"address":"Zītari 3 - 10","city":"Tumšupe","zip":"LV-2135"},"zītari 3 - 11":{"address":"Zītari 3 - 11","city":"Tumšupe","zip":"LV-2135"},"zītari 3 - 12":{"address":"Zītari 3 - 12","city":"Tumšupe","zip":"LV-2135"},"zītari 3 - 13":{"address":"Zītari 3 - 13","city":"Tumšupe","zip":"LV-2135"},"zītari 3 - 14":{"address":"Zītari 3 - 14","city":"Tumšupe","zip":"LV-2135"},"zītari 3 - 15":{"address":"Zītari 3 - 15","city":"Tumšupe","zip":"LV-2135"},"zītari 3 - 16":{"address":"Zītari 3 - 16","city":"Tumšupe","zip":"LV-2135"},"zītari 3 - 17":{"address":"Zītari 3 - 17","city":"Tumšupe","zip":"LV-2135"},"zītari 3 - 18":{"address":"Zītari 3 - 18","city":"Tumšupe","zip":"LV-2135"},"zītari 3 - 1":{"address":"Zītari 3 - 1","city":"Tumšupe","zip":"LV-2135"},"zītari 3 - 9":{"address":"Zītari 3 - 9","city":"Tumšupe","zip":"LV-2135"},"zītari 3 - 2":{"address":"Zītari 3 - 2","city":"Tumšupe","zip":"LV-2135"},"zītari 3 - 3":{"address":"Zītari 3 - 3","city":"Tumšupe","zip":"LV-2135"},"zītari 3 - 4":{"address":"Zītari 3 - 4","city":"Tumšupe","zip":"LV-2135"},"zītari 3 - 5":{"address":"Zītari 3 - 5","city":"Tumšupe","zip":"LV-2135"},"zītari 3 - 6":{"address":"Zītari 3 - 6","city":"Tumšupe","zip":"LV-2135"},"zītari 3 - 7":{"address":"Zītari 3 - 7","city":"Tumšupe","zip":"LV-2135"},"zītari 3 - 8":{"address":"Zītari 3 - 8","city":"Tumšupe","zip":"LV-2135"},"zītari 3 - 19":{"address":"Zītari 3 - 19","city":"Tumšupe","zip":"LV-2135"},"zītari 3 - 20":{"address":"Zītari 3 - 20","city":"Tumšupe","zip":"LV-2135"},"zītari 3 - 21":{"address":"Zītari 3 - 21","city":"Tumšupe","zip":"LV-2135"},"zītari 3 - 22":{"address":"Zītari 3 - 22","city":"Tumšupe","zip":"LV-2135"},"zītari 3 - 23":{"address":"Zītari 3 - 23","city":"Tumšupe","zip":"LV-2135"},"zītari 3 - 24":{"address":"Zītari 3 - 24","city":"Tumšupe","zip":"LV-2135"},"zītari 3 - 25":{"address":"Zītari 3 - 25","city":"Tumšupe","zip":"LV-2135"},"zītari 3 - 26":{"address":"Zītari 3 - 26","city":"Tumšupe","zip":"LV-2135"},"zītari 3 - 27":{"address":"Zītari 3 - 27","city":"Tumšupe","zip":"LV-2135"},"zītari 4 - 1":{"address":"Zītari 4 - 1","city":"Tumšupe","zip":"LV-2135"},"zītari 4 - 2":{"address":"Zītari 4 - 2","city":"Tumšupe","zip":"LV-2135"},"zītari 4 - 3":{"address":"Zītari 4 - 3","city":"Tumšupe","zip":"LV-2135"},"zītari 4 - 4":{"address":"Zītari 4 - 4","city":"Tumšupe","zip":"LV-2135"},"zītari 4 - 5":{"address":"Zītari 4 - 5","city":"Tumšupe","zip":"LV-2135"},"zītari 4 - 6":{"address":"Zītari 4 - 6","city":"Tumšupe","zip":"LV-2135"},"zītari 4 - 7":{"address":"Zītari 4 - 7","city":"Tumšupe","zip":"LV-2135"},"zītari 4 - 8":{"address":"Zītari 4 - 8","city":"Tumšupe","zip":"LV-2135"}}