{"ābeļziedi - 1":{"address":"Ābeļziedi - 1","city":"Daudzeva","zip":"LV-5111"},"ābeļziedi - 2":{"address":"Ābeļziedi - 2","city":"Daudzeva","zip":"LV-5111"},"ābeļziedi - 3":{"address":"Ābeļziedi - 3","city":"Daudzeva","zip":"LV-5111"},"ābeļziedi - 4":{"address":"Ābeļziedi - 4","city":"Daudzeva","zip":"LV-5111"},"ābeļziedi - 5":{"address":"Ābeļziedi - 5","city":"Daudzeva","zip":"LV-5111"},"ābeļziedi - 6":{"address":"Ābeļziedi - 6","city":"Daudzeva","zip":"LV-5111"},"ābeļziedi - 7":{"address":"Ābeļziedi - 7","city":"Daudzeva","zip":"LV-5111"},"ābeļziedi - 8":{"address":"Ābeļziedi - 8","city":"Daudzeva","zip":"LV-5111"},"ābeļziedi - 9":{"address":"Ābeļziedi - 9","city":"Daudzeva","zip":"LV-5111"},"ābeļziedi - 10":{"address":"Ābeļziedi - 10","city":"Daudzeva","zip":"LV-5111"},"ābeļziedi - 11":{"address":"Ābeļziedi - 11","city":"Daudzeva","zip":"LV-5111"},"ābeļziedi - 12":{"address":"Ābeļziedi - 12","city":"Daudzeva","zip":"LV-5111"},"ābeļziedi - 13":{"address":"Ābeļziedi - 13","city":"Daudzeva","zip":"LV-5111"},"ābeļziedi - 14":{"address":"Ābeļziedi - 14","city":"Daudzeva","zip":"LV-5111"},"ābeļziedi - 15":{"address":"Ābeļziedi - 15","city":"Daudzeva","zip":"LV-5111"},"ābeļziedi - 16":{"address":"Ābeļziedi - 16","city":"Daudzeva","zip":"LV-5111"},"ābeļziedi - 17":{"address":"Ābeļziedi - 17","city":"Daudzeva","zip":"LV-5111"},"ābeļziedi - 18":{"address":"Ābeļziedi - 18","city":"Daudzeva","zip":"LV-5111"},"ābeļziedi":{"address":"Ābeļziedi","city":"Taureskalns","zip":"LV-4590"}}