{"ābolu iela 8 - 1":{"address":"Ābolu iela 8 - 1","city":"Kūdra","zip":"LV-2011"},"ābolu iela 8 - 2":{"address":"Ābolu iela 8 - 2","city":"Kūdra","zip":"LV-2011"},"ābolu iela 2":{"address":"Ābolu iela 2","city":"Garciems","zip":"LV-2163"},"ābolu iela 1":{"address":"Ābolu iela 1","city":"Jaundubeņi","zip":"LV-3438"},"ābolu iela 3":{"address":"Ābolu iela 3","city":"Jaundubeņi","zip":"LV-3438"},"ābolu iela 4":{"address":"Ābolu iela 4","city":"Mārupe","zip":"LV-2167"},"ābolu iela 5":{"address":"Ābolu iela 5","city":"Jaundubeņi","zip":"LV-3438"},"ābolu iela 6":{"address":"Ābolu iela 6","city":"Mārupe","zip":"LV-2167"},"ābolu iela 8":{"address":"Ābolu iela 8","city":"Mārupe","zip":"LV-2167"},"ābolu iela 28":{"address":"Ābolu iela 28","city":"Mārupe","zip":"LV-2167"},"ābolu iela 10":{"address":"Ābolu iela 10","city":"Mārupe","zip":"LV-2167"},"ābolu iela 12":{"address":"Ābolu iela 12","city":"Mārupe","zip":"LV-2167"},"ābolu iela 14":{"address":"Ābolu iela 14","city":"Mārupe","zip":"LV-2167"},"ābolu iela 14a":{"address":"Ābolu iela 14A","city":"Mārupe","zip":"LV-2167"},"ābolu iela 14b":{"address":"Ābolu iela 14B","city":"Mārupe","zip":"LV-2167"},"ābolu iela 14c":{"address":"Ābolu iela 14C","city":"Mārupe","zip":"LV-2167"},"ābolu iela 16":{"address":"Ābolu iela 16","city":"Mārupe","zip":"LV-2167"},"ābolu iela 18":{"address":"Ābolu iela 18","city":"Garciems","zip":"LV-2163"},"ābolu iela 20":{"address":"Ābolu iela 20","city":"Mārupe","zip":"LV-2167"},"ābolu iela 22":{"address":"Ābolu iela 22","city":"Mārupe","zip":"LV-2167"},"ābolu iela 24":{"address":"Ābolu iela 24","city":"Mārupe","zip":"LV-2167"},"ābolu iela 26":{"address":"Ābolu iela 26","city":"Mārupe","zip":"LV-2167"},"ābolu iela 55":{"address":"Ābolu iela 55","city":"Garciems","zip":"LV-2163"},"ābolu iela 56":{"address":"Ābolu iela 56","city":"Garciems","zip":"LV-2163"},"ābolu iela 57":{"address":"Ābolu iela 57","city":"Garciems","zip":"LV-2163"},"ābolu iela 58":{"address":"Ābolu iela 58","city":"Garciems","zip":"LV-2163"},"ābolu iela 59":{"address":"Ābolu iela 59","city":"Garciems","zip":"LV-2163"},"ābolu iela 105":{"address":"Ābolu iela 105","city":"Garciems","zip":"LV-2163"},"ābolu iela 106":{"address":"Ābolu iela 106","city":"Garciems","zip":"LV-2163"},"ābolu iela 107":{"address":"Ābolu iela 107","city":"Garciems","zip":"LV-2163"},"ābolu iela 108":{"address":"Ābolu iela 108","city":"Garciems","zip":"LV-2163"},"ābolu iela 109":{"address":"Ābolu iela 109","city":"Garciems","zip":"LV-2163"},"ābolu iela 120":{"address":"Ābolu iela 120","city":"Garciems","zip":"LV-2163"}}