{"apses - 6":{"address":"Apses - 6","city":"Pilsrundāle","zip":"LV-3921"},"apses - 5":{"address":"Apses - 5","city":"Pilsrundāle","zip":"LV-3921"},"apses - 8":{"address":"Apses - 8","city":"Pilsrundāle","zip":"LV-3921"},"apses - 1":{"address":"Apses - 1","city":"Suntaži","zip":"LV-5060"},"apses - 2":{"address":"Apses - 2","city":"Suntaži","zip":"LV-5060"},"apses - 3":{"address":"Apses - 3","city":"Suntaži","zip":"LV-5060"},"apses - 4":{"address":"Apses - 4","city":"Suntaži","zip":"LV-5060"},"apses - 7":{"address":"Apses - 7","city":"Pilsrundāle","zip":"LV-3921"},"apseskalna mājas":{"address":"Apseskalna mājas","city":"Adamova","zip":"LV-4647"},"apses":{"address":"Apses","city":"Meņģele","zip":"LV-5047"},"ezera iela apses":{"address":"Ezera iela Apses","city":"Svitene","zip":"LV-3917"},"āpses":{"address":"Āpses","city":"Jaunā muiža","zip":"LV-5316"},"krastiņi":{"address":"Krastiņi","city":"Apses","zip":"LV-5473"},"guntiņas":{"address":"Guntiņas","city":"Apses","zip":"LV-5473"},"krastiņi 1":{"address":"Krastiņi 1","city":"Apses","zip":"LV-5473"},"krastiņi 3":{"address":"Krastiņi 3","city":"Apses","zip":"LV-5473"}}