{"āres - 1":{"address":"Āres - 1","city":"Augstkalne","zip":"LV-3709"},"āres - 2":{"address":"Āres - 2","city":"Augstkalne","zip":"LV-3709"},"āres - 3":{"address":"Āres - 3","city":"Augstkalne","zip":"LV-3709"},"āres - 4":{"address":"Āres - 4","city":"Augstkalne","zip":"LV-3709"},"āres - 5":{"address":"Āres - 5","city":"Augstkalne","zip":"LV-3709"},"āres - 6":{"address":"Āres - 6","city":"Augstkalne","zip":"LV-3709"},"āres - 7":{"address":"Āres - 7","city":"Augstkalne","zip":"LV-3709"},"āres - 8":{"address":"Āres - 8","city":"Augstkalne","zip":"LV-3709"},"āres - 9":{"address":"Āres - 9","city":"Augstkalne","zip":"LV-3709"},"āres - 10":{"address":"Āres - 10","city":"Augstkalne","zip":"LV-3709"},"āres - 11":{"address":"Āres - 11","city":"Augstkalne","zip":"LV-3709"},"āres - 12":{"address":"Āres - 12","city":"Augstkalne","zip":"LV-3709"},"āres - 13":{"address":"Āres - 13","city":"Augstkalne","zip":"LV-3709"},"āres - 14":{"address":"Āres - 14","city":"Augstkalne","zip":"LV-3709"},"āres - 15":{"address":"Āres - 15","city":"Augstkalne","zip":"LV-3709"},"āres - 16":{"address":"Āres - 16","city":"Augstkalne","zip":"LV-3709"},"āres - 17":{"address":"Āres - 17","city":"Augstkalne","zip":"LV-3709"},"āres - 18":{"address":"Āres - 18","city":"Augstkalne","zip":"LV-3709"}}