{"ērgļi 5 - 1":{"address":"Ērgļi 5 - 1","city":"Ērgļi","zip":"LV-3907"},"ērgļi 5 - 2":{"address":"Ērgļi 5 - 2","city":"Ērgļi","zip":"LV-3907"},"ērgļi 5 - 3":{"address":"Ērgļi 5 - 3","city":"Ērgļi","zip":"LV-3907"},"ērgļi 5 - 4":{"address":"Ērgļi 5 - 4","city":"Ērgļi","zip":"LV-3907"},"ērgļi 5 - 5":{"address":"Ērgļi 5 - 5","city":"Ērgļi","zip":"LV-3907"},"ērgļi 5 - 6":{"address":"Ērgļi 5 - 6","city":"Ērgļi","zip":"LV-3907"},"ērgļi 5 - 7":{"address":"Ērgļi 5 - 7","city":"Ērgļi","zip":"LV-3907"},"ērgļi 5 - 8":{"address":"Ērgļi 5 - 8","city":"Ērgļi","zip":"LV-3907"},"ērgļi 5 - 9":{"address":"Ērgļi 5 - 9","city":"Ērgļi","zip":"LV-3907"},"ērgļi 5 - 10":{"address":"Ērgļi 5 - 10","city":"Ērgļi","zip":"LV-3907"},"ērgļi 5 - 11":{"address":"Ērgļi 5 - 11","city":"Ērgļi","zip":"LV-3907"},"ērgļi 5 - 12":{"address":"Ērgļi 5 - 12","city":"Ērgļi","zip":"LV-3907"},"ērgļi 5 - 13":{"address":"Ērgļi 5 - 13","city":"Ērgļi","zip":"LV-3907"},"ērgļi 5 - 14":{"address":"Ērgļi 5 - 14","city":"Ērgļi","zip":"LV-3907"},"ērgļi 5 - 15":{"address":"Ērgļi 5 - 15","city":"Ērgļi","zip":"LV-3907"},"ērgļi 5 - 16":{"address":"Ērgļi 5 - 16","city":"Ērgļi","zip":"LV-3907"},"ērgļi 5 - 17":{"address":"Ērgļi 5 - 17","city":"Ērgļi","zip":"LV-3907"},"ērgļi 5 - 18":{"address":"Ērgļi 5 - 18","city":"Ērgļi","zip":"LV-3907"},"ērgļi 3 - 1":{"address":"Ērgļi 3 - 1","city":"Ērgļi","zip":"LV-3907"},"ērgļi 3 - 2":{"address":"Ērgļi 3 - 2","city":"Ērgļi","zip":"LV-3907"},"ērgļi 3 - 3":{"address":"Ērgļi 3 - 3","city":"Ērgļi","zip":"LV-3907"},"ērgļi 3 - 4":{"address":"Ērgļi 3 - 4","city":"Ērgļi","zip":"LV-3907"},"ērgļi 3 - 5":{"address":"Ērgļi 3 - 5","city":"Ērgļi","zip":"LV-3907"},"ērgļi 3 - 6":{"address":"Ērgļi 3 - 6","city":"Ērgļi","zip":"LV-3907"},"ērgļi 3 - 7":{"address":"Ērgļi 3 - 7","city":"Ērgļi","zip":"LV-3907"},"ērgļi 3 - 8":{"address":"Ērgļi 3 - 8","city":"Ērgļi","zip":"LV-3907"},"ērgļi 3 - 9":{"address":"Ērgļi 3 - 9","city":"Ērgļi","zip":"LV-3907"},"ērgļi 3 - 10":{"address":"Ērgļi 3 - 10","city":"Ērgļi","zip":"LV-3907"},"ērgļi 3 - 11":{"address":"Ērgļi 3 - 11","city":"Ērgļi","zip":"LV-3907"},"ērgļi 3 - 12":{"address":"Ērgļi 3 - 12","city":"Ērgļi","zip":"LV-3907"},"ērgļi 3 - 13":{"address":"Ērgļi 3 - 13","city":"Ērgļi","zip":"LV-3907"},"ērgļi 3 - 14":{"address":"Ērgļi 3 - 14","city":"Ērgļi","zip":"LV-3907"},"ērgļi 3 - 15":{"address":"Ērgļi 3 - 15","city":"Ērgļi","zip":"LV-3907"},"ērgļi 3 - 16":{"address":"Ērgļi 3 - 16","city":"Ērgļi","zip":"LV-3907"},"ērgļi 3 - 18":{"address":"Ērgļi 3 - 18","city":"Ērgļi","zip":"LV-3907"},"ērgļi 3 - 17":{"address":"Ērgļi 3 - 17","city":"Ērgļi","zip":"LV-3907"},"ērgļi 4 - 1":{"address":"Ērgļi 4 - 1","city":"Ērgļi","zip":"LV-3907"},"ērgļi 4 - 2":{"address":"Ērgļi 4 - 2","city":"Ērgļi","zip":"LV-3907"},"ērgļi 4 - 3":{"address":"Ērgļi 4 - 3","city":"Ērgļi","zip":"LV-3907"},"ērgļi 4 - 4":{"address":"Ērgļi 4 - 4","city":"Ērgļi","zip":"LV-3907"},"ērgļi 4 - 5":{"address":"Ērgļi 4 - 5","city":"Ērgļi","zip":"LV-3907"},"ērgļi 4 - 6":{"address":"Ērgļi 4 - 6","city":"Ērgļi","zip":"LV-3907"},"ērgļi 4 - 7":{"address":"Ērgļi 4 - 7","city":"Ērgļi","zip":"LV-3907"},"ērgļi 4 - 8":{"address":"Ērgļi 4 - 8","city":"Ērgļi","zip":"LV-3907"},"ērgļi 4 - 9":{"address":"Ērgļi 4 - 9","city":"Ērgļi","zip":"LV-3907"},"ērgļi 4 - 10":{"address":"Ērgļi 4 - 10","city":"Ērgļi","zip":"LV-3907"},"ērgļi 4 - 11":{"address":"Ērgļi 4 - 11","city":"Ērgļi","zip":"LV-3907"},"ērgļi 4 - 12":{"address":"Ērgļi 4 - 12","city":"Ērgļi","zip":"LV-3907"},"ērgļi 4 - 13":{"address":"Ērgļi 4 - 13","city":"Ērgļi","zip":"LV-3907"},"ērgļi 4 - 14":{"address":"Ērgļi 4 - 14","city":"Ērgļi","zip":"LV-3907"},"ērgļi 4 - 15":{"address":"Ērgļi 4 - 15","city":"Ērgļi","zip":"LV-3907"},"ērgļi 4 - 16":{"address":"Ērgļi 4 - 16","city":"Ērgļi","zip":"LV-3907"},"ērgļi 4 - 17":{"address":"Ērgļi 4 - 17","city":"Ērgļi","zip":"LV-3907"},"ērgļi 4 - 18":{"address":"Ērgļi 4 - 18","city":"Ērgļi","zip":"LV-3907"},"ērgļi 6 - 1":{"address":"Ērgļi 6 - 1","city":"Ērgļi","zip":"LV-3907"},"ērgļi 6 - 2":{"address":"Ērgļi 6 - 2","city":"Ērgļi","zip":"LV-3907"},"ērgļi 6 - 3":{"address":"Ērgļi 6 - 3","city":"Ērgļi","zip":"LV-3907"},"ērgļi 6 - 4":{"address":"Ērgļi 6 - 4","city":"Ērgļi","zip":"LV-3907"},"ērgļi 6 - 5":{"address":"Ērgļi 6 - 5","city":"Ērgļi","zip":"LV-3907"},"ērgļi 6 - 6":{"address":"Ērgļi 6 - 6","city":"Ērgļi","zip":"LV-3907"},"ērgļi 6 - 7":{"address":"Ērgļi 6 - 7","city":"Ērgļi","zip":"LV-3907"},"ērgļi 6 - 8":{"address":"Ērgļi 6 - 8","city":"Ērgļi","zip":"LV-3907"},"ērgļi 6 - 9":{"address":"Ērgļi 6 - 9","city":"Ērgļi","zip":"LV-3907"},"ērgļi 6 - 10":{"address":"Ērgļi 6 - 10","city":"Ērgļi","zip":"LV-3907"},"ērgļi 6 - 11":{"address":"Ērgļi 6 - 11","city":"Ērgļi","zip":"LV-3907"},"ērgļi 6 - 12":{"address":"Ērgļi 6 - 12","city":"Ērgļi","zip":"LV-3907"},"ērgļi 6 - 13":{"address":"Ērgļi 6 - 13","city":"Ērgļi","zip":"LV-3907"},"ērgļi 6 - 14":{"address":"Ērgļi 6 - 14","city":"Ērgļi","zip":"LV-3907"},"ērgļi 6 - 15":{"address":"Ērgļi 6 - 15","city":"Ērgļi","zip":"LV-3907"},"ērgļi 6 - 16":{"address":"Ērgļi 6 - 16","city":"Ērgļi","zip":"LV-3907"},"ērgļi 6 - 17":{"address":"Ērgļi 6 - 17","city":"Ērgļi","zip":"LV-3907"},"ērgļi 6 - 18":{"address":"Ērgļi 6 - 18","city":"Ērgļi","zip":"LV-3907"},"ērgļi 1 - 1":{"address":"Ērgļi 1 - 1","city":"Ērgļi","zip":"LV-3907"},"ērgļi 1 - 2":{"address":"Ērgļi 1 - 2","city":"Ērgļi","zip":"LV-3907"},"ērgļi 1 - 3":{"address":"Ērgļi 1 - 3","city":"Ērgļi","zip":"LV-3907"},"ērgļi 1 - 4":{"address":"Ērgļi 1 - 4","city":"Ērgļi","zip":"LV-3907"},"ērgļi 1 - 5":{"address":"Ērgļi 1 - 5","city":"Ērgļi","zip":"LV-3907"},"ērgļi 2 - 1":{"address":"Ērgļi 2 - 1","city":"Ērgļi","zip":"LV-3907"},"ērgļi 2 - 2":{"address":"Ērgļi 2 - 2","city":"Ērgļi","zip":"LV-3907"},"ērgļi 2 - 3":{"address":"Ērgļi 2 - 3","city":"Ērgļi","zip":"LV-3907"},"ērgļi 2 - 4":{"address":"Ērgļi 2 - 4","city":"Ērgļi","zip":"LV-3907"},"ērgļi 2 - 5":{"address":"Ērgļi 2 - 5","city":"Ērgļi","zip":"LV-3907"},"ērgļi 2 - 6":{"address":"Ērgļi 2 - 6","city":"Ērgļi","zip":"LV-3907"},"ērgļi 2 - 7":{"address":"Ērgļi 2 - 7","city":"Ērgļi","zip":"LV-3907"},"ērgļi 2 - 8":{"address":"Ērgļi 2 - 8","city":"Ērgļi","zip":"LV-3907"},"ērgļi 2 - 9":{"address":"Ērgļi 2 - 9","city":"Ērgļi","zip":"LV-3907"},"ērgļi 2 - 10":{"address":"Ērgļi 2 - 10","city":"Ērgļi","zip":"LV-3907"},"ērgļi 2 - 11":{"address":"Ērgļi 2 - 11","city":"Ērgļi","zip":"LV-3907"},"ērgļi 2 - 12":{"address":"Ērgļi 2 - 12","city":"Ērgļi","zip":"LV-3907"},"ērgļi 2 - 13":{"address":"Ērgļi 2 - 13","city":"Ērgļi","zip":"LV-3907"},"ērgļi 2 - 14":{"address":"Ērgļi 2 - 14","city":"Ērgļi","zip":"LV-3907"},"ērgļi 2 - 15":{"address":"Ērgļi 2 - 15","city":"Ērgļi","zip":"LV-3907"},"ērgļi 2 - 16":{"address":"Ērgļi 2 - 16","city":"Ērgļi","zip":"LV-3907"},"ērgļi 2 - 17":{"address":"Ērgļi 2 - 17","city":"Ērgļi","zip":"LV-3907"},"ērgļi 2 - 18":{"address":"Ērgļi 2 - 18","city":"Ērgļi","zip":"LV-3907"},"ērgļi - 1":{"address":"Ērgļi - 1","city":"Virga","zip":"LV-3433"},"ērgļi - 2":{"address":"Ērgļi - 2","city":"Virga","zip":"LV-3433"},"ērgļi - 3":{"address":"Ērgļi - 3","city":"Virga","zip":"LV-3433"}}