{"ērģemes veikals - 1":{"address":"Ērģemes veikals - 1","city":"Ērģeme","zip":"LV-4711"},"ērģemes veikals - 2":{"address":"Ērģemes veikals - 2","city":"Ērģeme","zip":"LV-4711"},"ērģemes sakaru nodaļa - 1":{"address":"Ērģemes sakaru nodaļa - 1","city":"Ērģeme","zip":"LV-4711"},"ērģemes sakaru nodaļa - 2":{"address":"Ērģemes sakaru nodaļa - 2","city":"Ērģeme","zip":"LV-4711"},"ērģemes sakaru nodaļa - 3":{"address":"Ērģemes sakaru nodaļa - 3","city":"Ērģeme","zip":"LV-4711"},"brīvzemnieki - 1":{"address":"Brīvzemnieki - 1","city":"Turna","zip":"LV-4711"},"brīvzemnieki - 2":{"address":"Brīvzemnieki - 2","city":"Turna","zip":"LV-4711"},"starteri - 1":{"address":"Starteri - 1","city":"Omuļi","zip":"LV-4711"},"starteri - 2":{"address":"Starteri - 2","city":"Omuļi","zip":"LV-4711"},"starteri - 3":{"address":"Starteri - 3","city":"Omuļi","zip":"LV-4711"},"starteri - 4":{"address":"Starteri - 4","city":"Omuļi","zip":"LV-4711"},"starteri - 5":{"address":"Starteri - 5","city":"Omuļi","zip":"LV-4711"},"starteri - 6":{"address":"Starteri - 6","city":"Omuļi","zip":"LV-4711"},"starteri - 7":{"address":"Starteri - 7","city":"Omuļi","zip":"LV-4711"},"starteri - 8":{"address":"Starteri - 8","city":"Omuļi","zip":"LV-4711"},"arkādijas - 3":{"address":"Arkādijas - 3","city":"Ērģeme","zip":"LV-4711"},"arkādijas - 2":{"address":"Arkādijas - 2","city":"Ērģeme","zip":"LV-4711"},"arkādijas - 1":{"address":"Arkādijas - 1","city":"Ērģeme","zip":"LV-4711"},"austrumi - 4":{"address":"Austrumi - 4","city":"Ērģeme","zip":"LV-4711"},"austrumi - 3":{"address":"Austrumi - 3","city":"Ērģeme","zip":"LV-4711"},"austrumi - 2":{"address":"Austrumi - 2","city":"Ērģeme","zip":"LV-4711"},"austrumi - 1":{"address":"Austrumi - 1","city":"Ērģeme","zip":"LV-4711"},"kalēji - 1":{"address":"Kalēji - 1","city":"Ērģeme","zip":"LV-4711"},"kalēji - 2":{"address":"Kalēji - 2","city":"Ērģeme","zip":"LV-4711"},"liepas 1 - 1":{"address":"Liepas 1 - 1","city":"Ērģeme","zip":"LV-4711"},"liepas 1 - 2":{"address":"Liepas 1 - 2","city":"Ērģeme","zip":"LV-4711"},"liepas 1 - 3":{"address":"Liepas 1 - 3","city":"Ērģeme","zip":"LV-4711"},"liepas 1 - 4":{"address":"Liepas 1 - 4","city":"Ērģeme","zip":"LV-4711"},"liepas 1 - 5":{"address":"Liepas 1 - 5","city":"Ērģeme","zip":"LV-4711"},"liepas 1 - 6":{"address":"Liepas 1 - 6","city":"Ērģeme","zip":"LV-4711"},"liepas 1 - 7":{"address":"Liepas 1 - 7","city":"Ērģeme","zip":"LV-4711"},"liepas 1 - 8":{"address":"Liepas 1 - 8","city":"Ērģeme","zip":"LV-4711"},"kalnrozes - 1":{"address":"Kalnrozes - 1","city":"Ērģeme","zip":"LV-4711"},"kalnrozes - 2":{"address":"Kalnrozes - 2","city":"Ērģeme","zip":"LV-4711"},"kalnrozes - 3":{"address":"Kalnrozes - 3","city":"Ērģeme","zip":"LV-4711"},"kalnrozes - 4":{"address":"Kalnrozes - 4","city":"Ērģeme","zip":"LV-4711"},"liepas 2 - 1":{"address":"Liepas 2 - 1","city":"Ērģeme","zip":"LV-4711"},"liepas 2 - 2":{"address":"Liepas 2 - 2","city":"Ērģeme","zip":"LV-4711"},"liepas 2 - 3":{"address":"Liepas 2 - 3","city":"Ērģeme","zip":"LV-4711"},"liepas 2 - 4":{"address":"Liepas 2 - 4","city":"Ērģeme","zip":"LV-4711"},"liepas 2 - 5":{"address":"Liepas 2 - 5","city":"Ērģeme","zip":"LV-4711"},"liepas 2 - 6":{"address":"Liepas 2 - 6","city":"Ērģeme","zip":"LV-4711"},"liepas 2 - 7":{"address":"Liepas 2 - 7","city":"Ērģeme","zip":"LV-4711"},"liepas 2 - 8":{"address":"Liepas 2 - 8","city":"Ērģeme","zip":"LV-4711"},"pūcītes - 1":{"address":"Pūcītes - 1","city":"Ērģeme","zip":"LV-4711"},"pūcītes - 2":{"address":"Pūcītes - 2","city":"Ērģeme","zip":"LV-4711"},"pūcītes - 3":{"address":"Pūcītes - 3","city":"Ērģeme","zip":"LV-4711"},"pūcītes - 4":{"address":"Pūcītes - 4","city":"Ērģeme","zip":"LV-4711"},"pūcītes - 5":{"address":"Pūcītes - 5","city":"Ērģeme","zip":"LV-4711"},"pūcītes - 6":{"address":"Pūcītes - 6","city":"Ērģeme","zip":"LV-4711"},"pūcītes - 7":{"address":"Pūcītes - 7","city":"Ērģeme","zip":"LV-4711"},"pūcītes - 8":{"address":"Pūcītes - 8","city":"Ērģeme","zip":"LV-4711"},"pūcītes - 9":{"address":"Pūcītes - 9","city":"Ērģeme","zip":"LV-4711"},"pūcītes - 10":{"address":"Pūcītes - 10","city":"Ērģeme","zip":"LV-4711"},"pūcītes - 11":{"address":"Pūcītes - 11","city":"Ērģeme","zip":"LV-4711"},"pūcītes - 12":{"address":"Pūcītes - 12","city":"Ērģeme","zip":"LV-4711"},"pūcītes - 13":{"address":"Pūcītes - 13","city":"Ērģeme","zip":"LV-4711"},"pūcītes - 14":{"address":"Pūcītes - 14","city":"Ērģeme","zip":"LV-4711"},"pūcītes - 15":{"address":"Pūcītes - 15","city":"Ērģeme","zip":"LV-4711"},"pūcītes - 16":{"address":"Pūcītes - 16","city":"Ērģeme","zip":"LV-4711"},"pūcītes - 17":{"address":"Pūcītes - 17","city":"Ērģeme","zip":"LV-4711"},"pūcītes - 18":{"address":"Pūcītes - 18","city":"Ērģeme","zip":"LV-4711"}}