{"kreipāni 2 - 1":{"address":"Kreipāni 2 - 1","city":"Ļukeniški","zip":"LV-5462"},"kreipāni 2 - 2":{"address":"Kreipāni 2 - 2","city":"Ļukeniški","zip":"LV-5462"},"krīviņi":{"address":"Krīviņi","city":"Ļukeniški","zip":"LV-5462"},"jadvigas māja":{"address":"Jadvigas māja","city":"Ļukeniški","zip":"LV-5462"},"alinas":{"address":"Alinas","city":"Ļukeniški","zip":"LV-5462"},"denicas 1":{"address":"Denicas 1","city":"Ļukeniški","zip":"LV-5462"},"katrimpi":{"address":"Katrimpi","city":"Ļukeniški","zip":"LV-5462"},"lazdas 2":{"address":"Lazdas 2","city":"Ļukeniški","zip":"LV-5462"},"lielās liepas":{"address":"Lielās liepas","city":"Ļukeniški","zip":"LV-5462"},"ļukeniški 1":{"address":"Ļukeniški 1","city":"Ļukeniški","zip":"LV-5462"},"ļukeniški 2":{"address":"Ļukeniški 2","city":"Ļukeniški","zip":"LV-5462"},"ļukeniški 4":{"address":"Ļukeniški 4","city":"Ļukeniški","zip":"LV-5462"},"ļukeniški 7":{"address":"Ļukeniški 7","city":"Ļukeniški","zip":"LV-5462"},"ļukeniški 7a":{"address":"Ļukeniški 7A","city":"Ļukeniški","zip":"LV-5462"},"ļukeniški 12b":{"address":"Ļukeniški 12B","city":"Ļukeniški","zip":"LV-5462"},"ļukeniški 13":{"address":"Ļukeniški 13","city":"Ļukeniški","zip":"LV-5462"},"ļukeniški 15":{"address":"Ļukeniški 15","city":"Ļukeniški","zip":"LV-5462"},"ļukeniški 18":{"address":"Ļukeniški 18","city":"Ļukeniški","zip":"LV-5462"},"ļukeniški 29a":{"address":"Ļukeniški 29A","city":"Ļukeniški","zip":"LV-5462"},"nareles":{"address":"Nareles","city":"Ļukeniški","zip":"LV-5462"},"purvmaļi":{"address":"Purvmaļi","city":"Ļukeniški","zip":"LV-5462"},"sniegputniņi":{"address":"Sniegputniņi","city":"Ļukeniški","zip":"LV-5462"},"veselība":{"address":"Veselība","city":"Ļukeniški","zip":"LV-5462"},"zeltkalns":{"address":"Zeltkalns","city":"Ļukeniški","zip":"LV-5462"},"mazie krīviņi 4":{"address":"Mazie Krīviņi 4","city":"Ļukeniški","zip":"LV-5462"},"kreipāni 2":{"address":"Kreipāni 2","city":"Ļukeniški","zip":"LV-5462"},"kreipāni 4":{"address":"Kreipāni 4","city":"Ļukeniški","zip":"LV-5462"},"kreipāni 1":{"address":"Kreipāni 1","city":"Ļukeniški","zip":"LV-5462"},"ļukeniški 30":{"address":"Ļukeniški 30","city":"Jurīši","zip":"LV-5462"}}