{"šalkas - 1":{"address":"Šalkas - 1","city":"Aizstrautnieki","zip":"LV-3701"},"šalkas - 2":{"address":"Šalkas - 2","city":"Aizstrautnieki","zip":"LV-3701"},"šalkas - 3":{"address":"Šalkas - 3","city":"Aizstrautnieki","zip":"LV-3701"},"šalkas - 4":{"address":"Šalkas - 4","city":"Aizstrautnieki","zip":"LV-3701"},"šalkas - 5":{"address":"Šalkas - 5","city":"Aizstrautnieki","zip":"LV-3701"},"šalkas - 6":{"address":"Šalkas - 6","city":"Aizstrautnieki","zip":"LV-3701"},"šalkas - 7":{"address":"Šalkas - 7","city":"Remte","zip":"LV-3871"},"šalkas - 8":{"address":"Šalkas - 8","city":"Remte","zip":"LV-3871"},"šalkas - 9":{"address":"Šalkas - 9","city":"Ozolmuiža","zip":"LV-4063"},"šalkas - 10":{"address":"Šalkas - 10","city":"Ozolmuiža","zip":"LV-4063"},"šalkas - 11":{"address":"Šalkas - 11","city":"Ozolmuiža","zip":"LV-4063"},"šalkas - 12":{"address":"Šalkas - 12","city":"Ozolmuiža","zip":"LV-4063"},"šalkas - 13":{"address":"Šalkas - 13","city":"Ozolmuiža","zip":"LV-4063"},"šalkas - 14":{"address":"Šalkas - 14","city":"Ozolmuiža","zip":"LV-4063"},"šalkas - 15":{"address":"Šalkas - 15","city":"Ozolmuiža","zip":"LV-4063"},"šalkas - 16":{"address":"Šalkas - 16","city":"Ozolmuiža","zip":"LV-4063"},"šalkas - 17":{"address":"Šalkas - 17","city":"Ozolmuiža","zip":"LV-4063"},"šalkas - 18":{"address":"Šalkas - 18","city":"Ozolmuiža","zip":"LV-4063"},"šalkas - 19":{"address":"Šalkas - 19","city":"Ozolmuiža","zip":"LV-4063"},"šalkas - 20":{"address":"Šalkas - 20","city":"Ozolmuiža","zip":"LV-4063"},"šalkas - 21":{"address":"Šalkas - 21","city":"Ozolmuiža","zip":"LV-4063"},"šalkas - 22":{"address":"Šalkas - 22","city":"Ozolmuiža","zip":"LV-4063"},"šalkas - 23":{"address":"Šalkas - 23","city":"Ozolmuiža","zip":"LV-4063"},"šalkas - 24":{"address":"Šalkas - 24","city":"Ozolmuiža","zip":"LV-4063"},"šalkas - 25":{"address":"Šalkas - 25","city":"Ozolmuiža","zip":"LV-4063"},"šalkas - 26":{"address":"Šalkas - 26","city":"Ozolmuiža","zip":"LV-4063"},"šalkas - 27":{"address":"Šalkas - 27","city":"Ozolmuiža","zip":"LV-4063"},"šalkas - 28":{"address":"Šalkas - 28","city":"Ozolmuiža","zip":"LV-4063"},"šalkas - 29":{"address":"Šalkas - 29","city":"Ozolmuiža","zip":"LV-4063"},"šalkas - 30":{"address":"Šalkas - 30","city":"Ozolmuiža","zip":"LV-4063"},"šalkas - 31":{"address":"Šalkas - 31","city":"Ozolmuiža","zip":"LV-4063"},"šalkas - 32":{"address":"Šalkas - 32","city":"Ozolmuiža","zip":"LV-4063"},"šalkas - 33":{"address":"Šalkas - 33","city":"Ozolmuiža","zip":"LV-4063"},"šalkas - 34":{"address":"Šalkas - 34","city":"Ozolmuiža","zip":"LV-4063"},"šalkas - 35":{"address":"Šalkas - 35","city":"Ozolmuiža","zip":"LV-4063"},"šalkas - 36":{"address":"Šalkas - 36","city":"Ozolmuiža","zip":"LV-4063"}}